{
"type": "FeatureCollection",
"name": "geo_09_幼稚園",
"crs": { "type": "name", "properties": { "name": "urn:ogc:def:crs:EPSG::6668" } },
"features": [
{ "type": "Feature", "properties": { "P29_001": "09201", "P29_002": "A109110000014", "P29_003": "16011", "P29_004": "宇都宮大学共同教育学部附属幼稚園", "P29_005": "栃木県宇都宮市松原1-7-38", "P29_006": "1", "P29_007": "0", "P29_008": "00", "P29_009": null }, "geometry": { "type": "Point", "coordinates": [ 139.871064376231942, 36.567342865265353 ] } },
{ "type": "Feature", "properties": { "P29_001": "09215", "P29_002": "A109210000012", "P29_003": "16011", "P29_004": "那須烏山市立つくし幼稚園", "P29_005": "栃木県那須烏山市東原50", "P29_006": "3", "P29_007": "0", "P29_008": "00", "P29_009": null }, "geometry": { "type": "Point", "coordinates": [ 140.100239684753774, 36.656824294335891 ] } },
{ "type": "Feature", "properties": { "P29_001": "09206", "P29_002": "A109310000010", "P29_003": "16011", "P29_004": "輪王寺附属日光幼稚園", "P29_005": "栃木県日光市山内2383", "P29_006": "4", "P29_007": "0", "P29_008": "00", "P29_009": null }, "geometry": { "type": "Point", "coordinates": [ 139.604261995870161, 36.755207002888135 ] } },
{ "type": "Feature", "properties": { "P29_001": "09206", "P29_002": "A109310000029", "P29_003": "16011", "P29_004": "今市幼稚園", "P29_005": "栃木県日光市今市710", "P29_006": "4", "P29_007": "0", "P29_008": "00", "P29_009": null }, "geometry": { "type": "Point", "coordinates": [ 139.688540111140782, 36.72646795370752 ] } },
{ "type": "Feature", "properties": { "P29_001": "09201", "P29_002": "A109310000038", "P29_003": "16011", "P29_004": "認定こども園愛隣幼稚園", "P29_005": "栃木県宇都宮市桜2-3-27", "P29_006": "4", "P29_007": "0", "P29_008": "00", "P29_009": null }, "geometry": { "type": "Point", "coordinates": [ 139.870961218163956, 36.566216376845077 ] } },
{ "type": "Feature", "properties": { "P29_001": "09201", "P29_002": "A109310000047", "P29_003": "16011", "P29_004": "松ケ峰幼稚園認定こども園", "P29_005": "栃木県宇都宮市松が峰1-1-5", "P29_006": "4", "P29_007": "0", "P29_008": "00", "P29_009": null }, "geometry": { "type": "Point", "coordinates": [ 139.881009830284256, 36.558194299285589 ] } },
{ "type": "Feature", "properties": { "P29_001": "09206", "P29_002": "A109310000056", "P29_003": "16011", "P29_004": "きぬ川幼稚園", "P29_005": "栃木県日光市鬼怒川温泉滝857", "P29_006": "4", "P29_007": "0", "P29_008": "00", "P29_009": null }, "geometry": { "type": "Point", "coordinates": [ 139.720221905634389, 36.837331655213355 ] } },
{ "type": "Feature", "properties": { "P29_001": "09201", "P29_002": "A109310000065", "P29_003": "16011", "P29_004": "マリア幼稚園", "P29_005": "栃木県宇都宮市上籠谷町3776", "P29_006": "4", "P29_007": "0", "P29_008": "00", "P29_009": null }, "geometry": { "type": "Point", "coordinates": [ 139.975824634952431, 36.527009948678597 ] } },
{ "type": "Feature", "properties": { "P29_001": "09205", "P29_002": "A109310000074", "P29_003": "16011", "P29_004": "鹿沼幼稚園", "P29_005": "栃木県鹿沼市東末広町1934", "P29_006": "4", "P29_007": "0", "P29_008": "00", "P29_009": null }, "geometry": { "type": "Point", "coordinates": [ 139.752842452004245, 36.566259470959317 ] } },
{ "type": "Feature", "properties": { "P29_001": "09201", "P29_002": "A109310000083", "P29_003": "16011", "P29_004": "作新学院幼稚園", "P29_005": "栃木県宇都宮市一の沢1-1-41", "P29_006": "4", "P29_007": "0", "P29_008": "00", "P29_009": null }, "geometry": { "type": "Point", "coordinates": [ 139.858334509782452, 36.566512449736869 ] } },
{ "type": "Feature", "properties": { "P29_001": "09204", "P29_002": "A109310000109", "P29_003": "16011", "P29_004": "認定こども園呑竜幼稚園", "P29_005": "栃木県佐野市大祝町2312", "P29_006": "4", "P29_007": "0", "P29_008": "00", "P29_009": null }, "geometry": { "type": "Point", "coordinates": [ 139.575586796950802, 36.309360437499876 ] } },
{ "type": "Feature", "properties": { "P29_001": "09202", "P29_002": "A109310000118", "P29_003": "16011", "P29_004": "足利みどり幼稚園", "P29_005": "栃木県足利市東砂原後町1084", "P29_006": "4", "P29_007": "0", "P29_008": "00", "P29_009": null }, "geometry": { "type": "Point", "coordinates": [ 139.464804104872059, 36.349709458535372 ] } },
{ "type": "Feature", "properties": { "P29_001": "09204", "P29_002": "A109310000127", "P29_003": "16011", "P29_004": "葛生幼稚園", "P29_005": "栃木県佐野市葛生西2-7-1", "P29_006": "4", "P29_007": "0", "P29_008": "00", "P29_009": null }, "geometry": { "type": "Point", "coordinates": [ 139.607850354429019, 36.407452641452359 ] } },
{ "type": "Feature", "properties": { "P29_001": "09205", "P29_002": "A109310000136", "P29_003": "16011", "P29_004": "聖母幼稚園", "P29_005": "栃木県鹿沼市戸張町2488-1", "P29_006": "4", "P29_007": "0", "P29_008": "00", "P29_009": null }, "geometry": { "type": "Point", "coordinates": [ 139.74686669747345, 36.570852799368176 ] } },
{ "type": "Feature", "properties": { "P29_001": "09216", "P29_002": "A109310000145", "P29_003": "16011", "P29_004": "石橋幼稚園", "P29_005": "栃木県下野市石橋535", "P29_006": "4", "P29_007": "0", "P29_008": "00", "P29_009": null }, "geometry": { "type": "Point", "coordinates": [ 139.860108523396121, 36.438256275770733 ] } },
{ "type": "Feature", "properties": { "P29_001": "09407", "P29_002": "A109310000154", "P29_003": "16011", "P29_004": "那須幼稚園", "P29_005": "栃木県那須郡那須町大字寺子乙2599-3", "P29_006": "4", "P29_007": "0", "P29_008": "00", "P29_009": null }, "geometry": { "type": "Point", "coordinates": [ 140.109953246820425, 37.010256919342105 ] } },
{ "type": "Feature", "properties": { "P29_001": "09202", "P29_002": "A109310000163", "P29_003": "16011", "P29_004": "足利くるみ幼稚園", "P29_005": "栃木県足利市伊勢南町9-1", "P29_006": "4", "P29_007": "0", "P29_008": "00", "P29_009": null }, "geometry": { "type": "Point", "coordinates": [ 139.457074183659671, 36.329813959406238 ] } },
{ "type": "Feature", "properties": { "P29_001": "09201", "P29_002": "A109310000172", "P29_003": "16011", "P29_004": "石川幼稚園", "P29_005": "栃木県宇都宮市越戸町107", "P29_006": "4", "P29_007": "0", "P29_008": "00", "P29_009": null }, "geometry": { "type": "Point", "coordinates": [ 139.923820296692384, 36.571485511112101 ] } },
{ "type": "Feature", "properties": { "P29_001": "09204", "P29_002": "A109310000181", "P29_003": "16011", "P29_004": "認定こども園愛育幼稚園", "P29_005": "栃木県佐野市堀米町275", "P29_006": "4", "P29_007": "0", "P29_008": "00", "P29_009": null }, "geometry": { "type": "Point", "coordinates": [ 139.586173602594471, 36.323120484051579 ] } },
{ "type": "Feature", "properties": { "P29_001": "09361", "P29_002": "A109310000190", "P29_003": "16011", "P29_004": "たちばな幼稚園", "P29_005": "栃木県下都賀郡壬生町上田1002-3", "P29_006": "4", "P29_007": "0", "P29_008": "00", "P29_009": null }, "geometry": { "type": "Point", "coordinates": [ 139.815325675819992, 36.498158793916367 ] } },
{ "type": "Feature", "properties": { "P29_001": "09201", "P29_002": "A109310000207", "P29_003": "16011", "P29_004": "めぐみ幼稚園", "P29_005": "栃木県宇都宮市桜5-5-17", "P29_006": "4", "P29_007": "0", "P29_008": "00", "P29_009": null }, "geometry": { "type": "Point", "coordinates": [ 139.865929504123983, 36.563630969835202 ] } },
{ "type": "Feature", "properties": { "P29_001": "09213", "P29_002": "A109310000216", "P29_003": "16011", "P29_004": "認定こども園西那須野幼稚園", "P29_005": "栃木県那須塩原市西大和6-15", "P29_006": "4", "P29_007": "0", "P29_008": "00", "P29_009": null }, "geometry": { "type": "Point", "coordinates": [ 139.977209932021168, 36.886611066562935 ] } },
{ "type": "Feature", "properties": { "P29_001": "09210", "P29_002": "A109310000234", "P29_003": "16011", "P29_004": "聖家幼稚園", "P29_005": "栃木県大田原市中央1-5-10", "P29_006": "4", "P29_007": "0", "P29_008": "00", "P29_009": null }, "geometry": { "type": "Point", "coordinates": [ 140.024721709570287, 36.869191442654547 ] } },
{ "type": "Feature", "properties": { "P29_001": "09210", "P29_002": "A109310000243", "P29_003": "16011", "P29_004": "認定こども園ひかり幼稚園", "P29_005": "栃木県大田原市山の手2-11-13", "P29_006": "4", "P29_007": "0", "P29_008": "00", "P29_009": null }, "geometry": { "type": "Point", "coordinates": [ 140.030020366226466, 36.870610865768413 ] } },
{ "type": "Feature", "properties": { "P29_001": "09201", "P29_002": "A109310000252", "P29_003": "16011", "P29_004": "恵光幼稚園", "P29_005": "栃木県宇都宮市下栗町2254", "P29_006": "4", "P29_007": "0", "P29_008": "00", "P29_009": null }, "geometry": { "type": "Point", "coordinates": [ 139.916105040811289, 36.531424576954372 ] } },
{ "type": "Feature", "properties": { "P29_001": "09209", "P29_002": "A109310000261", "P29_003": "16011", "P29_004": "真岡杉の子幼稚園", "P29_005": "栃木県真岡市並木町3-6-16", "P29_006": "4", "P29_007": "0", "P29_008": "00", "P29_009": null }, "geometry": { "type": "Point", "coordinates": [ 139.995339733615964, 36.442650861576148 ] } },
{ "type": "Feature", "properties": { "P29_001": "09203", "P29_002": "A109310000270", "P29_003": "16011", "P29_004": "國學院大學栃木二杉幼稚園", "P29_005": "栃木県栃木市片柳町5-11-37", "P29_006": "4", "P29_007": "0", "P29_008": "00", "P29_009": null }, "geometry": { "type": "Point", "coordinates": [ 139.711588001808195, 36.371867869582914 ] } },
{ "type": "Feature", "properties": { "P29_001": "09203", "P29_002": "A109310000289", "P29_003": "16011", "P29_004": "認定こども園ひらかわ幼稚園", "P29_005": "栃木県栃木市大宮町2378-7", "P29_006": "4", "P29_007": "0", "P29_008": "00", "P29_009": null }, "geometry": { "type": "Point", "coordinates": [ 139.751782677090773, 36.406337936649848 ] } },
{ "type": "Feature", "properties": { "P29_001": "09202", "P29_002": "A109310000298", "P29_003": "16011", "P29_004": "足利短期大学附属幼稚園", "P29_005": "栃木県足利市福居町698", "P29_006": "4", "P29_007": "0", "P29_008": "00", "P29_009": null }, "geometry": { "type": "Point", "coordinates": [ 139.451769573862009, 36.312258598372829 ] } },
{ "type": "Feature", "properties": { "P29_001": "09201", "P29_002": "A109310000305", "P29_003": "16011", "P29_004": "御幸幼稚園", "P29_005": "栃木県宇都宮市御幸町134", "P29_006": "4", "P29_007": "0", "P29_008": "00", "P29_009": null }, "geometry": { "type": "Point", "coordinates": [ 139.919025739336206, 36.577369718214214 ] } },
{ "type": "Feature", "properties": { "P29_001": "09204", "P29_002": "A109310000314", "P29_003": "16011", "P29_004": "旗川幼稚園", "P29_005": "栃木県佐野市並木町1185", "P29_006": "4", "P29_007": "0", "P29_008": "00", "P29_009": null }, "geometry": { "type": "Point", "coordinates": [ 139.551433238600339, 36.322599816935089 ] } },
{ "type": "Feature", "properties": { "P29_001": "09201", "P29_002": "A109310000323", "P29_003": "16011", "P29_004": "ゆたか幼稚園", "P29_005": "栃木県宇都宮市上大塚町144", "P29_006": "4", "P29_007": "0", "P29_008": "00", "P29_009": null }, "geometry": { "type": "Point", "coordinates": [ 139.919355767474201, 36.611921725323953 ] } },
{ "type": "Feature", "properties": { "P29_001": "09301", "P29_002": "A109310000332", "P29_003": "16011", "P29_004": "認定こども園しらさぎ幼稚園", "P29_005": "栃木県河内郡上三川町上三川5095", "P29_006": "4", "P29_007": "0", "P29_008": "00", "P29_009": null }, "geometry": { "type": "Point", "coordinates": [ 139.915246760986037, 36.436861276632293 ] } },
{ "type": "Feature", "properties": { "P29_001": "09203", "P29_002": "A109310000341", "P29_003": "16011", "P29_004": "吹上幼稚園", "P29_005": "栃木県栃木市吹上町1376", "P29_006": "4", "P29_007": "0", "P29_008": "00", "P29_009": null }, "geometry": { "type": "Point", "coordinates": [ 139.706767682287591, 36.413994390742005 ] } },
{ "type": "Feature", "properties": { "P29_001": "09205", "P29_002": "A109310000350", "P29_003": "16011", "P29_004": "いずみ幼稚園", "P29_005": "栃木県鹿沼市泉町2460", "P29_006": "4", "P29_007": "0", "P29_008": "00", "P29_009": null }, "geometry": { "type": "Point", "coordinates": [ 139.74748301199881, 36.573642995123528 ] } },
{ "type": "Feature", "properties": { "P29_001": "09201", "P29_002": "A109310000378", "P29_003": "16011", "P29_004": "認定こども園まこと幼稚園", "P29_005": "栃木県宇都宮市砥上町330-71", "P29_006": "4", "P29_007": "0", "P29_008": "00", "P29_009": null }, "geometry": { "type": "Point", "coordinates": [ 139.84108577494834, 36.559831272791079 ] } },
{ "type": "Feature", "properties": { "P29_001": "09201", "P29_002": "A109310000396", "P29_003": "16011", "P29_004": "平出幼稚園", "P29_005": "栃木県宇都宮市平出町267-1", "P29_006": "4", "P29_007": "0", "P29_008": "00", "P29_009": null }, "geometry": { "type": "Point", "coordinates": [ 139.948730849301313, 36.575339344307963 ] } },
{ "type": "Feature", "properties": { "P29_001": "09203", "P29_002": "A109310000403", "P29_003": "16011", "P29_004": "聖光幼稚園", "P29_005": "栃木県栃木市鍋山町610-1", "P29_006": "4", "P29_007": "0", "P29_008": "00", "P29_009": null }, "geometry": { "type": "Point", "coordinates": [ 139.63718826278469, 36.452064708312413 ] } },
{ "type": "Feature", "properties": { "P29_001": "09201", "P29_002": "A109310000412", "P29_003": "16011", "P29_004": "中鶴田幼稚園", "P29_005": "栃木県宇都宮市鶴田町1313", "P29_006": "4", "P29_007": "0", "P29_008": "00", "P29_009": null }, "geometry": { "type": "Point", "coordinates": [ 139.854305476836402, 36.550566745793454 ] } },
{ "type": "Feature", "properties": { "P29_001": "09203", "P29_002": "A109310000421", "P29_003": "16011", "P29_004": "認定こども園おおひらふじ幼稚園", "P29_005": "栃木県栃木市大平町富田4012-8", "P29_006": "4", "P29_007": "0", "P29_008": "00", "P29_009": null }, "geometry": { "type": "Point", "coordinates": [ 139.709587587228214, 36.344466292259725 ] } },
{ "type": "Feature", "properties": { "P29_001": "09202", "P29_002": "A109310000430", "P29_003": "16011", "P29_004": "山辺幼稚園", "P29_005": "栃木県足利市堀込町1410-1", "P29_006": "4", "P29_007": "0", "P29_008": "00", "P29_009": null }, "geometry": { "type": "Point", "coordinates": [ 139.436378003965558, 36.306509996518137 ] } },
{ "type": "Feature", "properties": { "P29_001": "09386", "P29_002": "A109310000458", "P29_003": "16011", "P29_004": "親和幼稚園", "P29_005": "栃木県塩谷郡高根沢町大字平田1898-2", "P29_006": "4", "P29_007": "0", "P29_008": "00", "P29_009": null }, "geometry": { "type": "Point", "coordinates": [ 140.028278570944281, 36.650944779893905 ] } },
{ "type": "Feature", "properties": { "P29_001": "09204", "P29_002": "A109310000467", "P29_003": "16011", "P29_004": "佐野みのり幼稚園", "P29_005": "栃木県佐野市植上町1672-2", "P29_006": "4", "P29_007": "0", "P29_008": "00", "P29_009": null }, "geometry": { "type": "Point", "coordinates": [ 139.582731209069863, 36.303323431814391 ] } },
{ "type": "Feature", "properties": { "P29_001": "09209", "P29_002": "A109310000476", "P29_003": "16011", "P29_004": "真岡さくら幼稚園", "P29_005": "栃木県真岡市田町1054-1", "P29_006": "4", "P29_007": "0", "P29_008": "00", "P29_009": null }, "geometry": { "type": "Point", "coordinates": [ 140.008960667169021, 36.443871199214165 ] } },
{ "type": "Feature", "properties": { "P29_001": "09364", "P29_002": "A109310000485", "P29_003": "16011", "P29_004": "法得幼稚園", "P29_005": "栃木県下都賀郡野木町佐川野468-1", "P29_006": "4", "P29_007": "0", "P29_008": "00", "P29_009": null }, "geometry": { "type": "Point", "coordinates": [ 139.765575594793745, 36.22730980370374 ] } },
{ "type": "Feature", "properties": { "P29_001": "09210", "P29_002": "A109310000494", "P29_003": "16011", "P29_004": "野崎幼稚園認定こども園", "P29_005": "栃木県大田原市薄葉2228", "P29_006": "4", "P29_007": "0", "P29_008": "00", "P29_009": null }, "geometry": { "type": "Point", "coordinates": [ 139.960826225457538, 36.843021463536637 ] } },
{ "type": "Feature", "properties": { "P29_001": "09201", "P29_002": "A109310000500", "P29_003": "16011", "P29_004": "あおば幼稚園", "P29_005": "栃木県宇都宮市新里町丁1605-3", "P29_006": "4", "P29_007": "0", "P29_008": "00", "P29_009": null }, "geometry": { "type": "Point", "coordinates": [ 139.839440131672262, 36.616774406793532 ] } },
{ "type": "Feature", "properties": { "P29_001": "09361", "P29_002": "A109310000519", "P29_003": "16011", "P29_004": "おもちゃのまち幼稚園", "P29_005": "栃木県下都賀郡壬生町大字安塚753-2", "P29_006": "4", "P29_007": "0", "P29_008": "00", "P29_009": null }, "geometry": { "type": "Point", "coordinates": [ 139.833852818681692, 36.468870663439745 ] } },
{ "type": "Feature", "properties": { "P29_001": "09208", "P29_002": "A109310000528", "P29_003": "16011", "P29_004": "あおぞら幼稚園", "P29_005": "栃木県小山市大字福良1887", "P29_006": "4", "P29_007": "0", "P29_008": "00", "P29_009": null }, "geometry": { "type": "Point", "coordinates": [ 139.904817112937934, 36.328387706525881 ] } },
{ "type": "Feature", "properties": { "P29_001": "09201", "P29_002": "A109310000537", "P29_003": "16011", "P29_004": "岡本幼稚園", "P29_005": "栃木県宇都宮市中岡本町3012-2", "P29_006": "4", "P29_007": "0", "P29_008": "00", "P29_009": null }, "geometry": { "type": "Point", "coordinates": [ 139.944110023555538, 36.613622807114901 ] } },
{ "type": "Feature", "properties": { "P29_001": "09201", "P29_002": "A109310000546", "P29_003": "16011", "P29_004": "太陽幼稚園", "P29_005": "栃木県宇都宮市清原台6-11-5", "P29_006": "4", "P29_007": "0", "P29_008": "00", "P29_009": null }, "geometry": { "type": "Point", "coordinates": [ 140.002779433452275, 36.543624473306821 ] } },
{ "type": "Feature", "properties": { "P29_001": "09407", "P29_002": "A109310000564", "P29_003": "16011", "P29_004": "那須みふじ幼稚園", "P29_005": "栃木県那須郡那須町大字高久甲6394-1", "P29_006": "4", "P29_007": "0", "P29_008": "00", "P29_009": null }, "geometry": { "type": "Point", "coordinates": [ 140.045472764831402, 36.990771380570223 ] } },
{ "type": "Feature", "properties": { "P29_001": "09201", "P29_002": "A109310000582", "P29_003": "16011", "P29_004": "陽の丘幼稚園", "P29_005": "栃木県宇都宮市竹林町664", "P29_006": "4", "P29_007": "0", "P29_008": "00", "P29_009": null }, "geometry": { "type": "Point", "coordinates": [ 139.903533678986236, 36.577855670524848 ] } },
{ "type": "Feature", "properties": { "P29_001": "09213", "P29_002": "A109310000591", "P29_003": "16011", "P29_004": "すぎのこ三島幼稚園", "P29_005": "栃木県那須塩原市東三島2-87", "P29_006": "4", "P29_007": "0", "P29_008": "00", "P29_009": null }, "geometry": { "type": "Point", "coordinates": [ 139.980206134457035, 36.899024823121408 ] } },
{ "type": "Feature", "properties": { "P29_001": "09201", "P29_002": "A109310000608", "P29_003": "16011", "P29_004": "能満寺幼稚園", "P29_005": "栃木県宇都宮市駒生町1872-2", "P29_006": "4", "P29_007": "0", "P29_008": "00", "P29_009": null }, "geometry": { "type": "Point", "coordinates": [ 139.830945930943784, 36.581609283517757 ] } },
{ "type": "Feature", "properties": { "P29_001": "09208", "P29_002": "A109310000626", "P29_003": "16011", "P29_004": "白鴎大学はくおう幼稚園", "P29_005": "栃木県小山市大行寺1195", "P29_006": "4", "P29_007": "0", "P29_008": "00", "P29_009": null }, "geometry": { "type": "Point", "coordinates": [ 139.787502204432201, 36.313141793673552 ] } },
{ "type": "Feature", "properties": { "P29_001": "09209", "P29_002": "A109310000635", "P29_003": "16011", "P29_004": "菅野第二幼稚園", "P29_005": "栃木県真岡市田町1505", "P29_006": "4", "P29_007": "0", "P29_008": "00", "P29_009": null }, "geometry": { "type": "Point", "coordinates": [ 140.017729792198509, 36.433889980619931 ] } },
{ "type": "Feature", "properties": { "P29_001": "09205", "P29_002": "A109310000644", "P29_003": "16011", "P29_004": "仁神堂幼稚園", "P29_005": "栃木県鹿沼市仁神堂町37-81", "P29_006": "4", "P29_007": "0", "P29_008": "00", "P29_009": null }, "geometry": { "type": "Point", "coordinates": [ 139.768960278920588, 36.580534926897187 ] } },
{ "type": "Feature", "properties": { "P29_001": "09205", "P29_002": "A109310000653", "P29_003": "16011", "P29_004": "晃望台幼稚園", "P29_005": "栃木県鹿沼市貝島町566-8", "P29_006": "4", "P29_007": "0", "P29_008": "00", "P29_009": null }, "geometry": { "type": "Point", "coordinates": [ 139.764987999610838, 36.558373003969812 ] } },
{ "type": "Feature", "properties": { "P29_001": "09209", "P29_002": "A109310000662", "P29_003": "16011", "P29_004": "高ノ台第二幼稚園", "P29_005": "栃木県真岡市西郷206", "P29_006": "4", "P29_007": "0", "P29_008": "00", "P29_009": null }, "geometry": { "type": "Point", "coordinates": [ 139.997508578598882, 36.455695015153864 ] } },
{ "type": "Feature", "properties": { "P29_001": "09301", "P29_002": "A109310000671", "P29_003": "16011", "P29_004": "やしお幼稚園", "P29_005": "栃木県河内郡上三川町大字上蒲生2111-1", "P29_006": "4", "P29_007": "0", "P29_008": "00", "P29_009": null }, "geometry": { "type": "Point", "coordinates": [ 139.905833019990439, 36.452213995125412 ] } },
{ "type": "Feature", "properties": { "P29_001": "09201", "P29_002": "A109310000680", "P29_003": "16011", "P29_004": "柿乃木幼稚園", "P29_005": "栃木県宇都宮市宝木町2-593", "P29_006": "4", "P29_007": "0", "P29_008": "00", "P29_009": null }, "geometry": { "type": "Point", "coordinates": [ 139.849199545060571, 36.599120388539873 ] } },
{ "type": "Feature", "properties": { "P29_001": "09210", "P29_002": "A109310000699", "P29_003": "16011", "P29_004": "なでしこ幼稚園", "P29_005": "栃木県大田原市小滝1179-2", "P29_006": "4", "P29_007": "0", "P29_008": "00", "P29_009": null }, "geometry": { "type": "Point", "coordinates": [ 140.058488791607431, 36.89194675652066 ] } },
{ "type": "Feature", "properties": { "P29_001": "09213", "P29_002": "A109310000706", "P29_003": "16011", "P29_004": "第二ひかり幼稚園", "P29_005": "栃木県那須塩原市緑1-8", "P29_006": "4", "P29_007": "0", "P29_008": "00", "P29_009": null }, "geometry": { "type": "Point", "coordinates": [ 139.997336663088817, 36.867835149121092 ] } },
{ "type": "Feature", "properties": { "P29_001": "09201", "P29_002": "A109310000715", "P29_003": "16011", "P29_004": "認定こども園陽南第二幼稚園", "P29_005": "栃木県宇都宮市江曽島町1163-5", "P29_006": "4", "P29_007": "0", "P29_008": "00", "P29_009": null }, "geometry": { "type": "Point", "coordinates": [ 139.873687982062677, 36.526594732732441 ] } },
{ "type": "Feature", "properties": { "P29_001": "09210", "P29_002": "A109310000724", "P29_003": "16011", "P29_004": "認定こども園明星館幼稚園", "P29_005": "栃木県大田原市八塩254-4", "P29_006": "4", "P29_007": "0", "P29_008": "00", "P29_009": null }, "geometry": { "type": "Point", "coordinates": [ 140.124852502147519, 36.855842272368541 ] } },
{ "type": "Feature", "properties": { "P29_001": "09201", "P29_002": "A109310000733", "P29_003": "16011", "P29_004": "みずほ幼稚園", "P29_005": "栃木県宇都宮市西刑部町2569-4", "P29_006": "4", "P29_007": "0", "P29_008": "00", "P29_009": null }, "geometry": { "type": "Point", "coordinates": [ 139.926079366456094, 36.512626256434345 ] } },
{ "type": "Feature", "properties": { "P29_001": "09202", "P29_002": "A109310000751", "P29_003": "16011", "P29_004": "足利さくら幼稚園", "P29_005": "栃木県足利市島田町105-1", "P29_006": "4", "P29_007": "0", "P29_008": "00", "P29_009": null }, "geometry": { "type": "Point", "coordinates": [ 139.45391792204461, 36.297452811588002 ] } },
{ "type": "Feature", "properties": { "P29_001": "09209", "P29_002": "A109310000760", "P29_003": "16011", "P29_004": "萌丘東幼稚園", "P29_005": "栃木県真岡市東郷395-1", "P29_006": "4", "P29_007": "0", "P29_008": "00", "P29_009": null }, "geometry": { "type": "Point", "coordinates": [ 140.029391997271034, 36.447550995290563 ] } },
{ "type": "Feature", "properties": { "P29_001": "09386", "P29_002": "A109310000779", "P29_003": "16011", "P29_004": "高根沢第二幼稚園", "P29_005": "栃木県塩谷郡高根沢町光陽台4-11-5", "P29_006": "4", "P29_007": "0", "P29_008": "00", "P29_009": null }, "geometry": { "type": "Point", "coordinates": [ 139.984574283803227, 36.617263573344211 ] } },
{ "type": "Feature", "properties": { "P29_001": "09201", "P29_002": "A109310000788", "P29_003": "16011", "P29_004": "上河内幼稚園", "P29_005": "栃木県宇都宮市中里町572-3", "P29_006": "4", "P29_007": "0", "P29_008": "00", "P29_009": null }, "geometry": { "type": "Point", "coordinates": [ 139.892731723471627, 36.678723348642528 ] } },
{ "type": "Feature", "properties": { "P29_001": "09201", "P29_002": "A109310000797", "P29_003": "16011", "P29_004": "清原ミドリ幼稚園", "P29_005": "栃木県宇都宮市氷室町1067-13", "P29_006": "4", "P29_007": "0", "P29_008": "00", "P29_009": null }, "geometry": { "type": "Point", "coordinates": [ 140.004522157132214, 36.532295339184884 ] } },
{ "type": "Feature", "properties": { "P29_001": "09201", "P29_002": "A109310000804", "P29_003": "16011", "P29_004": "さつき幼稚園", "P29_005": "栃木県宇都宮市針ヶ谷町岡田山297-3", "P29_006": "4", "P29_007": "0", "P29_008": "00", "P29_009": null }, "geometry": { "type": "Point", "coordinates": [ 139.859754650530817, 36.481455075301412 ] } },
{ "type": "Feature", "properties": { "P29_001": "09208", "P29_002": "A109310000813", "P29_003": "16011", "P29_004": "つぼみキンダーガーテン", "P29_005": "栃木県小山市宮本町2-14-18", "P29_006": "4", "P29_007": "0", "P29_008": "00", "P29_009": null }, "geometry": { "type": "Point", "coordinates": [ 139.800983456926076, 36.309436730055275 ] } },
{ "type": "Feature", "properties": { "P29_001": "09203", "P29_002": "A110310000464", "P29_003": "16011", "P29_004": "ひまわり幼稚園", "P29_005": "群馬県邑楽郡板倉町海老瀬7444", "P29_006": "4", "P29_007": "0", "P29_008": "00", "P29_009": null }, "geometry": { "type": "Point", "coordinates": [ 139.649712702971954, 36.239658314916014 ] } }
]
}
