{
"type": "FeatureCollection",
"name": "geo_09_特定福祉用具販売",
"crs": { "type": "name", "properties": { "name": "urn:ogc:def:crs:OGC:1.3:CRS84" } },
"features": [
{ "type": "Feature", "properties": { "内容": "ひさご会【特定福祉用具販売】栃木県宇都宮市大曽４丁目１０番１９号", "url": "https://www.kaigokensaku.mhlw.go.jp/09/index.php?action_kouhyou_detail_004_kani=true&JigyosyoCd=0970102760-00&ServiceCd=410&Type=search", "url2": "http://www.hisagokai.com/" }, "geometry": { "type": "Point", "coordinates": [ 139.890553299999965, 36.5696415 ] } },
{ "type": "Feature", "properties": { "内容": "アイサポート【特定福祉用具販売】栃木県宇都宮市大曽1-1-34", "url": "https://www.kaigokensaku.mhlw.go.jp/09/index.php?action_kouhyou_detail_004_kani=true&JigyosyoCd=0970102471-00&ServiceCd=410&Type=search", "url2": "http://www.ais-pal.jp" }, "geometry": { "type": "Point", "coordinates": [ 139.888409200000069, 36.5673472 ] } },
{ "type": "Feature", "properties": { "内容": "福祉用具レンタルセンター（平成22年度新規指定事業所）【特定福祉用具販売】栃木県宇都宮市石井町３３７３－１５", "url": "https://www.kaigokensaku.mhlw.go.jp/09/index.php?action_kouhyou_detail_004_kani=true&JigyosyoCd=0970104998-00&ServiceCd=410&Type=search", "url2": "http://utsunomiya-fukushi.com" }, "geometry": { "type": "Point", "coordinates": [ 139.920368599999961, 36.5288359 ] } },
{ "type": "Feature", "properties": { "内容": "株式会社ヤマシタコーポレーション宇都宮営業所【特定福祉用具販売】栃木県宇都宮市竹林町４２０", "url": "https://www.kaigokensaku.mhlw.go.jp/09/index.php?action_kouhyou_detail_004_kani=true&JigyosyoCd=0970100319-00&ServiceCd=410&Type=search", "url2": "http://www.yco.co.jp/" }, "geometry": { "type": "Point", "coordinates": [ 139.908914399999958, 36.5797804 ] } },
{ "type": "Feature", "properties": { "内容": "明和ケアサービス【特定福祉用具販売】栃木県宇都宮市緑１－３－１", "url": "https://www.kaigokensaku.mhlw.go.jp/09/index.php?action_kouhyou_detail_004_kani=true&JigyosyoCd=0970106233-00&ServiceCd=410&Type=search", "url2": null }, "geometry": { "type": "Point", "coordinates": [ 139.863658578434752, 36.523105519564865 ] } },
{ "type": "Feature", "properties": { "内容": "エスケーワールド有限会社【特定福祉用具販売】栃木県宇都宮市野沢町335番地", "url": "https://www.kaigokensaku.mhlw.go.jp/09/index.php?action_kouhyou_detail_004_kani=true&JigyosyoCd=0970100673-00&ServiceCd=410&Type=search", "url2": null }, "geometry": { "type": "Point", "coordinates": [ 139.855537599999934, 36.6112909 ] } },
{ "type": "Feature", "properties": { "内容": "株式会社スペースケア　宇都宮営業所【特定福祉用具販売】栃木県宇都宮市弥生1-7-16", "url": "https://www.kaigokensaku.mhlw.go.jp/09/index.php?action_kouhyou_detail_004_kani=true&JigyosyoCd=0970106498-00&ServiceCd=410&Type=search", "url2": "https://www.spacecare.co.jp/" }, "geometry": { "type": "Point", "coordinates": [ 139.868700399999966, 36.5432967 ] } },
{ "type": "Feature", "properties": { "内容": "株式会社　仁済　福祉用具貸与事業【特定福祉用具販売】栃木県宇都宮市泉が丘2-2-6スクウェアビル103", "url": "https://www.kaigokensaku.mhlw.go.jp/09/index.php?action_kouhyou_detail_004_kani=true&JigyosyoCd=0970108528-00&ServiceCd=410&Type=search", "url2": "https://www.jinsai.co.jp/" }, "geometry": { "type": "Point", "coordinates": [ 139.920892900000013, 36.5637286 ] } },
{ "type": "Feature", "properties": { "内容": "バディーズ福祉用具サポートセンター【特定福祉用具販売】栃木県宇都宮市下岡本町4060", "url": "https://www.kaigokensaku.mhlw.go.jp/09/index.php?action_kouhyou_detail_004_kani=true&JigyosyoCd=0970108692-00&ServiceCd=410&Type=search", "url2": "https://buddies-inc.com/company/" }, "geometry": { "type": "Point", "coordinates": [ 139.941909900000013, 36.5962839 ] } },
{ "type": "Feature", "properties": { "内容": "株式会社　ロイエル【特定福祉用具販売】宇都宮市砥上町1140-1　ｻﾝﾊｲﾂ砥上108", "url": "https://www.kaigokensaku.mhlw.go.jp/09/index.php?action_kouhyou_detail_004_kani=true&JigyosyoCd=0970104089-00&ServiceCd=410&Type=search", "url2": null }, "geometry": { "type": "Point", "coordinates": [ 139.838451399999968, 36.5608519 ] } },
{ "type": "Feature", "properties": { "内容": "ユージンケアサービス【特定福祉用具販売】栃木県宇都宮市駒生町792番地コートヴィアーレ202", "url": "https://www.kaigokensaku.mhlw.go.jp/09/index.php?action_kouhyou_detail_004_kani=true&JigyosyoCd=0970108155-00&ServiceCd=410&Type=search", "url2": "https://sites.google.com/view/yujin-care-service/" }, "geometry": { "type": "Point", "coordinates": [ 139.8490627, 36.5761765 ] } },
{ "type": "Feature", "properties": { "内容": "株式会社キガ【特定福祉用具販売】栃木県宇都宮市平出町1043-3", "url": "https://www.kaigokensaku.mhlw.go.jp/09/index.php?action_kouhyou_detail_004_kani=true&JigyosyoCd=0970100806-00&ServiceCd=410&Type=search", "url2": "http://www.kiga.co.jp" }, "geometry": { "type": "Point", "coordinates": [ 139.947260020901467, 36.568086011499489 ] } },
{ "type": "Feature", "properties": { "内容": "エフビー介護サービス株式会社宇都宮営業所【特定福祉用具販売】栃木県宇都宮市横田新町4－19", "url": "https://www.kaigokensaku.mhlw.go.jp/09/index.php?action_kouhyou_detail_004_kani=true&JigyosyoCd=0970102422-00&ServiceCd=410&Type=search", "url2": "http://www.fb-kaigo.co.jp" }, "geometry": { "type": "Point", "coordinates": [ 139.876864354461645, 36.509276563556078 ] } },
{ "type": "Feature", "properties": { "内容": "パナソニック　エイジフリーショップ宇都宮東【特定福祉用具販売】栃木県宇都宮市問屋町　３４１３－５１", "url": "https://www.kaigokensaku.mhlw.go.jp/09/index.php?action_kouhyou_detail_004_kani=true&JigyosyoCd=0970102638-00&ServiceCd=410&Type=search", "url2": null }, "geometry": { "type": "Point", "coordinates": [ 139.9204009, 36.5325291 ] } },
{ "type": "Feature", "properties": { "内容": "パナソニックエイジフリーショップ　宇都宮西店【特定福祉用具販売】栃木県宇都宮市鶴田町3492-120", "url": "https://www.kaigokensaku.mhlw.go.jp/09/index.php?action_kouhyou_detail_004_kani=true&JigyosyoCd=0970102653-00&ServiceCd=410&Type=search", "url2": "http://www.kaigo-sagara.jp" }, "geometry": { "type": "Point", "coordinates": [ 139.8704133, 36.5617473 ] } },
{ "type": "Feature", "properties": { "内容": "じがみケアサポート【特定福祉用具販売】栃木県宇都宮市東宿郷6丁目4番7号プラスパビル1F", "url": "https://www.kaigokensaku.mhlw.go.jp/09/index.php?action_kouhyou_detail_004_kani=true&JigyosyoCd=0970102984-00&ServiceCd=410&Type=search", "url2": null }, "geometry": { "type": "Point", "coordinates": [ 139.91049033297341, 36.557111854795714 ] } },
{ "type": "Feature", "properties": { "内容": "株式会社　栗原医療器械店　宇都宮オフィス【特定福祉用具販売】栃木県宇都宮市岩曽町1307番地3", "url": "https://www.kaigokensaku.mhlw.go.jp/09/index.php?action_kouhyou_detail_004_kani=true&JigyosyoCd=0970104600-00&ServiceCd=410&Type=search", "url2": "http://www.kuribara.co.jp" }, "geometry": { "type": "Point", "coordinates": [ 139.909994500000039, 36.58383 ] } },
{ "type": "Feature", "properties": { "内容": "労働者協同組合　こらぼワーク【特定福祉用具販売】栃木県宇都宮市西川田7-1-2", "url": "https://www.kaigokensaku.mhlw.go.jp/09/index.php?action_kouhyou_detail_004_kani=true&JigyosyoCd=0970104659-00&ServiceCd=410&Type=search", "url2": "http://www.kyoudou.net" }, "geometry": { "type": "Point", "coordinates": [ 139.862074827612702, 36.507766808210313 ] } },
{ "type": "Feature", "properties": { "内容": "ソネット宇都宮【特定福祉用具販売】栃木県宇都宮市下栗2291-4", "url": "https://www.kaigokensaku.mhlw.go.jp/09/index.php?action_kouhyou_detail_004_kani=true&JigyosyoCd=0970104824-00&ServiceCd=410&Type=search", "url2": "http://www.sonnette.biz" }, "geometry": { "type": "Point", "coordinates": [ 139.918705600000038, 36.525182099999967 ] } },
{ "type": "Feature", "properties": { "内容": "リョーシン福祉用具事業所【特定福祉用具販売】栃木県宇都宮市御幸ヶ原町31-53コーポＴＫ101", "url": "https://www.kaigokensaku.mhlw.go.jp/09/index.php?action_kouhyou_detail_004_kani=true&JigyosyoCd=0970106423-00&ServiceCd=410&Type=search", "url2": null }, "geometry": { "type": "Point", "coordinates": [ 139.928087823725946, 36.588519418296734 ] } },
{ "type": "Feature", "properties": { "内容": "東京インテリア　MS　宇都宮【特定福祉用具販売】栃木県宇都宮市鶴田町1420-2", "url": "https://www.kaigokensaku.mhlw.go.jp/09/index.php?action_kouhyou_detail_004_kani=true&JigyosyoCd=0970106746-00&ServiceCd=410&Type=search", "url2": "http://www.tokyointerior.co.jp" }, "geometry": { "type": "Point", "coordinates": [ 139.850840938623008, 36.549197981035647 ] } },
{ "type": "Feature", "properties": { "内容": "ひまわり館宇都宮営業所【特定福祉用具販売】栃木県宇都宮市岩曽町644-4", "url": "https://www.kaigokensaku.mhlw.go.jp/09/index.php?action_kouhyou_detail_004_kani=true&JigyosyoCd=0970106894-00&ServiceCd=410&Type=search", "url2": "http://www.fujielectric.co.jp/fols/welfare/index.html" }, "geometry": { "type": "Point", "coordinates": [ 139.900739394680755, 36.586012904946017 ] } },
{ "type": "Feature", "properties": { "内容": "宇都宮福祉レンタルサービス【特定福祉用具販売】栃木県宇都宮市鶴田町1627番地1", "url": "https://www.kaigokensaku.mhlw.go.jp/09/index.php?action_kouhyou_detail_004_kani=true&JigyosyoCd=0970107868-00&ServiceCd=410&Type=search", "url2": "nitto-rental.co.jp" }, "geometry": { "type": "Point", "coordinates": [ 139.849133086385336, 36.550211073779614 ] } },
{ "type": "Feature", "properties": { "内容": "うつのみや用具屋にこっと【特定福祉用具販売】栃木県宇都宮市平出町1777-3", "url": "https://www.kaigokensaku.mhlw.go.jp/09/index.php?action_kouhyou_detail_004_kani=true&JigyosyoCd=0970108221-00&ServiceCd=410&Type=search", "url2": null }, "geometry": { "type": "Point", "coordinates": [ 139.9433383, 36.5595188 ] } },
{ "type": "Feature", "properties": { "内容": "株式会社フロンティア宇都宮営業所【特定福祉用具販売】栃木県宇都宮市花房1丁目15-2アッサンブラージュ1階", "url": "https://www.kaigokensaku.mhlw.go.jp/09/index.php?action_kouhyou_detail_004_kani=true&JigyosyoCd=0970108726-00&ServiceCd=410&Type=search", "url2": null }, "geometry": { "type": "Point", "coordinates": [ 139.880873900000012, 36.5468156 ] } },
{ "type": "Feature", "properties": { "内容": "株式会社日成メディカル栃木支店【特定福祉用具販売】栃木県宇都宮市問屋町3426-39", "url": "https://www.kaigokensaku.mhlw.go.jp/09/index.php?action_kouhyou_detail_004_kani=true&JigyosyoCd=0970109005-00&ServiceCd=410&Type=search", "url2": "http://www.nissei-m.co.jp/" }, "geometry": { "type": "Point", "coordinates": [ 139.92048743848423, 36.535128156284259 ] } },
{ "type": "Feature", "properties": { "内容": "福祉用具みなみ宇都宮【特定福祉用具販売】宇都宮市吉野2-4-17", "url": "https://www.kaigokensaku.mhlw.go.jp/09/index.php?action_kouhyou_detail_004_kani=true&JigyosyoCd=0970109203-00&ServiceCd=410&Type=search", "url2": null }, "geometry": { "type": "Point", "coordinates": [ 139.8704089, 36.5444126 ] } },
{ "type": "Feature", "properties": { "内容": "チャレンジドオーエンホーム（平成22年度新規指定事業所）【特定福祉用具販売】栃木県宇都宮市東刑部町2381", "url": "https://www.kaigokensaku.mhlw.go.jp/09/index.php?action_kouhyou_detail_004_kani=true&JigyosyoCd=0970105151-00&ServiceCd=410&Type=search", "url2": null }, "geometry": { "type": "Point", "coordinates": [ 139.948062, 36.4897666 ] } },
{ "type": "Feature", "properties": { "内容": "株式会社ひびき【特定福祉用具販売】栃木県宇都宮市下岡本町1996－2", "url": "https://www.kaigokensaku.mhlw.go.jp/09/index.php?action_kouhyou_detail_004_kani=true&JigyosyoCd=0972100424-00&ServiceCd=410&Type=search", "url2": "http://www.t-hibiki.co.jp" }, "geometry": { "type": "Point", "coordinates": [ 139.942046399999981, 36.6010319 ] } },
{ "type": "Feature", "properties": { "内容": "株式会社　サンライフ【特定福祉用具販売】栃木県足利市県町１１０６－２", "url": "https://www.kaigokensaku.mhlw.go.jp/09/index.php?action_kouhyou_detail_004_kani=true&JigyosyoCd=0970201687-00&ServiceCd=410&Type=search", "url2": null }, "geometry": { "type": "Point", "coordinates": [ 139.466892799999982, 36.2820217 ] } },
{ "type": "Feature", "properties": { "内容": "倉林有限会社【特定福祉用具販売】栃木県足利市借宿町1丁目5番1号", "url": "https://www.kaigokensaku.mhlw.go.jp/09/index.php?action_kouhyou_detail_004_kani=true&JigyosyoCd=0970200796-00&ServiceCd=410&Type=search", "url2": null }, "geometry": { "type": "Point", "coordinates": [ 139.4285514, 36.3293177 ] } },
{ "type": "Feature", "properties": { "内容": "足利ケアサービス【特定福祉用具販売】栃木県足利市五十部町８０９－３", "url": "https://www.kaigokensaku.mhlw.go.jp/09/index.php?action_kouhyou_detail_004_kani=true&JigyosyoCd=0970200440-00&ServiceCd=410&Type=search", "url2": null }, "geometry": { "type": "Point", "coordinates": [ 139.423690399999941, 36.3463333 ] } },
{ "type": "Feature", "properties": { "内容": "中央ケアサポート【特定福祉用具販売】栃木県足利市五十部町499-3", "url": "https://www.kaigokensaku.mhlw.go.jp/09/index.php?action_kouhyou_detail_004_kani=true&JigyosyoCd=0970200549-00&ServiceCd=410&Type=search", "url2": null }, "geometry": { "type": "Point", "coordinates": [ 139.42155066387997, 36.342795411507375 ] } },
{ "type": "Feature", "properties": { "内容": "株式会社ナガシマ【特定福祉用具販売】栃木県足利市福居町１０４３－８", "url": "https://www.kaigokensaku.mhlw.go.jp/09/index.php?action_kouhyou_detail_004_kani=true&JigyosyoCd=0970200705-00&ServiceCd=410&Type=search", "url2": null }, "geometry": { "type": "Point", "coordinates": [ 139.451586099999986, 36.3088692 ] } },
{ "type": "Feature", "properties": { "内容": "カノンケアサービス【特定福祉用具販売】栃木県足利市中川町３５６７－１", "url": "https://www.kaigokensaku.mhlw.go.jp/09/index.php?action_kouhyou_detail_004_kani=true&JigyosyoCd=0970201604-00&ServiceCd=410&Type=search", "url2": null }, "geometry": { "type": "Point", "coordinates": [ 139.424838306863847, 36.329334171929744 ] } },
{ "type": "Feature", "properties": { "内容": "訪問介護ステーションひよこ【特定福祉用具販売】葉鹿町1丁目16番地4", "url": "https://www.kaigokensaku.mhlw.go.jp/09/index.php?action_kouhyou_detail_004_kani=true&JigyosyoCd=0970202248-00&ServiceCd=410&Type=search", "url2": "http:hp.kaipoke.biz/mob/" }, "geometry": { "type": "Point", "coordinates": [ 139.3907824, 36.3670137 ] } },
{ "type": "Feature", "properties": { "内容": "株式会社エハラ　ライフメディカル【特定福祉用具販売】栃木県足利市久松町128", "url": "https://www.kaigokensaku.mhlw.go.jp/09/index.php?action_kouhyou_detail_004_kani=true&JigyosyoCd=0970202388-00&ServiceCd=410&Type=search", "url2": null }, "geometry": { "type": "Point", "coordinates": [ 139.469445770993929, 36.333077294390627 ] } },
{ "type": "Feature", "properties": { "内容": "株式会社ヤマシタ　足利営業所【特定福祉用具販売】栃木県足利市山川町777", "url": "https://www.kaigokensaku.mhlw.go.jp/09/index.php?action_kouhyou_detail_004_kani=true&JigyosyoCd=0970203402-00&ServiceCd=410&Type=search", "url2": "http://www.ycota.jp" }, "geometry": { "type": "Point", "coordinates": [ 139.477468700000031, 36.3261675 ] } },
{ "type": "Feature", "properties": { "内容": "ＭＩＺＵＫＯ福祉サービス【特定福祉用具販売】２７４０－１", "url": "https://www.kaigokensaku.mhlw.go.jp/09/index.php?action_kouhyou_detail_004_kani=true&JigyosyoCd=0970203766-00&ServiceCd=410&Type=search", "url2": null }, "geometry": { "type": "Point", "coordinates": [ 139.44934, 36.333176 ] } },
{ "type": "Feature", "properties": { "内容": "ライフ・アシスト【特定福祉用具販売】栃木県五十部町565", "url": "https://www.kaigokensaku.mhlw.go.jp/09/index.php?action_kouhyou_detail_004_kani=true&JigyosyoCd=0970203774-00&ServiceCd=410&Type=search", "url2": null }, "geometry": { "type": "Point", "coordinates": [ 139.4161594, 36.3437182 ] } },
{ "type": "Feature", "properties": { "内容": "ケアフレンド三和【特定福祉用具販売】栃木県足利市板倉町207", "url": "https://www.kaigokensaku.mhlw.go.jp/09/index.php?action_kouhyou_detail_004_kani=true&JigyosyoCd=0970200788-00&ServiceCd=410&Type=search", "url2": null }, "geometry": { "type": "Point", "coordinates": [ 139.400175699999977, 36.373905 ] } },
{ "type": "Feature", "properties": { "内容": "栃木ケアサポートひまわり【特定福祉用具販売】栃木県栃木市祝町12-9", "url": "https://www.kaigokensaku.mhlw.go.jp/09/index.php?action_kouhyou_detail_004_kani=true&JigyosyoCd=0970300463-00&ServiceCd=410&Type=search", "url2": null }, "geometry": { "type": "Point", "coordinates": [ 139.7274205, 36.3818969 ] } },
{ "type": "Feature", "properties": { "内容": "有限会社　栃木ケアーズ【特定福祉用具販売】栃木県栃木市箱森町19-34", "url": "https://www.kaigokensaku.mhlw.go.jp/09/index.php?action_kouhyou_detail_004_kani=true&JigyosyoCd=0970300414-00&ServiceCd=410&Type=search", "url2": "http://www.t-cares.co.jp" }, "geometry": { "type": "Point", "coordinates": [ 139.7205596, 36.3899985 ] } },
{ "type": "Feature", "properties": { "内容": "廣田商事株式会社【特定福祉用具販売】栃木県栃木市箱森町51-41", "url": "https://www.kaigokensaku.mhlw.go.jp/09/index.php?action_kouhyou_detail_004_kani=true&JigyosyoCd=0970300026-00&ServiceCd=410&Type=search", "url2": null }, "geometry": { "type": "Point", "coordinates": [ 139.730922, 36.3976757 ] } },
{ "type": "Feature", "properties": { "内容": "丸光ケアサービス株式会社【特定福祉用具販売】栃木県栃木市箱森町50番15号", "url": "https://www.kaigokensaku.mhlw.go.jp/09/index.php?action_kouhyou_detail_004_kani=true&JigyosyoCd=0970300315-00&ServiceCd=410&Type=search", "url2": "https://marumitsu-care.jp/" }, "geometry": { "type": "Point", "coordinates": [ 139.727214099999969, 36.3972173 ] } },
{ "type": "Feature", "properties": { "内容": "テクノエイド総合センター　アビリティーズとちぎ【特定福祉用具販売】栃木県栃木市今泉町1－5－11", "url": "https://www.kaigokensaku.mhlw.go.jp/09/index.php?action_kouhyou_detail_004_kani=true&JigyosyoCd=0970300653-00&ServiceCd=410&Type=search", "url2": "http://www.abilities.jp" }, "geometry": { "type": "Point", "coordinates": [ 139.74801279999997, 36.3869969 ] } },
{ "type": "Feature", "properties": { "内容": "ダスキンヘルスレント栃木ステ－ション【特定福祉用具販売】栃木県栃木市大平町牛久28-2", "url": "https://www.kaigokensaku.mhlw.go.jp/09/index.php?action_kouhyou_detail_004_kani=true&JigyosyoCd=0970300687-00&ServiceCd=410&Type=search", "url2": "http://www.healthrent.duskin.jp" }, "geometry": { "type": "Point", "coordinates": [ 139.734722444992542, 36.358510483321965 ] } },
{ "type": "Feature", "properties": { "内容": "株式会社トラスト・ケア【特定福祉用具販売】栃木県栃木市大町19-10", "url": "https://www.kaigokensaku.mhlw.go.jp/09/index.php?action_kouhyou_detail_004_kani=true&JigyosyoCd=0970301347-00&ServiceCd=410&Type=search", "url2": "http://trust-care.webnode.jp/" }, "geometry": { "type": "Point", "coordinates": [ 139.734939385319507, 36.394804842137638 ] } },
{ "type": "Feature", "properties": { "内容": "石川商事株式会社【特定福祉用具販売】栃木県栃木市薗部町2-16-30", "url": "https://www.kaigokensaku.mhlw.go.jp/09/index.php?action_kouhyou_detail_004_kani=true&JigyosyoCd=0970301644-00&ServiceCd=410&Type=search", "url2": null }, "geometry": { "type": "Point", "coordinates": [ 139.719022700000011, 36.378513400000017 ] } },
{ "type": "Feature", "properties": { "内容": "あいケアステーション【特定福祉用具販売】栃木県栃木市薗部町2丁目5番9号", "url": "https://www.kaigokensaku.mhlw.go.jp/09/index.php?action_kouhyou_detail_004_kani=true&JigyosyoCd=0970301693-00&ServiceCd=410&Type=search", "url2": "https//:www-i-care.co.jp" }, "geometry": { "type": "Point", "coordinates": [ 139.716294531282841, 36.374552061599985 ] } },
{ "type": "Feature", "properties": { "内容": "東京インテリアＭＳ栃木【特定福祉用具販売】栃木県栃木市平柳町1-35-31", "url": "https://www.kaigokensaku.mhlw.go.jp/09/index.php?action_kouhyou_detail_004_kani=true&JigyosyoCd=0970302139-00&ServiceCd=410&Type=search", "url2": "http://www.tokyointerior.co.jp/service/nursingcare/" }, "geometry": { "type": "Point", "coordinates": [ 139.7375404, 36.3947536 ] } },
{ "type": "Feature", "properties": { "内容": "とちぎさんち【特定福祉用具販売】栃木県栃木市薗部町２丁目１６番３０号", "url": "https://www.kaigokensaku.mhlw.go.jp/09/index.php?action_kouhyou_detail_004_kani=true&JigyosyoCd=0970302253-00&ServiceCd=410&Type=search", "url2": "http://kabushilkigaisha-triple-t.amebaownd.com" }, "geometry": { "type": "Point", "coordinates": [ 139.719039, 36.3784812 ] } },
{ "type": "Feature", "properties": { "内容": "有限会社大前設備【特定福祉用具販売】藤岡町大前39－1", "url": "https://www.kaigokensaku.mhlw.go.jp/09/index.php?action_kouhyou_detail_004_kani=true&JigyosyoCd=0970302501-00&ServiceCd=410&Type=search", "url2": "https://www.ohmaesetzbi.co.jp/" }, "geometry": { "type": "Point", "coordinates": [ 139.6516856, 36.2704775 ] } },
{ "type": "Feature", "properties": { "内容": "エフビー介護サービス株式会社佐野営業所【特定福祉用具販売】栃木県佐野市富岡町1509-1", "url": "https://www.kaigokensaku.mhlw.go.jp/09/index.php?action_kouhyou_detail_004_kani=true&JigyosyoCd=0970402228-00&ServiceCd=410&Type=search", "url2": "https://fb-kaigo.co.jp" }, "geometry": { "type": "Point", "coordinates": [ 139.5959551, 36.3148472 ] } },
{ "type": "Feature", "properties": { "内容": "あんさ補聴器介護サービス【特定福祉用具販売】栃木県佐野市富岡町72-7", "url": "https://www.kaigokensaku.mhlw.go.jp/09/index.php?action_kouhyou_detail_004_kani=true&JigyosyoCd=0970402392-00&ServiceCd=410&Type=search", "url2": "https://ansa9077.com/" }, "geometry": { "type": "Point", "coordinates": [ 139.589094120791714, 36.321424655116367 ] } },
{ "type": "Feature", "properties": { "内容": "ケアツール（平成22年度新規指定事業所）【特定福祉用具販売】下材木町1362", "url": "https://www.kaigokensaku.mhlw.go.jp/09/index.php?action_kouhyou_detail_004_kani=true&JigyosyoCd=0970500849-00&ServiceCd=410&Type=search", "url2": null }, "geometry": { "type": "Point", "coordinates": [ 139.74525170000004, 36.5620944 ] } },
{ "type": "Feature", "properties": { "内容": "ピュアぶらんち【特定福祉用具販売】栃木県鹿沼市西茂呂2-3-20", "url": "https://www.kaigokensaku.mhlw.go.jp/09/index.php?action_kouhyou_detail_004_kani=true&JigyosyoCd=0970501276-00&ServiceCd=410&Type=search", "url2": "http://www.pureblanch.com/" }, "geometry": { "type": "Point", "coordinates": [ 139.7701664, 36.5559043 ] } },
{ "type": "Feature", "properties": { "内容": "介護ショップいせも【特定福祉用具販売】鹿沼市久保町1285", "url": "https://www.kaigokensaku.mhlw.go.jp/09/index.php?action_kouhyou_detail_004_kani=true&JigyosyoCd=0970500104-00&ServiceCd=410&Type=search", "url2": null }, "geometry": { "type": "Point", "coordinates": [ 139.7470793, 36.5650636 ] } },
{ "type": "Feature", "properties": { "内容": "株式会社　星医療酸器　栃木事業所【特定福祉用具販売】栃木県鹿沼市深津2541-1", "url": "https://www.kaigokensaku.mhlw.go.jp/09/index.php?action_kouhyou_detail_004_kani=true&JigyosyoCd=0970500559-00&ServiceCd=410&Type=search", "url2": "http://www.hosi.co.jp" }, "geometry": { "type": "Point", "coordinates": [ 139.799633200000017, 36.5504223 ] } },
{ "type": "Feature", "properties": { "内容": "介護用品　さんて【特定福祉用具販売】栃木県鹿沼市上野町55-2", "url": "https://www.kaigokensaku.mhlw.go.jp/09/index.php?action_kouhyou_detail_004_kani=true&JigyosyoCd=0970500831-00&ServiceCd=410&Type=search", "url2": null }, "geometry": { "type": "Point", "coordinates": [ 139.7658523, 36.5727494 ] } },
{ "type": "Feature", "properties": { "内容": "関東メディカル株式会社　栃木営業所【特定福祉用具販売】栃木県鹿沼市松原三丁目１１９番１", "url": "https://www.kaigokensaku.mhlw.go.jp/09/index.php?action_kouhyou_detail_004_kani=true&JigyosyoCd=0970500922-00&ServiceCd=410&Type=search", "url2": "http://kmc-tochigi.jimdo.com" }, "geometry": { "type": "Point", "coordinates": [ 139.816213917057809, 36.550326353188801 ] } },
{ "type": "Feature", "properties": { "内容": "野澤産業株式会社介護事業おりづる【特定福祉用具販売】栃木県鹿沼市茂呂923-32", "url": "https://www.kaigokensaku.mhlw.go.jp/09/index.php?action_kouhyou_detail_004_kani=true&JigyosyoCd=0970501219-00&ServiceCd=410&Type=search", "url2": null }, "geometry": { "type": "Point", "coordinates": [ 139.790645300000051, 36.5489418 ] } },
{ "type": "Feature", "properties": { "内容": "ダスキンヘルスレントかぬまステーション【特定福祉用具販売】貝島町796-25", "url": "https://www.kaigokensaku.mhlw.go.jp/09/index.php?action_kouhyou_detail_004_kani=true&JigyosyoCd=0970501284-00&ServiceCd=410&Type=search", "url2": "http://www.heaithrent.dusukin.jp" }, "geometry": { "type": "Point", "coordinates": [ 139.755517599999962, 36.5599117 ] } },
{ "type": "Feature", "properties": { "内容": "ひまわり館栃木西営業所【特定福祉用具販売】栃木県日光市並木町3-3", "url": "https://www.kaigokensaku.mhlw.go.jp/09/index.php?action_kouhyou_detail_004_kani=true&JigyosyoCd=0970600656-00&ServiceCd=410&Type=search", "url2": "http://www.fujielectric.co.jp/fols/welfare/index.html" }, "geometry": { "type": "Point", "coordinates": [ 139.696755199999984, 36.7197609 ] } },
{ "type": "Feature", "properties": { "内容": "ニチイケアセンター小山城東【特定福祉用具販売】栃木県小山市城東1丁目6番42号第３高岩ビル１階", "url": "https://www.kaigokensaku.mhlw.go.jp/09/index.php?action_kouhyou_detail_004_kani=true&JigyosyoCd=0970800884-00&ServiceCd=410&Type=search", "url2": "http://www.nichiigakkan.co.jp" }, "geometry": { "type": "Point", "coordinates": [ 139.813007800000037, 36.3099303 ] } },
{ "type": "Feature", "properties": { "内容": "エフビー介護サービス株式会社小山営業所【特定福祉用具販売】栃木県小山市城北1-18-9", "url": "https://www.kaigokensaku.mhlw.go.jp/09/index.php?action_kouhyou_detail_004_kani=true&JigyosyoCd=0970803094-00&ServiceCd=410&Type=search", "url2": "https://www.fb-kaigo.co.jp" }, "geometry": { "type": "Point", "coordinates": [ 139.816190400000011, 36.322965 ] } },
{ "type": "Feature", "properties": { "内容": "ライフプラン株式会社【特定福祉用具販売】栃木県小山市駅東通り２丁目３５番１０号", "url": "https://www.kaigokensaku.mhlw.go.jp/09/index.php?action_kouhyou_detail_004_kani=true&JigyosyoCd=0970802260-00&ServiceCd=410&Type=search", "url2": "http://www.life-p.biz/" }, "geometry": { "type": "Point", "coordinates": [ 139.811840899999964, 36.3129446 ] } },
{ "type": "Feature", "properties": { "内容": "パナソニックエイジフリーショップ小山店【特定福祉用具販売】栃木県小山市神鳥谷１０８１－１", "url": "https://www.kaigokensaku.mhlw.go.jp/09/index.php?action_kouhyou_detail_004_kani=true&JigyosyoCd=0970800876-00&ServiceCd=410&Type=search", "url2": "http://www.kaigo-sagara.jp/" }, "geometry": { "type": "Point", "coordinates": [ 139.798388579020639, 36.303167681440321 ] } },
{ "type": "Feature", "properties": { "内容": "福祉レンタルたいよう【特定福祉用具販売】栃木県小山市犬塚6-17-1", "url": "https://www.kaigokensaku.mhlw.go.jp/09/index.php?action_kouhyou_detail_004_kani=true&JigyosyoCd=0970801585-00&ServiceCd=410&Type=search", "url2": "https://taiyougroup.jp/" }, "geometry": { "type": "Point", "coordinates": [ 139.83403334034665, 36.30047492408319 ] } },
{ "type": "Feature", "properties": { "内容": "東京インテリア　ＭＳ　小山【特定福祉用具販売】栃木県小山市神鳥谷２７３－４", "url": "https://www.kaigokensaku.mhlw.go.jp/09/index.php?action_kouhyou_detail_004_kani=true&JigyosyoCd=0970802112-00&ServiceCd=410&Type=search", "url2": "https://www.tokyointerior.co.jp/service/nursingcare/" }, "geometry": { "type": "Point", "coordinates": [ 139.792026599999986, 36.3047471 ] } },
{ "type": "Feature", "properties": { "内容": "エミアスレント株式会社【特定福祉用具販売】栃木県小山市城東5丁目5-3", "url": "https://www.kaigokensaku.mhlw.go.jp/09/index.php?action_kouhyou_detail_004_kani=true&JigyosyoCd=0970802187-00&ServiceCd=410&Type=search", "url2": null }, "geometry": { "type": "Point", "coordinates": [ 139.818952910955488, 36.314240559710015 ] } },
{ "type": "Feature", "properties": { "内容": "小山福祉レンタルサービス【特定福祉用具販売】栃木県小山市駅東通り二丁目40番6号", "url": "https://www.kaigokensaku.mhlw.go.jp/09/index.php?action_kouhyou_detail_004_kani=true&JigyosyoCd=0970802765-00&ServiceCd=410&Type=search", "url2": "nitto-rental.co.jp" }, "geometry": { "type": "Point", "coordinates": [ 139.811454799999979, 36.3104532 ] } },
{ "type": "Feature", "properties": { "内容": "JAはが野福祉レンタル【特定福祉用具販売】栃木県真岡市飯貝559番地2", "url": "https://www.kaigokensaku.mhlw.go.jp/09/index.php?action_kouhyou_detail_004_kani=true&JigyosyoCd=0970900288-00&ServiceCd=410&Type=search", "url2": "http://www.ja-hagano.or.jp/" }, "geometry": { "type": "Point", "coordinates": [ 140.018665, 36.4775674 ] } },
{ "type": "Feature", "properties": { "内容": "有限会社　大瀧ホームメディカル【特定福祉用具販売】栃木県真岡市寺久保1丁目6-2", "url": "https://www.kaigokensaku.mhlw.go.jp/09/index.php?action_kouhyou_detail_004_kani=true&JigyosyoCd=0970900437-00&ServiceCd=410&Type=search", "url2": "http://ootaki-medical.com/" }, "geometry": { "type": "Point", "coordinates": [ 140.001392569450445, 36.447990533387795 ] } },
{ "type": "Feature", "properties": { "内容": "有限会社えびはら【特定福祉用具販売】栃木県真岡市久下田８４７", "url": "https://www.kaigokensaku.mhlw.go.jp/09/index.php?action_kouhyou_detail_004_kani=true&JigyosyoCd=0972700173-00&ServiceCd=410&Type=search", "url2": null }, "geometry": { "type": "Point", "coordinates": [ 139.9698493, 36.3762452 ] } },
{ "type": "Feature", "properties": { "内容": "株式会社厚木商会　福祉事業部　にこにこラボ【特定福祉用具販売】栃木県真岡市石島941", "url": "https://www.kaigokensaku.mhlw.go.jp/09/index.php?action_kouhyou_detail_004_kani=true&JigyosyoCd=0970900643-00&ServiceCd=410&Type=search", "url2": "http://hp.kaipoke.biz/xh5/index.html" }, "geometry": { "type": "Point", "coordinates": [ 139.9701784, 36.3914751 ] } },
{ "type": "Feature", "properties": { "内容": "生活らくらく本舗　匠フィッティング【特定福祉用具販売】栃木県真岡市並木町３－２９－１エコノプラザ並木１０３号室", "url": "https://www.kaigokensaku.mhlw.go.jp/09/index.php?action_kouhyou_detail_004_kani=true&JigyosyoCd=0970900916-00&ServiceCd=410&Type=search", "url2": "https://www.rakuraku-updraft.com/" }, "geometry": { "type": "Point", "coordinates": [ 139.999298399999986, 36.4456673 ] } },
{ "type": "Feature", "properties": { "内容": "株式会社まつや薬局　卸部【特定福祉用具販売】栃木県大田原市城山新富町1-245-7", "url": "https://www.kaigokensaku.mhlw.go.jp/09/index.php?action_kouhyou_detail_004_kani=true&JigyosyoCd=0971000062-00&ServiceCd=410&Type=search", "url2": null }, "geometry": { "type": "Point", "coordinates": [ 140.029454100000066, 36.8654156 ] } },
{ "type": "Feature", "properties": { "内容": "東京インテリアMS大田原【特定福祉用具販売】栃木県大田原市浅香３丁目3599-8", "url": "https://www.kaigokensaku.mhlw.go.jp/09/index.php?action_kouhyou_detail_004_kani=true&JigyosyoCd=0971000930-00&ServiceCd=410&Type=search", "url2": "http://www.tokyointerior.co.jp/" }, "geometry": { "type": "Point", "coordinates": [ 140.017855411119029, 36.855881380743689 ] } },
{ "type": "Feature", "properties": { "内容": "くらしのリフォーム快適屋【特定福祉用具販売】栃木県大田原市中央1丁目13-10那須土木株式会社本社1階", "url": "https://www.kaigokensaku.mhlw.go.jp/09/index.php?action_kouhyou_detail_004_kani=true&JigyosyoCd=0971001052-00&ServiceCd=410&Type=search", "url2": "https://kaitekiya-net.com/" }, "geometry": { "type": "Point", "coordinates": [ 140.02542649999998, 36.8670542 ] } },
{ "type": "Feature", "properties": { "内容": "ダスキンヘルスレント大田原ステーション【特定福祉用具販売】本町1-2703-129", "url": "https://www.kaigokensaku.mhlw.go.jp/09/index.php?action_kouhyou_detail_004_kani=true&JigyosyoCd=0971001417-00&ServiceCd=410&Type=search", "url2": "https://healthrent.duskin.jp/station/tochigi/ohtawara.html" }, "geometry": { "type": "Point", "coordinates": [ 139.6841183, 35.6949524 ] } },
{ "type": "Feature", "properties": { "内容": "ひまわり館大田原営業所【特定福祉用具販売】栃木県大田原市紫塚3-2609-1ノースアベニュー紫塚1階", "url": "https://www.kaigokensaku.mhlw.go.jp/09/index.php?action_kouhyou_detail_004_kani=true&JigyosyoCd=0971001110-00&ServiceCd=410&Type=search", "url2": "http://www.fujielectric.co.jp/fols/welfare/index.html" }, "geometry": { "type": "Point", "coordinates": [ 140.020968133729525, 36.876473344178073 ] } },
{ "type": "Feature", "properties": { "内容": "エポックケア【特定福祉用具販売】栃木県矢板市末広町11-6", "url": "https://www.kaigokensaku.mhlw.go.jp/09/index.php?action_kouhyou_detail_004_kani=true&JigyosyoCd=0971100425-00&ServiceCd=410&Type=search", "url2": "http://www.epoch-kaigo.com" }, "geometry": { "type": "Point", "coordinates": [ 139.935609238623101, 36.807370508374483 ] } },
{ "type": "Feature", "properties": { "内容": "エポック【特定福祉用具販売】栃木県矢板市末広町11-6", "url": "https://www.kaigokensaku.mhlw.go.jp/09/index.php?action_kouhyou_detail_004_kani=true&JigyosyoCd=0971100730-00&ServiceCd=410&Type=search", "url2": null }, "geometry": { "type": "Point", "coordinates": [ 139.9355764, 36.8073826 ] } },
{ "type": "Feature", "properties": { "内容": "株式会社　デル・コラソン【特定福祉用具販売】栃木県那須塩原市大黒町２－５", "url": "https://www.kaigokensaku.mhlw.go.jp/09/index.php?action_kouhyou_detail_004_kani=true&JigyosyoCd=0971200167-00&ServiceCd=410&Type=search", "url2": null }, "geometry": { "type": "Point", "coordinates": [ 140.049077168647727, 36.971173024141763 ] } },
{ "type": "Feature", "properties": { "内容": "株式会社　キガ　那須営業所【特定福祉用具販売】栃木県那須塩原市三島4丁目25番地6", "url": "https://www.kaigokensaku.mhlw.go.jp/09/index.php?action_kouhyou_detail_004_kani=true&JigyosyoCd=0971300348-00&ServiceCd=410&Type=search", "url2": "http://www.kiga.co.jp" }, "geometry": { "type": "Point", "coordinates": [ 139.95842413196965, 36.876272800534515 ] } },
{ "type": "Feature", "properties": { "内容": "株式会社　開窓【特定福祉用具販売】栃木県那須塩原市上中野５２番地", "url": "https://www.kaigokensaku.mhlw.go.jp/09/index.php?action_kouhyou_detail_004_kani=true&JigyosyoCd=0971300819-00&ServiceCd=410&Type=search", "url2": "https://www.kaisoh.co.jp" }, "geometry": { "type": "Point", "coordinates": [ 140.001051800000027, 36.9240419 ] } },
{ "type": "Feature", "properties": { "内容": "トーモク株式会社ホームケア事業部ケアショップなす【特定福祉用具販売】四区町680-4", "url": "https://www.kaigokensaku.mhlw.go.jp/09/index.php?action_kouhyou_detail_004_kani=true&JigyosyoCd=0971301577-00&ServiceCd=410&Type=search", "url2": "http://tomoku-inc.jp/business/care.html" }, "geometry": { "type": "Point", "coordinates": [ 139.948185, 36.8990095 ] } },
{ "type": "Feature", "properties": { "内容": "ふくしようぐ　えるさ【特定福祉用具販売】東赤田321番地1221", "url": "https://www.kaigokensaku.mhlw.go.jp/09/index.php?action_kouhyou_detail_004_kani=true&JigyosyoCd=0971301874-00&ServiceCd=410&Type=search", "url2": "https://w-life.org/" }, "geometry": { "type": "Point", "coordinates": [ 139.966603600000013, 36.9031927 ] } },
{ "type": "Feature", "properties": { "内容": "福祉用具ｻﾎﾟｰﾄ　たすき【特定福祉用具販売】栃木県さくら市氏家1817-11", "url": "https://www.kaigokensaku.mhlw.go.jp/09/index.php?action_kouhyou_detail_004_kani=true&JigyosyoCd=0971400189-00&ServiceCd=410&Type=search", "url2": null }, "geometry": { "type": "Point", "coordinates": [ 139.966588699999988, 36.6787467 ] } },
{ "type": "Feature", "properties": { "内容": "だるまファーマケア【特定福祉用具販売】さくら市氏家3205-1", "url": "https://www.kaigokensaku.mhlw.go.jp/09/index.php?action_kouhyou_detail_004_kani=true&JigyosyoCd=0972600290-00&ServiceCd=410&Type=search", "url2": "https://daruma-sakura.jp/" }, "geometry": { "type": "Point", "coordinates": [ 139.966130300000032, 36.6806659 ] } },
{ "type": "Feature", "properties": { "内容": "至誠福祉サービス【特定福祉用具販売】小河原36番地1", "url": "https://www.kaigokensaku.mhlw.go.jp/09/index.php?action_kouhyou_detail_004_kani=true&JigyosyoCd=0971500236-00&ServiceCd=410&Type=search", "url2": null }, "geometry": { "type": "Point", "coordinates": [ 140.10867, 36.659916 ] } },
{ "type": "Feature", "properties": { "内容": "明恵産業株式会社【特定福祉用具販売】石橋538-3", "url": "https://www.kaigokensaku.mhlw.go.jp/09/index.php?action_kouhyou_detail_004_kani=true&JigyosyoCd=0971600887-00&ServiceCd=410&Type=search", "url2": "http://meikeisangyo.jp/" }, "geometry": { "type": "Point", "coordinates": [ 139.85934610000001, 36.4381856 ] } },
{ "type": "Feature", "properties": { "内容": "株式会社　フレンド【特定福祉用具販売】栃木県下野市祇園1-10-3", "url": "https://www.kaigokensaku.mhlw.go.jp/09/index.php?action_kouhyou_detail_004_kani=true&JigyosyoCd=0970800231-00&ServiceCd=410&Type=search", "url2": "http://www.f-pw.jp" }, "geometry": { "type": "Point", "coordinates": [ 139.858900309708503, 36.397389268054653 ] } },
{ "type": "Feature", "properties": { "内容": "下野福祉レンタルサービス【特定福祉用具販売】栃木県下野市上大領284-5", "url": "https://www.kaigokensaku.mhlw.go.jp/09/index.php?action_kouhyou_detail_004_kani=true&JigyosyoCd=0971600846-00&ServiceCd=410&Type=search", "url2": "nitto-rental.co.jp" }, "geometry": { "type": "Point", "coordinates": [ 139.852597800000012, 36.436733 ] } },
{ "type": "Feature", "properties": { "内容": "福祉用具　やじま【特定福祉用具販売】栃木県芳賀郡益子町益子1350", "url": "https://www.kaigokensaku.mhlw.go.jp/09/index.php?action_kouhyou_detail_004_kani=true&JigyosyoCd=0972701072-00&ServiceCd=410&Type=search", "url2": "http://www.fukushiyajima.com" }, "geometry": { "type": "Point", "coordinates": [ 140.088437506745862, 36.464141154779007 ] } },
{ "type": "Feature", "properties": { "内容": "ひばり福祉サービス【特定福祉用具販売】栃木県芳賀郡芳賀町祖母井南1-11-1", "url": "https://www.kaigokensaku.mhlw.go.jp/09/index.php?action_kouhyou_detail_004_kani=true&JigyosyoCd=0972700900-00&ServiceCd=410&Type=search", "url2": null }, "geometry": { "type": "Point", "coordinates": [ 140.060998194658993, 36.546293596920698 ] } },
{ "type": "Feature", "properties": { "内容": "グランセーロ恵喜【特定福祉用具販売】栃木県下都賀郡壬生町本丸2-22-5グランセーロ恵喜", "url": "https://www.kaigokensaku.mhlw.go.jp/09/index.php?action_kouhyou_detail_004_kani=true&JigyosyoCd=0972301410-00&ServiceCd=410&Type=search", "url2": "ｈｔｔｐ：//www.gransero.com" }, "geometry": { "type": "Point", "coordinates": [ 139.79774244907378, 36.421635695908321 ] } },
{ "type": "Feature", "properties": { "内容": "ヘルパーステーション　菜の花【特定福祉用具販売】栃木県下都賀郡野木町南赤塚1200-10", "url": "https://www.kaigokensaku.mhlw.go.jp/09/index.php?action_kouhyou_detail_004_kani=true&JigyosyoCd=0972300834-00&ServiceCd=410&Type=search", "url2": null }, "geometry": { "type": "Point", "coordinates": [ 139.7408522, 36.2332127 ] } },
{ "type": "Feature", "properties": { "内容": "三鈴堂　那須事業所【特定福祉用具販売】栃木県那須郡那須町大字寺子乙2562-24", "url": "https://www.kaigokensaku.mhlw.go.jp/09/index.php?action_kouhyou_detail_004_kani=true&JigyosyoCd=0972501381-00&ServiceCd=410&Type=search", "url2": null }, "geometry": { "type": "Point", "coordinates": [ 140.107682100000034, 37.0168371 ] } },
{ "type": "Feature", "properties": { "内容": "なす福祉用具サービス【特定福祉用具販売】栃木県那須郡那須町寺子丙2-65", "url": "https://www.kaigokensaku.mhlw.go.jp/09/index.php?action_kouhyou_detail_004_kani=true&JigyosyoCd=0972501621-00&ServiceCd=410&Type=search", "url2": null }, "geometry": { "type": "Point", "coordinates": [ 140.118525660286565, 37.022374477165293 ] } },
{ "type": "Feature", "properties": { "内容": "はいくおーる【特定福祉用具販売】栃木県那須郡那珂川町馬頭1963-2", "url": "https://www.kaigokensaku.mhlw.go.jp/09/index.php?action_kouhyou_detail_004_kani=true&JigyosyoCd=0972501522-00&ServiceCd=410&Type=search", "url2": "http://hp.kaipoke.biz/07m" }, "geometry": { "type": "Point", "coordinates": [ 140.165430418671349, 36.735165996839648 ] } }
]
}
