{
"type": "FeatureCollection",
"name": "geo_09_認知症対応型共同生活介護",
"crs": { "type": "name", "properties": { "name": "urn:ogc:def:crs:OGC:1.3:CRS84" } },
"features": [
{ "type": "Feature", "properties": { "内容": "グループホームすみれ大寛の苑【認知症対応型共同生活介護】栃木県宇都宮市大寛2丁目4-1", "url": "https://www.kaigokensaku.mhlw.go.jp/09/index.php?action_kouhyou_detail_004_kani=true&JigyosyoCd=0990100257-00&ServiceCd=320&Type=search", "url2": "http://www.sumirenokaigo.com" }, "geometry": { "type": "Point", "coordinates": [ 139.873285500000065, 36.5576812 ] } },
{ "type": "Feature", "properties": { "内容": "城下庵【認知症対応型共同生活介護】栃木県さくら市喜連川3609", "url": "https://www.kaigokensaku.mhlw.go.jp/09/index.php?action_kouhyou_detail_004_kani=true&JigyosyoCd=0991400029-00&ServiceCd=320&Type=search", "url2": null }, "geometry": { "type": "Point", "coordinates": [ 140.022823199999948, 36.721229 ] } },
{ "type": "Feature", "properties": { "内容": "グループホーム　おおぞら【認知症対応型共同生活介護】栃木県宇都宮市上欠町１２５３-７", "url": "https://www.kaigokensaku.mhlw.go.jp/09/index.php?action_kouhyou_detail_004_kani=true&JigyosyoCd=0970102158-00&ServiceCd=320&Type=search", "url2": null }, "geometry": { "type": "Point", "coordinates": [ 139.828408064417971, 36.551627257051727 ] } },
{ "type": "Feature", "properties": { "内容": "グループホーム　エバーグリーンみずほの【認知症対応型共同生活介護】栃木県宇都宮市上桑島町1339番地6", "url": "https://www.kaigokensaku.mhlw.go.jp/09/index.php?action_kouhyou_detail_004_kani=true&JigyosyoCd=0990100406-00&ServiceCd=320&Type=search", "url2": "http://www.evergreenmizuhono.com" }, "geometry": { "type": "Point", "coordinates": [ 139.923628823942636, 36.516900792809615 ] } },
{ "type": "Feature", "properties": { "内容": "認知症対応型共同生活介護ぐるープほーム　のずの家【認知症対応型共同生活介護】栃木県宇都宮市茂原町951-2", "url": "https://www.kaigokensaku.mhlw.go.jp/09/index.php?action_kouhyou_detail_004_kani=true&JigyosyoCd=0990100521-00&ServiceCd=320&Type=search", "url2": "http://noz-cons.biz/" }, "geometry": { "type": "Point", "coordinates": [ 139.875987250165224, 36.475130815460759 ] } },
{ "type": "Feature", "properties": { "内容": "グループホームさくらがおか【認知症対応型共同生活介護】栃木県宇都宮市桜２－３－３", "url": "https://www.kaigokensaku.mhlw.go.jp/09/index.php?action_kouhyou_detail_004_kani=true&JigyosyoCd=0970102521-00&ServiceCd=320&Type=search", "url2": null }, "geometry": { "type": "Point", "coordinates": [ 139.870385299999953, 36.5667911 ] } },
{ "type": "Feature", "properties": { "内容": "グループホームホームタウン上河内【認知症対応型共同生活介護】栃木県宇都宮市下小倉町１２３４－１", "url": "https://www.kaigokensaku.mhlw.go.jp/09/index.php?action_kouhyou_detail_004_kani=true&JigyosyoCd=0990100356-00&ServiceCd=320&Type=search", "url2": "http://seikeikai.jp/h_kamikawachi/" }, "geometry": { "type": "Point", "coordinates": [ 139.914657, 36.6846144 ] } },
{ "type": "Feature", "properties": { "内容": "グループホーム　ジョイフル【認知症対応型共同生活介護】栃木県宇都宮市中岡本町2389番地12F", "url": "https://www.kaigokensaku.mhlw.go.jp/09/index.php?action_kouhyou_detail_004_kani=true&JigyosyoCd=0990100844-00&ServiceCd=320&Type=search", "url2": "https://shofukai.or.jp/area-tochigi/joyfull" }, "geometry": { "type": "Point", "coordinates": [ 139.948271299999988, 36.6138245 ] } },
{ "type": "Feature", "properties": { "内容": "ぐるープほーム　のずの家【認知症対応型共同生活介護】栃木県宇都宮市茂原町951-2", "url": "https://www.kaigokensaku.mhlw.go.jp/09/index.php?action_kouhyou_detail_004_kani=true&JigyosyoCd=0990101180-00&ServiceCd=320&Type=search", "url2": "http://noz-cons.biz/" }, "geometry": { "type": "Point", "coordinates": [ 139.8760409, 36.4751451 ] } },
{ "type": "Feature", "properties": { "内容": "ニチイケアセンター峰【認知症対応型共同生活介護】栃木県宇都宮市峰2丁目25－3", "url": "https://www.kaigokensaku.mhlw.go.jp/09/index.php?action_kouhyou_detail_004_kani=true&JigyosyoCd=0990100174-00&ServiceCd=320&Type=search", "url2": "http://www.nichiigakkan.co.jp" }, "geometry": { "type": "Point", "coordinates": [ 139.918275799999947, 36.555175 ] } },
{ "type": "Feature", "properties": { "内容": "今泉ケアセンターそよ風【認知症対応型共同生活介護】栃木県宇都宮市中今泉四丁目22番1号", "url": "https://www.kaigokensaku.mhlw.go.jp/09/index.php?action_kouhyou_detail_004_kani=true&JigyosyoCd=0970101861-00&ServiceCd=320&Type=search", "url2": "https://www.sykz.co.jp/" }, "geometry": { "type": "Point", "coordinates": [ 139.90994539999997, 36.5685539 ] } },
{ "type": "Feature", "properties": { "内容": "社会福祉法人　正恵会　グループホーム宝寿の里【認知症対応型共同生活介護】栃木県宇都宮市宝木本町1769－1", "url": "https://www.kaigokensaku.mhlw.go.jp/09/index.php?action_kouhyou_detail_004_kani=true&JigyosyoCd=0970101879-00&ServiceCd=320&Type=search", "url2": "http://www.seikeikai.jp" }, "geometry": { "type": "Point", "coordinates": [ 139.836255316602319, 36.607750510491407 ] } },
{ "type": "Feature", "properties": { "内容": "グループホームうつのみやファミリー【認知症対応型共同生活介護】栃木県宇都宮市岩曽町４４１番地２", "url": "https://www.kaigokensaku.mhlw.go.jp/09/index.php?action_kouhyou_detail_004_kani=true&JigyosyoCd=0970101960-00&ServiceCd=320&Type=search", "url2": "https://utsunomiya-family.com" }, "geometry": { "type": "Point", "coordinates": [ 139.897254299999986, 36.585132 ] } },
{ "type": "Feature", "properties": { "内容": "グループホームとちの木荘【認知症対応型共同生活介護】栃木県宇都宮市徳次郎町2632-1", "url": "https://www.kaigokensaku.mhlw.go.jp/09/index.php?action_kouhyou_detail_004_kani=true&JigyosyoCd=0970102000-00&ServiceCd=320&Type=search", "url2": "http://www.tochisaikou.com" }, "geometry": { "type": "Point", "coordinates": [ 139.839883900000018, 36.6586634 ] } },
{ "type": "Feature", "properties": { "内容": "グループホーム宇都宮【認知症対応型共同生活介護】栃木県宇都宮市平出町３７７番地１", "url": "https://www.kaigokensaku.mhlw.go.jp/09/index.php?action_kouhyou_detail_004_kani=true&JigyosyoCd=0970102604-00&ServiceCd=320&Type=search", "url2": "https://www.hokutokai.or.jp/" }, "geometry": { "type": "Point", "coordinates": [ 139.947722200000044, 36.5708329 ] } },
{ "type": "Feature", "properties": { "内容": "グループホームカトレア【認知症対応型共同生活介護】栃木県宇都宮市星が丘１－１－２８", "url": "https://www.kaigokensaku.mhlw.go.jp/09/index.php?action_kouhyou_detail_004_kani=true&JigyosyoCd=0970102646-00&ServiceCd=320&Type=search", "url2": "http://numaog.or.jp/" }, "geometry": { "type": "Point", "coordinates": [ 139.877973699999956, 36.5686411 ] } },
{ "type": "Feature", "properties": { "内容": "グループホーム　ホームタウン宝木【認知症対応型共同生活介護】栃木県宇都宮市宝木町2丁目2563-31", "url": "https://www.kaigokensaku.mhlw.go.jp/09/index.php?action_kouhyou_detail_004_kani=true&JigyosyoCd=0990100141-00&ServiceCd=320&Type=search", "url2": "http://www.seikeikai.jp" }, "geometry": { "type": "Point", "coordinates": [ 139.846705499999985, 36.5889047 ] } },
{ "type": "Feature", "properties": { "内容": "トゥルーケアＧＨハイブリッジ【認知症対応型共同生活介護】栃木県宇都宮市若松原１－１１－１０グループホーム　ハイブリッジ", "url": "https://www.kaigokensaku.mhlw.go.jp/09/index.php?action_kouhyou_detail_004_kani=true&JigyosyoCd=0990100182-00&ServiceCd=320&Type=search", "url2": "www.truecare.jp" }, "geometry": { "type": "Point", "coordinates": [ 139.86803, 36.5032316 ] } },
{ "type": "Feature", "properties": { "内容": "社会福祉法人　共生会【認知症対応型共同生活介護】栃木県宇都宮市上籠谷3564-2", "url": "https://www.kaigokensaku.mhlw.go.jp/09/index.php?action_kouhyou_detail_004_kani=true&JigyosyoCd=0990100224-00&ServiceCd=320&Type=search", "url2": "http://kamikomoriya.or.jp/" }, "geometry": { "type": "Point", "coordinates": [ 139.963900700000067, 36.5310397 ] } },
{ "type": "Feature", "properties": { "内容": "共生家みずほの　グループホーム【認知症対応型共同生活介護】栃木県宇都宮市瑞穂2-14-10", "url": "https://www.kaigokensaku.mhlw.go.jp/09/index.php?action_kouhyou_detail_004_kani=true&JigyosyoCd=0990100505-00&ServiceCd=320&Type=search", "url2": "http://kamikomoriya.or.jp/" }, "geometry": { "type": "Point", "coordinates": [ 139.91841757790985, 36.507724368807281 ] } },
{ "type": "Feature", "properties": { "内容": "グループホームさくら星の宮【認知症対応型共同生活介護】栃木県宇都宮市屋板町1112-3", "url": "https://www.kaigokensaku.mhlw.go.jp/09/index.php?action_kouhyou_detail_004_kani=true&JigyosyoCd=0990100554-00&ServiceCd=320&Type=search", "url2": null }, "geometry": { "type": "Point", "coordinates": [ 139.8951912, 36.5147558 ] } },
{ "type": "Feature", "properties": { "内容": "グループホームなのはな陽東【認知症対応型共同生活介護】陽東1-12-14", "url": "https://www.kaigokensaku.mhlw.go.jp/09/index.php?action_kouhyou_detail_004_kani=true&JigyosyoCd=0990100893-00&ServiceCd=320&Type=search", "url2": "https://houwakai-nanohana.jp" }, "geometry": { "type": "Point", "coordinates": [ 139.9256112, 36.549278 ] } },
{ "type": "Feature", "properties": { "内容": "コープグループホームみどり【認知症対応型共同生活介護】栃木県宇都宮市緑5-13-10", "url": "https://www.kaigokensaku.mhlw.go.jp/09/index.php?action_kouhyou_detail_004_kani=true&JigyosyoCd=0990100984-00&ServiceCd=320&Type=search", "url2": "https://fureai-coop.com/" }, "geometry": { "type": "Point", "coordinates": [ 139.860292500000014, 36.5138523 ] } },
{ "type": "Feature", "properties": { "内容": "認知症対応型共同生活介護　グループホーム南の里いいだ【認知症対応型共同生活介護】栃木県宇都宮市飯田町456番地4", "url": "https://www.kaigokensaku.mhlw.go.jp/09/index.php?action_kouhyou_detail_004_kani=true&JigyosyoCd=0990101123-00&ServiceCd=320&Type=search", "url2": "https://www.minaminosato.com/iida/" }, "geometry": { "type": "Point", "coordinates": [ 139.816236027004351, 36.562544017477506 ] } },
{ "type": "Feature", "properties": { "内容": "グループホームエフビーゆいの杜【認知症対応型共同生活介護】栃木県宇都宮市ゆいの杜6丁目28-36", "url": "https://www.kaigokensaku.mhlw.go.jp/09/index.php?action_kouhyou_detail_004_kani=true&JigyosyoCd=0990101289-00&ServiceCd=320&Type=search", "url2": "http://www.fb-kaigo.co.jp" }, "geometry": { "type": "Point", "coordinates": [ 139.9974125, 36.5715783 ] } },
{ "type": "Feature", "properties": { "内容": "グループホームおおるり台新田【認知症対応型共同生活介護】台新田1-14-7グループホームおおるり台新田", "url": "https://www.kaigokensaku.mhlw.go.jp/09/index.php?action_kouhyou_detail_004_kani=true&JigyosyoCd=0970102216-00&ServiceCd=320&Type=search", "url2": null }, "geometry": { "type": "Point", "coordinates": [ 139.880367299999989, 36.5186524 ] } },
{ "type": "Feature", "properties": { "内容": "グループホーム寿楽壱番館【認知症対応型共同生活介護】栃木県宇都宮市下砥上町1512-32", "url": "https://www.kaigokensaku.mhlw.go.jp/09/index.php?action_kouhyou_detail_004_kani=true&JigyosyoCd=0970101424-00&ServiceCd=320&Type=search", "url2": "http://www.f-pw.jp/fw.html" }, "geometry": { "type": "Point", "coordinates": [ 139.847772549368301, 36.53463939164741 ] } },
{ "type": "Feature", "properties": { "内容": "グループホームお結び【認知症対応型共同生活介護】栃木県宇都宮市下田原町3433-31", "url": "https://www.kaigokensaku.mhlw.go.jp/09/index.php?action_kouhyou_detail_004_kani=true&JigyosyoCd=0990100976-00&ServiceCd=320&Type=search", "url2": "http://www.omusubineko.com/" }, "geometry": { "type": "Point", "coordinates": [ 139.924035734004718, 36.618027877521016 ] } },
{ "type": "Feature", "properties": { "内容": "グループホーム　ほたる【認知症対応型共同生活介護】栃木県　足利市　稲岡町　1064", "url": "https://www.kaigokensaku.mhlw.go.jp/09/index.php?action_kouhyou_detail_004_kani=true&JigyosyoCd=0970200721-00&ServiceCd=320&Type=search", "url2": "http://www.wamiyama.jp/hotaru.html" }, "geometry": { "type": "Point", "coordinates": [ 139.532746399999951, 36.3335433 ] } },
{ "type": "Feature", "properties": { "内容": "醍醐の森川崎グループホーム【認知症対応型共同生活介護】栃木県足利市川崎町２３１６番地", "url": "https://www.kaigokensaku.mhlw.go.jp/09/index.php?action_kouhyou_detail_004_kani=true&JigyosyoCd=0990200040-00&ServiceCd=320&Type=search", "url2": null }, "geometry": { "type": "Point", "coordinates": [ 139.496933799999965, 36.3087008 ] } },
{ "type": "Feature", "properties": { "内容": "GrandF＆M四季采【認知症対応型共同生活介護】栃木県足利市新山町２２５５－７", "url": "https://www.kaigokensaku.mhlw.go.jp/09/index.php?action_kouhyou_detail_004_kani=true&JigyosyoCd=0990200255-00&ServiceCd=320&Type=search", "url2": null }, "geometry": { "type": "Point", "coordinates": [ 139.465716499999985, 36.3458207 ] } },
{ "type": "Feature", "properties": { "内容": "グループホームなかよし【認知症対応型共同生活介護】栃木県足利市大久保町７５５－１", "url": "https://www.kaigokensaku.mhlw.go.jp/09/index.php?action_kouhyou_detail_004_kani=true&JigyosyoCd=0990200032-00&ServiceCd=320&Type=search", "url2": "http://www.hsc-group.jp" }, "geometry": { "type": "Point", "coordinates": [ 139.499600200000032, 36.3154334 ] } },
{ "type": "Feature", "properties": { "内容": "グループホームひなたぼっこ【認知症対応型共同生活介護】栃木県足利市中川町３５６７－１", "url": "https://www.kaigokensaku.mhlw.go.jp/09/index.php?action_kouhyou_detail_004_kani=true&JigyosyoCd=0990200131-00&ServiceCd=320&Type=search", "url2": null }, "geometry": { "type": "Point", "coordinates": [ 139.425293, 36.3291878 ] } },
{ "type": "Feature", "properties": { "内容": "グループホームひなた庵【認知症対応型共同生活介護】栃木県足利市小俣町291-3", "url": "https://www.kaigokensaku.mhlw.go.jp/09/index.php?action_kouhyou_detail_004_kani=true&JigyosyoCd=0990200156-00&ServiceCd=320&Type=search", "url2": "http://www.watv.ne.jp/~hinata21/" }, "geometry": { "type": "Point", "coordinates": [ 139.373019500000026, 36.3713938 ] } },
{ "type": "Feature", "properties": { "内容": "グループホームひなたの広場【認知症対応型共同生活介護】栃木県足利市五十部町490-1", "url": "https://www.kaigokensaku.mhlw.go.jp/09/index.php?action_kouhyou_detail_004_kani=true&JigyosyoCd=0990200172-00&ServiceCd=320&Type=search", "url2": null }, "geometry": { "type": "Point", "coordinates": [ 139.422229499999958, 36.343664 ] } },
{ "type": "Feature", "properties": { "内容": "グループホーム　ひなた日和【認知症対応型共同生活介護】栃木県足利市本城1丁目1578-1", "url": "https://www.kaigokensaku.mhlw.go.jp/09/index.php?action_kouhyou_detail_004_kani=true&JigyosyoCd=0990200222-00&ServiceCd=320&Type=search", "url2": null }, "geometry": { "type": "Point", "coordinates": [ 139.454708900000014, 36.3540835 ] } },
{ "type": "Feature", "properties": { "内容": "グループホーム　青の蓮【認知症対応型共同生活介護】栃木県足利市福居町８４３番地", "url": "https://www.kaigokensaku.mhlw.go.jp/09/index.php?action_kouhyou_detail_004_kani=true&JigyosyoCd=0970201034-00&ServiceCd=320&Type=search", "url2": "https://www.urushibara-kaigo.net" }, "geometry": { "type": "Point", "coordinates": [ 139.450904400000013, 36.3143037 ] } },
{ "type": "Feature", "properties": { "内容": "グループホームなかよし２【認知症対応型共同生活介護】栃木県足利市大久保町765-1", "url": "https://www.kaigokensaku.mhlw.go.jp/09/index.php?action_kouhyou_detail_004_kani=true&JigyosyoCd=0990200453-00&ServiceCd=320&Type=search", "url2": "http://www.hsc-group.jp" }, "geometry": { "type": "Point", "coordinates": [ 139.5050946, 36.3183257 ] } },
{ "type": "Feature", "properties": { "内容": "特別養護老人ホーム義明苑　グループホームくぼた【認知症対応型共同生活介護】栃木県足利市久保田町1220番地1", "url": "https://www.kaigokensaku.mhlw.go.jp/09/index.php?action_kouhyou_detail_004_kani=true&JigyosyoCd=0970200663-00&ServiceCd=320&Type=search", "url2": "http://www.mimeikai.com/" }, "geometry": { "type": "Point", "coordinates": [ 139.49416132142639, 36.295427447973296 ] } },
{ "type": "Feature", "properties": { "内容": "グループホーム　大地【認知症対応型共同生活介護】栃木県足利市駒場町５７８－２", "url": "https://www.kaigokensaku.mhlw.go.jp/09/index.php?action_kouhyou_detail_004_kani=true&JigyosyoCd=0990200099-00&ServiceCd=320&Type=search", "url2": "https://n-p-o.or.jp" }, "geometry": { "type": "Point", "coordinates": [ 139.5284696, 36.3170645 ] } },
{ "type": "Feature", "properties": { "内容": "陽だまり【認知症対応型共同生活介護】栃木県足利市島田町７５４－１", "url": "https://www.kaigokensaku.mhlw.go.jp/09/index.php?action_kouhyou_detail_004_kani=true&JigyosyoCd=0970201232-00&ServiceCd=320&Type=search", "url2": "http://www.koueikai.com/" }, "geometry": { "type": "Point", "coordinates": [ 139.45361, 36.3038297 ] } },
{ "type": "Feature", "properties": { "内容": "有限会社栃木ケアーズ【認知症対応型共同生活介護】栃木県栃木市箱森町19番34号", "url": "https://www.kaigokensaku.mhlw.go.jp/09/index.php?action_kouhyou_detail_004_kani=true&JigyosyoCd=0970300414-00&ServiceCd=320&Type=search", "url2": "http://www.t-cares.co.jp" }, "geometry": { "type": "Point", "coordinates": [ 139.7205596, 36.3899985 ] } },
{ "type": "Feature", "properties": { "内容": "栃木グループホームそよ風【認知症対応型共同生活介護】栃木市沼和田町10-10", "url": "https://www.kaigokensaku.mhlw.go.jp/09/index.php?action_kouhyou_detail_004_kani=true&JigyosyoCd=0970300448-00&ServiceCd=320&Type=search", "url2": "http://www.sykz.co.jp/" }, "geometry": { "type": "Point", "coordinates": [ 139.729957, 36.3687827 ] } },
{ "type": "Feature", "properties": { "内容": "栃木ケアーズふきあげグループホームほほえみ【認知症対応型共同生活介護】栃木県栃木市吹上町1639-1", "url": "https://www.kaigokensaku.mhlw.go.jp/09/index.php?action_kouhyou_detail_004_kani=true&JigyosyoCd=0990300196-00&ServiceCd=320&Type=search", "url2": "https://www.t-cares.co.jp/" }, "geometry": { "type": "Point", "coordinates": [ 139.703175652778583, 36.412533648730125 ] } },
{ "type": "Feature", "properties": { "内容": "栃木ケアーズひらい　グループホームほほえみ【認知症対応型共同生活介護】栃木県栃木市平井町321", "url": "https://www.kaigokensaku.mhlw.go.jp/09/index.php?action_kouhyou_detail_004_kani=true&JigyosyoCd=0990300139-00&ServiceCd=320&Type=search", "url2": "http://www.t-cares.co.jp/" }, "geometry": { "type": "Point", "coordinates": [ 139.707640199999986, 36.3664455 ] } },
{ "type": "Feature", "properties": { "内容": "星風会グループホームこすもす【認知症対応型共同生活介護】栃木県栃木市惣社町121番地3", "url": "https://www.kaigokensaku.mhlw.go.jp/09/index.php?action_kouhyou_detail_004_kani=true&JigyosyoCd=0970300273-00&ServiceCd=320&Type=search", "url2": "http://www.sfk.or.jp" }, "geometry": { "type": "Point", "coordinates": [ 139.780468199999973, 36.3991327 ] } },
{ "type": "Feature", "properties": { "内容": "グループホーム八州苑【認知症対応型共同生活介護】栃木県栃木市藤岡町太田1395番地", "url": "https://www.kaigokensaku.mhlw.go.jp/09/index.php?action_kouhyou_detail_004_kani=true&JigyosyoCd=0972300560-00&ServiceCd=320&Type=search", "url2": "https://mokusuikai.com/" }, "geometry": { "type": "Point", "coordinates": [ 139.649473600000022, 36.3082348 ] } },
{ "type": "Feature", "properties": { "内容": "グループホーム　ふじいと【認知症対応型共同生活介護】栃木県栃木市都賀町臼久保298-5", "url": "https://www.kaigokensaku.mhlw.go.jp/09/index.php?action_kouhyou_detail_004_kani=true&JigyosyoCd=0972300677-00&ServiceCd=320&Type=search", "url2": "tsuganosato.com" }, "geometry": { "type": "Point", "coordinates": [ 139.708567600000038, 36.4356094 ] } },
{ "type": "Feature", "properties": { "内容": "星風会グループホームこすもすおおひら【認知症対応型共同生活介護】栃木県栃木市大平町富田5-225", "url": "https://www.kaigokensaku.mhlw.go.jp/09/index.php?action_kouhyou_detail_004_kani=true&JigyosyoCd=0990300071-00&ServiceCd=320&Type=search", "url2": "http://www.sfk.or.jp" }, "geometry": { "type": "Point", "coordinates": [ 139.703973363521897, 36.335553096221759 ] } },
{ "type": "Feature", "properties": { "内容": "星風会グループホームこすもす　つが【認知症対応型共同生活介護】栃木県栃木市都賀町家中2223-10", "url": "https://www.kaigokensaku.mhlw.go.jp/09/index.php?action_kouhyou_detail_004_kani=true&JigyosyoCd=0990300097-00&ServiceCd=320&Type=search", "url2": "nttp://www,sfk.or.jp/" }, "geometry": { "type": "Point", "coordinates": [ 139.748541700000033, 36.4257562 ] } },
{ "type": "Feature", "properties": { "内容": "星風会　ｸﾞﾙｰﾌﾟﾎｰﾑこすもす２号館【認知症対応型共同生活介護】栃木県栃木市惣社町123番地3", "url": "https://www.kaigokensaku.mhlw.go.jp/09/index.php?action_kouhyou_detail_004_kani=true&JigyosyoCd=0990300147-00&ServiceCd=320&Type=search", "url2": "ｈｔｔｐ//www.sfk.or.jp/" }, "geometry": { "type": "Point", "coordinates": [ 139.781120900000019, 36.398455 ] } },
{ "type": "Feature", "properties": { "内容": "グループホーム　アイリス【認知症対応型共同生活介護】栃木県栃木市片柳町2丁目1番50号", "url": "https://www.kaigokensaku.mhlw.go.jp/09/index.php?action_kouhyou_detail_004_kani=true&JigyosyoCd=0990300261-00&ServiceCd=320&Type=search", "url2": "https://www.ooya-cl.com" }, "geometry": { "type": "Point", "coordinates": [ 139.72676279999996, 36.3720259 ] } },
{ "type": "Feature", "properties": { "内容": "グループホームエフビー今泉【認知症対応型共同生活介護】栃木県栃木市今泉町2丁目8番40-2号", "url": "https://www.kaigokensaku.mhlw.go.jp/09/index.php?action_kouhyou_detail_004_kani=true&JigyosyoCd=0990300329-00&ServiceCd=320&Type=search", "url2": "https://blog.goo.ne.jp/fb-kaigo_gh-imaizumi" }, "geometry": { "type": "Point", "coordinates": [ 139.746599, 36.3876052 ] } },
{ "type": "Feature", "properties": { "内容": "(サテライト型事業所）グループホームふじいと　穏【認知症対応型共同生活介護】栃木県栃木市都賀町家中２２１４－２", "url": "https://www.kaigokensaku.mhlw.go.jp/09/index.php?action_kouhyou_detail_004_kani=true&JigyosyoCd=0990300394-00&ServiceCd=320&Type=search", "url2": "tsuganosato.com" }, "geometry": { "type": "Point", "coordinates": [ 139.7480601, 36.4270147 ] } },
{ "type": "Feature", "properties": { "内容": "グループホームふれんど西方【認知症対応型共同生活介護】栃木県栃木市西方町金崎731", "url": "https://www.kaigokensaku.mhlw.go.jp/09/index.php?action_kouhyou_detail_004_kani=true&JigyosyoCd=0992200014-00&ServiceCd=320&Type=search", "url2": null }, "geometry": { "type": "Point", "coordinates": [ 139.750323500000036, 36.4690873 ] } },
{ "type": "Feature", "properties": { "内容": "グループホームふじぬま【認知症対応型共同生活介護】栃木県栃木市大平町富田5212－2", "url": "https://www.kaigokensaku.mhlw.go.jp/09/index.php?action_kouhyou_detail_004_kani=true&JigyosyoCd=0972300636-00&ServiceCd=320&Type=search", "url2": "https://fujinumaclinic.com/" }, "geometry": { "type": "Point", "coordinates": [ 139.699567, 36.338476900000018 ] } },
{ "type": "Feature", "properties": { "内容": "グループホーム　しもつけの杜【認知症対応型共同生活介護】栃木県佐野市植下町5696-1", "url": "https://www.kaigokensaku.mhlw.go.jp/09/index.php?action_kouhyou_detail_004_kani=true&JigyosyoCd=0990400145-00&ServiceCd=320&Type=search", "url2": null }, "geometry": { "type": "Point", "coordinates": [ 139.589883715344257, 36.289443189043745 ] } },
{ "type": "Feature", "properties": { "内容": "グループホームせせらぎ【認知症対応型共同生活介護】栃本町3270番地", "url": "https://www.kaigokensaku.mhlw.go.jp/09/index.php?action_kouhyou_detail_004_kani=true&JigyosyoCd=0990400160-00&ServiceCd=320&Type=search", "url2": "http://wellaging-group.jp/SESERAGI" }, "geometry": { "type": "Point", "coordinates": [ 139.582389299999932, 36.347557 ] } },
{ "type": "Feature", "properties": { "内容": "グループホームあゆ【認知症対応型共同生活介護】栃木県佐野市仙波町504-6", "url": "https://www.kaigokensaku.mhlw.go.jp/09/index.php?action_kouhyou_detail_004_kani=true&JigyosyoCd=0970400750-00&ServiceCd=320&Type=search", "url2": null }, "geometry": { "type": "Point", "coordinates": [ 139.593342300000018, 36.4363763 ] } },
{ "type": "Feature", "properties": { "内容": "グループホーム青い空【認知症対応型共同生活介護】栃木県佐野市山形２９６", "url": "https://www.kaigokensaku.mhlw.go.jp/09/index.php?action_kouhyou_detail_004_kani=true&JigyosyoCd=0972400196-00&ServiceCd=320&Type=search", "url2": null }, "geometry": { "type": "Point", "coordinates": [ 139.546474200000034, 36.3839545 ] } },
{ "type": "Feature", "properties": { "内容": "グループホームほっとステイ万葉の里【認知症対応型共同生活介護】栃木県佐野市栃本町３１２８－５", "url": "https://www.kaigokensaku.mhlw.go.jp/09/index.php?action_kouhyou_detail_004_kani=true&JigyosyoCd=0972400279-00&ServiceCd=320&Type=search", "url2": null }, "geometry": { "type": "Point", "coordinates": [ 139.583630800000037, 36.349218 ] } },
{ "type": "Feature", "properties": { "内容": "グループホーム　あおぞら【認知症対応型共同生活介護】佐野市吉水町９９１－１", "url": "https://www.kaigokensaku.mhlw.go.jp/09/index.php?action_kouhyou_detail_004_kani=true&JigyosyoCd=0990400046-00&ServiceCd=320&Type=search", "url2": null }, "geometry": { "type": "Point", "coordinates": [ 139.5726223, 36.3528312 ] } },
{ "type": "Feature", "properties": { "内容": "グループホームやまなみ【認知症対応型共同生活介護】栃木県佐野市町谷町59-1", "url": "https://www.kaigokensaku.mhlw.go.jp/09/index.php?action_kouhyou_detail_004_kani=true&JigyosyoCd=0990400111-00&ServiceCd=320&Type=search", "url2": "http//wellaging-group.jp/YAMANAMI" }, "geometry": { "type": "Point", "coordinates": [ 139.631026900000052, 36.3257387 ] } },
{ "type": "Feature", "properties": { "内容": "ウォームハート【認知症対応型共同生活介護】栃木県佐野市越名町188", "url": "https://www.kaigokensaku.mhlw.go.jp/09/index.php?action_kouhyou_detail_004_kani=true&JigyosyoCd=0990400020-00&ServiceCd=320&Type=search", "url2": "http://warmheartsano.jp/" }, "geometry": { "type": "Point", "coordinates": [ 139.601696359524539, 36.285402749141362 ] } },
{ "type": "Feature", "properties": { "内容": "グループホームエルーセラ【認知症対応型共同生活介護】栃木県佐野市免鳥町496", "url": "https://www.kaigokensaku.mhlw.go.jp/09/index.php?action_kouhyou_detail_004_kani=true&JigyosyoCd=0970400354-00&ServiceCd=320&Type=search", "url2": "https://kuwasakikai.jp/" }, "geometry": { "type": "Point", "coordinates": [ 139.545991, 36.309671 ] } },
{ "type": "Feature", "properties": { "内容": "グループホーム　ひかり【認知症対応型共同生活介護】栃木県佐野市葛生東1-15-9", "url": "https://www.kaigokensaku.mhlw.go.jp/09/index.php?action_kouhyou_detail_004_kani=true&JigyosyoCd=0972400261-00&ServiceCd=320&Type=search", "url2": "hikari.1604@live.jp" }, "geometry": { "type": "Point", "coordinates": [ 139.613303099999939, 36.4015422 ] } },
{ "type": "Feature", "properties": { "内容": "グループホームふれんど里【認知症対応型共同生活介護】佐野市吉水駅前1-14-9", "url": "https://www.kaigokensaku.mhlw.go.jp/09/index.php?action_kouhyou_detail_004_kani=true&JigyosyoCd=0972400303-00&ServiceCd=320&Type=search", "url2": "sato.w@f-pw.jp" }, "geometry": { "type": "Point", "coordinates": [ 139.57984220000003, 36.3483263 ] } },
{ "type": "Feature", "properties": { "内容": "グループホーム万葉【認知症対応型共同生活介護】栃木県佐野市堀米町１３３６－１", "url": "https://www.kaigokensaku.mhlw.go.jp/09/index.php?action_kouhyou_detail_004_kani=true&JigyosyoCd=0990400012-00&ServiceCd=320&Type=search", "url2": "http://www.manyou.or.jp/" }, "geometry": { "type": "Point", "coordinates": [ 139.5795736, 36.3305449 ] } },
{ "type": "Feature", "properties": { "内容": "グループホーム　しもつけの郷【認知症対応型共同生活介護】栃木県佐野市石塚町３９２", "url": "https://www.kaigokensaku.mhlw.go.jp/09/index.php?action_kouhyou_detail_004_kani=true&JigyosyoCd=0990400053-00&ServiceCd=320&Type=search", "url2": null }, "geometry": { "type": "Point", "coordinates": [ 139.561615800000027, 36.3456455 ] } },
{ "type": "Feature", "properties": { "内容": "グループホーム万葉堀米の里【認知症対応型共同生活介護】栃木県佐野市堀米町1270-6", "url": "https://www.kaigokensaku.mhlw.go.jp/09/index.php?action_kouhyou_detail_004_kani=true&JigyosyoCd=0990400137-00&ServiceCd=320&Type=search", "url2": "http://www.manyo.or.jp/" }, "geometry": { "type": "Point", "coordinates": [ 139.580604200000039, 36.3284396 ] } },
{ "type": "Feature", "properties": { "内容": "グループホーム　わが家【認知症対応型共同生活介護】栃木県佐野市村上町３２３", "url": "https://www.kaigokensaku.mhlw.go.jp/09/index.php?action_kouhyou_detail_004_kani=true&JigyosyoCd=0990400186-00&ServiceCd=320&Type=search", "url2": "http://www3.ocn.ne.jp/~waga0501/" }, "geometry": { "type": "Point", "coordinates": [ 139.54458580000005, 36.3044271 ] } },
{ "type": "Feature", "properties": { "内容": "グループホーム　しもつけの故郷【認知症対応型共同生活介護】栃木県佐野市牧町111-1", "url": "https://www.kaigokensaku.mhlw.go.jp/09/index.php?action_kouhyou_detail_004_kani=true&JigyosyoCd=0990400251-00&ServiceCd=320&Type=search", "url2": null }, "geometry": { "type": "Point", "coordinates": [ 139.58152629999995, 36.4466693 ] } },
{ "type": "Feature", "properties": { "内容": "グループホーム　飛駒の庄【認知症対応型共同生活介護】栃木県佐野市飛駒町2357番地", "url": "https://www.kaigokensaku.mhlw.go.jp/09/index.php?action_kouhyou_detail_004_kani=true&JigyosyoCd=0990400285-00&ServiceCd=320&Type=search", "url2": null }, "geometry": { "type": "Point", "coordinates": [ 139.46362309999995, 36.4610777 ] } },
{ "type": "Feature", "properties": { "内容": "グループホームノーマライ心の花小中【認知症対応型共同生活介護】栃木県佐野市小中町2011番地4グループホームノーマライ心の花小中", "url": "https://www.kaigokensaku.mhlw.go.jp/09/index.php?action_kouhyou_detail_004_kani=true&JigyosyoCd=0970400388-00&ServiceCd=320&Type=search", "url2": "-" }, "geometry": { "type": "Point", "coordinates": [ 139.557299599999965, 36.3400294 ] } },
{ "type": "Feature", "properties": { "内容": "グループホームほほえみ鹿沼【認知症対応型共同生活介護】栃木県鹿沼市上南摩町195-9", "url": "https://www.kaigokensaku.mhlw.go.jp/09/index.php?action_kouhyou_detail_004_kani=true&JigyosyoCd=0990500381-00&ServiceCd=320&Type=search", "url2": null }, "geometry": { "type": "Point", "coordinates": [ 139.692511006481453, 36.539662113908186 ] } },
{ "type": "Feature", "properties": { "内容": "グループホーム無量荘【認知症対応型共同生活介護】栃木県鹿沼市千渡1959-1", "url": "https://www.kaigokensaku.mhlw.go.jp/09/index.php?action_kouhyou_detail_004_kani=true&JigyosyoCd=0970500567-00&ServiceCd=320&Type=search", "url2": "http://ghmuryousou.blog123.fc2.com/" }, "geometry": { "type": "Point", "coordinates": [ 139.769532600000048, 36.5716496 ] } },
{ "type": "Feature", "properties": { "内容": "社会福祉法人　久寿福祉会　グループホームおしはらの里【認知症対応型共同生活介護】栃木県鹿沼市樅山町４０－２", "url": "https://www.kaigokensaku.mhlw.go.jp/09/index.php?action_kouhyou_detail_004_kani=true&JigyosyoCd=0970500484-00&ServiceCd=320&Type=search", "url2": "http://kyuujyu.com/" }, "geometry": { "type": "Point", "coordinates": [ 139.7481828, 36.5315952 ] } },
{ "type": "Feature", "properties": { "内容": "グループホーム　和田の家【認知症対応型共同生活介護】栃木県鹿沼市白桑田254-12", "url": "https://www.kaigokensaku.mhlw.go.jp/09/index.php?action_kouhyou_detail_004_kani=true&JigyosyoCd=0970500435-00&ServiceCd=320&Type=search", "url2": "http://www.tudafukushi.com" }, "geometry": { "type": "Point", "coordinates": [ 139.8133206, 36.5507808 ] } },
{ "type": "Feature", "properties": { "内容": "かのん【認知症対応型共同生活介護】鹿沼市口粟野862-1", "url": "https://www.kaigokensaku.mhlw.go.jp/09/index.php?action_kouhyou_detail_004_kani=true&JigyosyoCd=0990500027-00&ServiceCd=320&Type=search", "url2": "http://yu-shinkai.com/?page_id=26" }, "geometry": { "type": "Point", "coordinates": [ 139.6739342, 36.5150778 ] } },
{ "type": "Feature", "properties": { "内容": "陽だまり（平成22年度新規指定事業所）【認知症対応型共同生活介護】栃木県鹿沼市西鹿沼町１０１８番地1", "url": "https://www.kaigokensaku.mhlw.go.jp/09/index.php?action_kouhyou_detail_004_kani=true&JigyosyoCd=0990500092-00&ServiceCd=320&Type=search", "url2": "http://hidamari-kanuma.com/" }, "geometry": { "type": "Point", "coordinates": [ 139.7335091, 36.570123 ] } },
{ "type": "Feature", "properties": { "内容": "花の器【認知症対応型共同生活介護】栃木県鹿沼市北半田１４８９-３", "url": "https://www.kaigokensaku.mhlw.go.jp/09/index.php?action_kouhyou_detail_004_kani=true&JigyosyoCd=0990500142-00&ServiceCd=320&Type=search", "url2": "http://welfare-hananoki.net/" }, "geometry": { "type": "Point", "coordinates": [ 139.720914991193354, 36.495803547496287 ] } },
{ "type": "Feature", "properties": { "内容": "グループホームふれんど楡木【認知症対応型共同生活介護】栃木県鹿沼市楡木町720-1", "url": "https://www.kaigokensaku.mhlw.go.jp/09/index.php?action_kouhyou_detail_004_kani=true&JigyosyoCd=0990500191-00&ServiceCd=320&Type=search", "url2": "niregi.w@f-pw.jp" }, "geometry": { "type": "Point", "coordinates": [ 139.7494772907379, 36.510685037344842 ] } },
{ "type": "Feature", "properties": { "内容": "グループホームかぬま花の風【認知症対応型共同生活介護】栃木県鹿沼市緑町2丁目3番23号", "url": "https://www.kaigokensaku.mhlw.go.jp/09/index.php?action_kouhyou_detail_004_kani=true&JigyosyoCd=0990500266-00&ServiceCd=320&Type=search", "url2": "http://www.fukushi-asahikai.or.jp" }, "geometry": { "type": "Point", "coordinates": [ 139.776571709925861, 36.557560651440234 ] } },
{ "type": "Feature", "properties": { "内容": "陽だまり庵【認知症対応型共同生活介護】武子808-1", "url": "https://www.kaigokensaku.mhlw.go.jp/09/index.php?action_kouhyou_detail_004_kani=true&JigyosyoCd=0990500316-00&ServiceCd=320&Type=search", "url2": "http://hidamarian-kanuma.com" }, "geometry": { "type": "Point", "coordinates": [ 139.749682435663601, 36.586598130883125 ] } },
{ "type": "Feature", "properties": { "内容": "鹿千館【認知症対応型共同生活介護】栃木県鹿沼市千渡1110番地1号", "url": "https://www.kaigokensaku.mhlw.go.jp/09/index.php?action_kouhyou_detail_004_kani=true&JigyosyoCd=0990500431-00&ServiceCd=320&Type=search", "url2": "http://bluebird.bz" }, "geometry": { "type": "Point", "coordinates": [ 139.7882142, 36.5673592 ] } },
{ "type": "Feature", "properties": { "内容": "グループホームほほえみ鹿沼【認知症対応型共同生活介護】栃木県鹿沼市上南摩町195-9", "url": "https://www.kaigokensaku.mhlw.go.jp/09/index.php?action_kouhyou_detail_004_kani=true&JigyosyoCd=0990500456-00&ServiceCd=320&Type=search", "url2": null }, "geometry": { "type": "Point", "coordinates": [ 139.655412399999989, 36.5498508 ] } },
{ "type": "Feature", "properties": { "内容": "グループホームふれんどかぬま【認知症対応型共同生活介護】貝島町5001-4", "url": "https://www.kaigokensaku.mhlw.go.jp/09/index.php?action_kouhyou_detail_004_kani=true&JigyosyoCd=0990800153-00&ServiceCd=320&Type=search", "url2": "https://f-pw.jp" }, "geometry": { "type": "Point", "coordinates": [ 139.754902263033159, 36.558749930645241 ] } },
{ "type": "Feature", "properties": { "内容": "グループホーム鶴の郷【認知症対応型共同生活介護】栃木県鹿沼市茂呂字極瀬243番地8", "url": "https://www.kaigokensaku.mhlw.go.jp/09/index.php?action_kouhyou_detail_004_kani=true&JigyosyoCd=0990500118-00&ServiceCd=320&Type=search", "url2": "http://moro-skf.jp/" }, "geometry": { "type": "Point", "coordinates": [ 139.800456834670968, 36.534200892679117 ] } },
{ "type": "Feature", "properties": { "内容": "グループホーム　西茂呂の家【認知症対応型共同生活介護】栃木県鹿沼市西茂呂４－３０－７", "url": "https://www.kaigokensaku.mhlw.go.jp/09/index.php?action_kouhyou_detail_004_kani=true&JigyosyoCd=0990500084-00&ServiceCd=320&Type=search", "url2": "http://www.tudafukushi.com" }, "geometry": { "type": "Point", "coordinates": [ 139.766567, 36.5459388 ] } },
{ "type": "Feature", "properties": { "内容": "グループホーム「芦の子田中さん家」【認知症対応型共同生活介護】栃木県鹿沼市草久９８６－１", "url": "https://www.kaigokensaku.mhlw.go.jp/09/index.php?action_kouhyou_detail_004_kani=true&JigyosyoCd=0990500134-00&ServiceCd=320&Type=search", "url2": "https://www.kanuma-satsuki.org/" }, "geometry": { "type": "Point", "coordinates": [ 139.607888399999979, 36.6405643 ] } },
{ "type": "Feature", "properties": { "内容": "グループホームむへん【認知症対応型共同生活介護】栃木県鹿沼市板荷2972-1", "url": "https://www.kaigokensaku.mhlw.go.jp/09/index.php?action_kouhyou_detail_004_kani=true&JigyosyoCd=0990500340-00&ServiceCd=320&Type=search", "url2": "http://muryoso.okoshi-yasu.com" }, "geometry": { "type": "Point", "coordinates": [ 139.680928099999988, 36.6464307 ] } },
{ "type": "Feature", "properties": { "内容": "指定認知症対応型共同生活介護事業所　いずみの里【認知症対応型共同生活介護】栃木県鹿沼市泉町2396-3", "url": "https://www.kaigokensaku.mhlw.go.jp/09/index.php?action_kouhyou_detail_004_kani=true&JigyosyoCd=0990500050-00&ServiceCd=320&Type=search", "url2": "http://www.ryokufukai.jp/" }, "geometry": { "type": "Point", "coordinates": [ 139.748175899999978, 36.5759263 ] } },
{ "type": "Feature", "properties": { "内容": "グループホーム双愛　なごみの里【認知症対応型共同生活介護】栃木県日光市足尾町砂畑4147-6", "url": "https://www.kaigokensaku.mhlw.go.jp/09/index.php?action_kouhyou_detail_004_kani=true&JigyosyoCd=0990600033-00&ServiceCd=320&Type=search", "url2": "http://www.ashiohp.com/" }, "geometry": { "type": "Point", "coordinates": [ 139.433411100000058, 36.6283576 ] } },
{ "type": "Feature", "properties": { "内容": "グループホームみょうじん【認知症対応型共同生活介護】栃木県日光市明神1000-1", "url": "https://www.kaigokensaku.mhlw.go.jp/09/index.php?action_kouhyou_detail_004_kani=true&JigyosyoCd=0990600116-00&ServiceCd=320&Type=search", "url2": "http://www.taikei.jp/" }, "geometry": { "type": "Point", "coordinates": [ 139.712872800000014, 36.6797963 ] } },
{ "type": "Feature", "properties": { "内容": "グループホーム　あさひ塩野室【認知症対応型共同生活介護】栃木県日光市塩野室町１５０４番地２６", "url": "https://www.kaigokensaku.mhlw.go.jp/09/index.php?action_kouhyou_detail_004_kani=true&JigyosyoCd=0990600132-00&ServiceCd=320&Type=search", "url2": null }, "geometry": { "type": "Point", "coordinates": [ 139.7974164, 36.735365 ] } },
{ "type": "Feature", "properties": { "内容": "グループホーム　憩のもり【認知症対応型共同生活介護】栃木県日光市根室６０７－７", "url": "https://www.kaigokensaku.mhlw.go.jp/09/index.php?action_kouhyou_detail_004_kani=true&JigyosyoCd=0970700241-00&ServiceCd=320&Type=search", "url2": "http://www.villaforesta.jp" }, "geometry": { "type": "Point", "coordinates": [ 139.778080400000022, 36.7080308 ] } },
{ "type": "Feature", "properties": { "内容": "医療法人　矢尾板記念会　グループホームかわせみ【認知症対応型共同生活介護】栃木県日光市平ケ崎609-4", "url": "https://www.kaigokensaku.mhlw.go.jp/09/index.php?action_kouhyou_detail_004_kani=true&JigyosyoCd=0970700332-00&ServiceCd=320&Type=search", "url2": "https://yaoitakinenkai.or.jp" }, "geometry": { "type": "Point", "coordinates": [ 139.680734799999982, 36.7148996 ] } },
{ "type": "Feature", "properties": { "内容": "塩野室ハウス【認知症対応型共同生活介護】塩野室町１５０４－２０", "url": "https://www.kaigokensaku.mhlw.go.jp/09/index.php?action_kouhyou_detail_004_kani=true&JigyosyoCd=0990600017-00&ServiceCd=320&Type=search", "url2": "https://shuuwakai-shiohaegao.com/" }, "geometry": { "type": "Point", "coordinates": [ 139.797956500000026, 36.7355058 ] } },
{ "type": "Feature", "properties": { "内容": "グループホームひなた【認知症対応型共同生活介護】栃木県日光市塩野室町1902‐125", "url": "https://www.kaigokensaku.mhlw.go.jp/09/index.php?action_kouhyou_detail_004_kani=true&JigyosyoCd=0990600074-00&ServiceCd=320&Type=search", "url2": "http://www.taikei.jp/" }, "geometry": { "type": "Point", "coordinates": [ -82.991259899999989, 41.4909349 ] } },
{ "type": "Feature", "properties": { "内容": "グループホームあかね【認知症対応型共同生活介護】栃木県日光市鬼怒川温泉大原2‐135", "url": "https://www.kaigokensaku.mhlw.go.jp/09/index.php?action_kouhyou_detail_004_kani=true&JigyosyoCd=0990600082-00&ServiceCd=320&Type=search", "url2": null }, "geometry": { "type": "Point", "coordinates": [ 139.704295799999954, 36.7996213 ] } },
{ "type": "Feature", "properties": { "内容": "グループホームあさひ芹沼【認知症対応型共同生活介護】栃木県日光市芹沼１７３９－４１", "url": "https://www.kaigokensaku.mhlw.go.jp/09/index.php?action_kouhyou_detail_004_kani=true&JigyosyoCd=0990600157-00&ServiceCd=320&Type=search", "url2": null }, "geometry": { "type": "Point", "coordinates": [ 139.7973633, 36.7353776 ] } },
{ "type": "Feature", "properties": { "内容": "社会福祉法人大恵会グループホームひかりの里【認知症対応型共同生活介護】栃木県日光市今市1086番地2", "url": "https://www.kaigokensaku.mhlw.go.jp/09/index.php?action_kouhyou_detail_004_kani=true&JigyosyoCd=0990600181-00&ServiceCd=320&Type=search", "url2": "http://www.taikei.jp/" }, "geometry": { "type": "Point", "coordinates": [ 139.697608296295158, 36.72462681951869 ] } },
{ "type": "Feature", "properties": { "内容": "グループホームひらわ【認知症対応型共同生活介護】栃木県小山市大字平和２６３番地４", "url": "https://www.kaigokensaku.mhlw.go.jp/09/index.php?action_kouhyou_detail_004_kani=true&JigyosyoCd=0990800187-00&ServiceCd=320&Type=search", "url2": "hirawanosato@iaa.itkeeper.ne.jp" }, "geometry": { "type": "Point", "coordinates": [ 139.763667100000021, 36.2525858 ] } },
{ "type": "Feature", "properties": { "内容": "グループホーム　ふれんど【認知症対応型共同生活介護】栃木県小山市羽川５２４－１", "url": "https://www.kaigokensaku.mhlw.go.jp/09/index.php?action_kouhyou_detail_004_kani=true&JigyosyoCd=0970800694-00&ServiceCd=320&Type=search", "url2": "http://www.f-pw.jp" }, "geometry": { "type": "Point", "coordinates": [ 139.836301899999967, 36.3665697 ] } },
{ "type": "Feature", "properties": { "内容": "認知症対応型共同生活介護　風わらう舎【認知症対応型共同生活介護】栃木県小山市小山111-1", "url": "https://www.kaigokensaku.mhlw.go.jp/09/index.php?action_kouhyou_detail_004_kani=true&JigyosyoCd=0990800054-00&ServiceCd=320&Type=search", "url2": "http://www.nogihosp.or.jp/index.html" }, "geometry": { "type": "Point", "coordinates": [ 139.81852630000003, 36.3009769 ] } },
{ "type": "Feature", "properties": { "内容": "グループホームふれんど間々田【認知症対応型共同生活介護】栃木県小山市乙女931-3", "url": "https://www.kaigokensaku.mhlw.go.jp/09/index.php?action_kouhyou_detail_004_kani=true&JigyosyoCd=0990800104-00&ServiceCd=320&Type=search", "url2": "http://www.f-pw.jp" }, "geometry": { "type": "Point", "coordinates": [ 139.7397755, 36.2483104 ] } },
{ "type": "Feature", "properties": { "内容": "グループホーム銀の里【認知症対応型共同生活介護】栃木県小山市横倉481-4", "url": "https://www.kaigokensaku.mhlw.go.jp/09/index.php?action_kouhyou_detail_004_kani=true&JigyosyoCd=0990800120-00&ServiceCd=320&Type=search", "url2": "gh.ginnosato@tvoyama.ne.jp" }, "geometry": { "type": "Point", "coordinates": [ 139.8264097, 36.2776599 ] } },
{ "type": "Feature", "properties": { "内容": "社会福祉法人　洗心会　サンフラワーグループホーム【認知症対応型共同生活介護】栃木県小山市大字出井1933-1", "url": "https://www.kaigokensaku.mhlw.go.jp/09/index.php?action_kouhyou_detail_004_kani=true&JigyosyoCd=0990800195-00&ServiceCd=320&Type=search", "url2": "http://www.sensinkai.or.jp/" }, "geometry": { "type": "Point", "coordinates": [ 139.836876550262446, 36.335518493170945 ] } },
{ "type": "Feature", "properties": { "内容": "コープグループホーム喜沢【認知症対応型共同生活介護】栃木県小山市喜沢1475-98", "url": "https://www.kaigokensaku.mhlw.go.jp/09/index.php?action_kouhyou_detail_004_kani=true&JigyosyoCd=0990800294-00&ServiceCd=320&Type=search", "url2": "https:/fureai-coop.com/" }, "geometry": { "type": "Point", "coordinates": [ 139.802479299999987, 36.3298589 ] } },
{ "type": "Feature", "properties": { "内容": "グループホームエフビー小山【認知症対応型共同生活介護】栃木県小山市出井825-2", "url": "https://www.kaigokensaku.mhlw.go.jp/09/index.php?action_kouhyou_detail_004_kani=true&JigyosyoCd=0990800427-00&ServiceCd=320&Type=search", "url2": "https://www.fb-kaigo.co.jp/facility/グループホームエフビー小山/" }, "geometry": { "type": "Point", "coordinates": [ 139.8457272, 36.3324456 ] } },
{ "type": "Feature", "properties": { "内容": "グループホーム　いずみ【認知症対応型共同生活介護】小山市大字高椅１２８－１", "url": "https://www.kaigokensaku.mhlw.go.jp/09/index.php?action_kouhyou_detail_004_kani=true&JigyosyoCd=0970800678-00&ServiceCd=320&Type=search", "url2": "http://kusu-noki.or.jp" }, "geometry": { "type": "Point", "coordinates": [ 139.8870154, 36.3386912 ] } },
{ "type": "Feature", "properties": { "内容": "グループホーム　まゆ【認知症対応型共同生活介護】栃木県小山市犬塚８８－１", "url": "https://www.kaigokensaku.mhlw.go.jp/09/index.php?action_kouhyou_detail_004_kani=true&JigyosyoCd=0970800413-00&ServiceCd=320&Type=search", "url2": "http://www.hoshinokai.com" }, "geometry": { "type": "Point", "coordinates": [ 139.833214099999964, 36.3224166 ] } },
{ "type": "Feature", "properties": { "内容": "グループホーム　五行の杜【認知症対応型共同生活介護】栃木県真岡市大和田２８８番地", "url": "https://www.kaigokensaku.mhlw.go.jp/09/index.php?action_kouhyou_detail_004_kani=true&JigyosyoCd=0990900078-00&ServiceCd=320&Type=search", "url2": null }, "geometry": { "type": "Point", "coordinates": [ 139.987601400000017, 36.4058492 ] } },
{ "type": "Feature", "properties": { "内容": "株式会社ファミリーホームなか　グループホームきぬの里【認知症対応型共同生活介護】栃木県真岡市中３１３－３", "url": "https://www.kaigokensaku.mhlw.go.jp/09/index.php?action_kouhyou_detail_004_kani=true&JigyosyoCd=0990900011-00&ServiceCd=320&Type=search", "url2": null }, "geometry": { "type": "Point", "coordinates": [ 139.955142499999965, 36.4181189 ] } },
{ "type": "Feature", "properties": { "内容": "グループホームエフビー木綿の郷【認知症対応型共同生活介護】栃木県真岡市高間木1－7－1", "url": "https://www.kaigokensaku.mhlw.go.jp/09/index.php?action_kouhyou_detail_004_kani=true&JigyosyoCd=0990900110-00&ServiceCd=320&Type=search", "url2": "http://www.fb-kaigo.co.jp/" }, "geometry": { "type": "Point", "coordinates": [ 139.990168600000061, 36.4453871 ] } },
{ "type": "Feature", "properties": { "内容": "グループホームますとく【認知症対応型共同生活介護】栃木県真岡市京泉２２０３－２０", "url": "https://www.kaigokensaku.mhlw.go.jp/09/index.php?action_kouhyou_detail_004_kani=true&JigyosyoCd=0990900086-00&ServiceCd=320&Type=search", "url2": "http://www.masutoku.net/" }, "geometry": { "type": "Point", "coordinates": [ 140.045978900000023, 36.4807176 ] } },
{ "type": "Feature", "properties": { "内容": "グループホームさくら【認知症対応型共同生活介護】栃木県真岡市石島463", "url": "https://www.kaigokensaku.mhlw.go.jp/09/index.php?action_kouhyou_detail_004_kani=true&JigyosyoCd=0972700330-00&ServiceCd=320&Type=search", "url2": "http://www.kibousou.jp/" }, "geometry": { "type": "Point", "coordinates": [ 139.974350100000038, 36.3935833 ] } },
{ "type": "Feature", "properties": { "内容": "グループホーム　ふれんど　真岡【認知症対応型共同生活介護】栃木県真岡市東大島８０１－４", "url": "https://www.kaigokensaku.mhlw.go.jp/09/index.php?action_kouhyou_detail_004_kani=true&JigyosyoCd=0990900037-00&ServiceCd=320&Type=search", "url2": null }, "geometry": { "type": "Point", "coordinates": [ 140.029424400000039, 36.4092112 ] } },
{ "type": "Feature", "properties": { "内容": "グループホームふれんど八木岡【認知症対応型共同生活介護】栃木県真岡市八木岡377－7", "url": "https://www.kaigokensaku.mhlw.go.jp/09/index.php?action_kouhyou_detail_004_kani=true&JigyosyoCd=0990900060-00&ServiceCd=320&Type=search", "url2": "http://www.f-pw.jp" }, "geometry": { "type": "Point", "coordinates": [ 139.99500230000001, 36.426397500000014 ] } },
{ "type": "Feature", "properties": { "内容": "ニチイケアセンター泉町【認知症対応型共同生活介護】栃木県真岡市荒町二丁目8番1", "url": "https://www.kaigokensaku.mhlw.go.jp/09/index.php?action_kouhyou_detail_004_kani=true&JigyosyoCd=0990900169-00&ServiceCd=320&Type=search", "url2": null }, "geometry": { "type": "Point", "coordinates": [ 140.0139446, 36.4459602 ] } },
{ "type": "Feature", "properties": { "内容": "グループホーム　尊徳【認知症対応型共同生活介護】栃木県真岡市久下田956-4", "url": "https://www.kaigokensaku.mhlw.go.jp/09/index.php?action_kouhyou_detail_004_kani=true&JigyosyoCd=0992700054-00&ServiceCd=320&Type=search", "url2": "http://ncclinic.or.jp/" }, "geometry": { "type": "Point", "coordinates": [ 139.9683705, 36.3750241 ] } },
{ "type": "Feature", "properties": { "内容": "グループホーム　ピオニー【認知症対応型共同生活介護】大田原市山の手２－１３－３１", "url": "https://www.kaigokensaku.mhlw.go.jp/09/index.php?action_kouhyou_detail_004_kani=true&JigyosyoCd=0991000118-00&ServiceCd=320&Type=search", "url2": "http://www.shofukai.or.jp/ohtawara/peony.html" }, "geometry": { "type": "Point", "coordinates": [ 140.029417800000033, 36.8693818 ] } },
{ "type": "Feature", "properties": { "内容": "グループホームねむのき【認知症対応型共同生活介護】栃木県大田原市北滝１９２－１", "url": "https://www.kaigokensaku.mhlw.go.jp/09/index.php?action_kouhyou_detail_004_kani=true&JigyosyoCd=0972500730-00&ServiceCd=320&Type=search", "url2": null }, "geometry": { "type": "Point", "coordinates": [ 140.136706099999969, 36.8243454 ] } },
{ "type": "Feature", "properties": { "内容": "おおたわらマロニエホーム【認知症対応型共同生活介護】栃木県大田原市北金丸2600－8", "url": "https://www.kaigokensaku.mhlw.go.jp/09/index.php?action_kouhyou_detail_004_kani=true&JigyosyoCd=0971000328-00&ServiceCd=320&Type=search", "url2": "http://hoyukai.iuhw.ac.jp/" }, "geometry": { "type": "Point", "coordinates": [ 140.0715818, 36.8711024 ] } },
{ "type": "Feature", "properties": { "内容": "グループホームこころ黒羽【認知症対応型共同生活介護】栃木県大田原市大豆田468-4", "url": "https://www.kaigokensaku.mhlw.go.jp/09/index.php?action_kouhyou_detail_004_kani=true&JigyosyoCd=0991000043-00&ServiceCd=320&Type=search", "url2": null }, "geometry": { "type": "Point", "coordinates": [ 140.113077388920146, 36.861216238033371 ] } },
{ "type": "Feature", "properties": { "内容": "グループホームこころ親園【認知症対応型共同生活介護】栃木県大田原市親園3003", "url": "https://www.kaigokensaku.mhlw.go.jp/09/index.php?action_kouhyou_detail_004_kani=true&JigyosyoCd=0991000142-00&ServiceCd=320&Type=search", "url2": null }, "geometry": { "type": "Point", "coordinates": [ 140.01516040370484, 36.830786662384 ] } },
{ "type": "Feature", "properties": { "内容": "グループホームこころ大田原【認知症対応型共同生活介護】栃木県大田原市本町２－２８２９－３５", "url": "https://www.kaigokensaku.mhlw.go.jp/09/index.php?action_kouhyou_detail_004_kani=true&JigyosyoCd=0991000183-00&ServiceCd=320&Type=search", "url2": null }, "geometry": { "type": "Point", "coordinates": [ 140.008711400000038, 36.8709394 ] } },
{ "type": "Feature", "properties": { "内容": "特定非営利活動法人　あすなろ友の会【認知症対応型共同生活介護】栃木県大田原市佐久山２２７４番地５グループホームあすなろ", "url": "https://www.kaigokensaku.mhlw.go.jp/09/index.php?action_kouhyou_detail_004_kani=true&JigyosyoCd=0971000450-00&ServiceCd=320&Type=search", "url2": "http://www.npoasunaro.com" }, "geometry": { "type": "Point", "coordinates": [ 140.0083287, 36.8076766 ] } },
{ "type": "Feature", "properties": { "内容": "グループホーム　ほのぼの【認知症対応型共同生活介護】栃木県大田原市蛭田1795", "url": "https://www.kaigokensaku.mhlw.go.jp/09/index.php?action_kouhyou_detail_004_kani=true&JigyosyoCd=0991000126-00&ServiceCd=320&Type=search", "url2": "https://www.keifukukai.com/" }, "geometry": { "type": "Point", "coordinates": [ 140.079608, 36.823505 ] } },
{ "type": "Feature", "properties": { "内容": "にちにちそうふじみ【認知症対応型共同生活介護】栃木県大田原市富士見１－１６０４－４５", "url": "https://www.kaigokensaku.mhlw.go.jp/09/index.php?action_kouhyou_detail_004_kani=true&JigyosyoCd=0991000258-00&ServiceCd=320&Type=search", "url2": "http://kenshinkai.or.jp/" }, "geometry": { "type": "Point", "coordinates": [ 140.031579528836147, 36.85029109263597 ] } },
{ "type": "Feature", "properties": { "内容": "グループホーム　ヴィエント【認知症対応型共同生活介護】栃木県矢板市片岡１１７４－２", "url": "https://www.kaigokensaku.mhlw.go.jp/09/index.php?action_kouhyou_detail_004_kani=true&JigyosyoCd=0991100090-00&ServiceCd=320&Type=search", "url2": null }, "geometry": { "type": "Point", "coordinates": [ 139.945704200000023, 36.7572733 ] } },
{ "type": "Feature", "properties": { "内容": "グループホーム　ラパス【認知症対応型共同生活介護】栃木県矢板市泉557-1", "url": "https://www.kaigokensaku.mhlw.go.jp/09/index.php?action_kouhyou_detail_004_kani=true&JigyosyoCd=0991100108-00&ServiceCd=320&Type=search", "url2": null }, "geometry": { "type": "Point", "coordinates": [ 139.911414499999978, 36.8437869 ] } },
{ "type": "Feature", "properties": { "内容": "グループホーム来夢【認知症対応型共同生活介護】栃木県矢板市石関1317-3", "url": "https://www.kaigokensaku.mhlw.go.jp/09/index.php?action_kouhyou_detail_004_kani=true&JigyosyoCd=0991100025-00&ServiceCd=320&Type=search", "url2": null }, "geometry": { "type": "Point", "coordinates": [ 139.94601560000001, 36.751574 ] } },
{ "type": "Feature", "properties": { "内容": "グループホームあかり【認知症対応型共同生活介護】栃木県矢板市扇町2丁目8番地34", "url": "https://www.kaigokensaku.mhlw.go.jp/09/index.php?action_kouhyou_detail_004_kani=true&JigyosyoCd=0971100144-00&ServiceCd=320&Type=search", "url2": "http://www.ogata-cl.or.jp/ioukai/index.html" }, "geometry": { "type": "Point", "coordinates": [ 139.932794400000034, 36.8140078 ] } },
{ "type": "Feature", "properties": { "内容": "ニチイのほほえみ　矢板【認知症対応型共同生活介護】栃木県矢板市東町１２０３-２", "url": "https://www.kaigokensaku.mhlw.go.jp/09/index.php?action_kouhyou_detail_004_kani=true&JigyosyoCd=0991100066-00&ServiceCd=320&Type=search", "url2": "http://www.nichiigakkan.co.jp" }, "geometry": { "type": "Point", "coordinates": [ 139.9430054, 36.7954577 ] } },
{ "type": "Feature", "properties": { "内容": "グループホーム　レガーロ【認知症対応型共同生活介護】栃木県那須塩原市三島4丁目28-2", "url": "https://www.kaigokensaku.mhlw.go.jp/09/index.php?action_kouhyou_detail_004_kani=true&JigyosyoCd=0991300211-00&ServiceCd=320&Type=search", "url2": null }, "geometry": { "type": "Point", "coordinates": [ 139.9713587, 36.8979211 ] } },
{ "type": "Feature", "properties": { "内容": "グループホーム　和【認知症対応型共同生活介護】栃木県那須塩原市大原間７２－１グループホーム", "url": "https://www.kaigokensaku.mhlw.go.jp/09/index.php?action_kouhyou_detail_004_kani=true&JigyosyoCd=0971300017-00&ServiceCd=320&Type=search", "url2": "http://watanabe-cl.ne.jp/nagomi/" }, "geometry": { "type": "Point", "coordinates": [ 140.019942638484167, 36.925130321916015 ] } },
{ "type": "Feature", "properties": { "内容": "くろいそケアセンターそよ風【認知症対応型共同生活介護】栃木県那須塩原市豊浦南町83-120", "url": "https://www.kaigokensaku.mhlw.go.jp/09/index.php?action_kouhyou_detail_004_kani=true&JigyosyoCd=0971200340-00&ServiceCd=320&Type=search", "url2": null }, "geometry": { "type": "Point", "coordinates": [ 140.038675, 36.962581 ] } },
{ "type": "Feature", "properties": { "内容": "グループホーム安暮里【認知症対応型共同生活介護】栃木県那須塩原市鍋掛1416番3号", "url": "https://www.kaigokensaku.mhlw.go.jp/09/index.php?action_kouhyou_detail_004_kani=true&JigyosyoCd=0971200365-00&ServiceCd=320&Type=search", "url2": "https://www.keifukukai.com/" }, "geometry": { "type": "Point", "coordinates": [ 140.066042700000025, 36.9511383 ] } },
{ "type": "Feature", "properties": { "内容": "認知症高齢者グループホーム　四季の花【認知症対応型共同生活介護】栃木県那須塩原市一区町２８１－７１", "url": "https://www.kaigokensaku.mhlw.go.jp/09/index.php?action_kouhyou_detail_004_kani=true&JigyosyoCd=0991300013-00&ServiceCd=320&Type=search", "url2": "http://three-ai.jp" }, "geometry": { "type": "Point", "coordinates": [ 139.969883500000037, 36.8525126 ] } },
{ "type": "Feature", "properties": { "内容": "認知症高齢者グループホームさくらハウス【認知症対応型共同生活介護】栃木県那須塩原市高林1931番1", "url": "https://www.kaigokensaku.mhlw.go.jp/09/index.php?action_kouhyou_detail_004_kani=true&JigyosyoCd=0991300096-00&ServiceCd=320&Type=search", "url2": null }, "geometry": { "type": "Point", "coordinates": [ 139.958042857672126, 36.987399584924781 ] } },
{ "type": "Feature", "properties": { "内容": "グループホーム安暮里みしまの家【認知症対応型共同生活介護】栃木県那須塩原市東三島１―１０４―２２３", "url": "https://www.kaigokensaku.mhlw.go.jp/09/index.php?action_kouhyou_detail_004_kani=true&JigyosyoCd=0991300138-00&ServiceCd=320&Type=search", "url2": "http://www.keifukukai.com" }, "geometry": { "type": "Point", "coordinates": [ 139.981254499999977, 36.9013404 ] } },
{ "type": "Feature", "properties": { "内容": "認知症高齢者グループホームまつばら荘【認知症対応型共同生活介護】栃木県那須塩原市黒磯647-4", "url": "https://www.kaigokensaku.mhlw.go.jp/09/index.php?action_kouhyou_detail_004_kani=true&JigyosyoCd=0991300187-00&ServiceCd=320&Type=search", "url2": "http://www.nasu-kaigo.or.jp/" }, "geometry": { "type": "Point", "coordinates": [ 140.037965830163586, 36.984616908707423 ] } },
{ "type": "Feature", "properties": { "内容": "グループホーム錦【認知症対応型共同生活介護】栃木県那須塩原市錦町１１番６号", "url": "https://www.kaigokensaku.mhlw.go.jp/09/index.php?action_kouhyou_detail_004_kani=true&JigyosyoCd=0991300245-00&ServiceCd=320&Type=search", "url2": null }, "geometry": { "type": "Point", "coordinates": [ 140.0537597, 36.9642758 ] } },
{ "type": "Feature", "properties": { "内容": "さわやかグループホームなすしおばら【認知症対応型共同生活介護】栃木県那須塩市新南37-2さわやかグループホームなすしおばら", "url": "https://www.kaigokensaku.mhlw.go.jp/09/index.php?action_kouhyou_detail_004_kani=true&JigyosyoCd=0991300328-00&ServiceCd=320&Type=search", "url2": "http://www.sawayakaclub.jp/gh-nasshiobara/" }, "geometry": { "type": "Point", "coordinates": [ 139.9916986, 36.8881343 ] } },
{ "type": "Feature", "properties": { "内容": "認知症高齢者グループホーム第2まつばら荘【認知症対応型共同生活介護】栃木県那須塩原市黒磯647－5", "url": "https://www.kaigokensaku.mhlw.go.jp/09/index.php?action_kouhyou_detail_004_kani=true&JigyosyoCd=0991300336-00&ServiceCd=320&Type=search", "url2": "www.nasu-kaigo.or.jp" }, "geometry": { "type": "Point", "coordinates": [ 140.038320075918591, 36.984631861319002 ] } },
{ "type": "Feature", "properties": { "内容": "認知症高齢者グループホーム　四季の空【認知症対応型共同生活介護】栃木県那須塩原市二区町352-180", "url": "https://www.kaigokensaku.mhlw.go.jp/09/index.php?action_kouhyou_detail_004_kani=true&JigyosyoCd=0992500017-00&ServiceCd=320&Type=search", "url2": null }, "geometry": { "type": "Point", "coordinates": [ 139.962683, 36.8791953 ] } },
{ "type": "Feature", "properties": { "内容": "グループホームたじまの杜【認知症対応型共同生活介護】栃木県那須塩原市二区町５００番５", "url": "https://www.kaigokensaku.mhlw.go.jp/09/index.php?action_kouhyou_detail_004_kani=true&JigyosyoCd=0991300153-00&ServiceCd=320&Type=search", "url2": "http://elm-fukushikai.com/" }, "geometry": { "type": "Point", "coordinates": [ 139.9609041, 36.8699475 ] } },
{ "type": "Feature", "properties": { "内容": "グループホーム桜野【認知症対応型共同生活介護】栃木県さくら市櫻野1297番地3", "url": "https://www.kaigokensaku.mhlw.go.jp/09/index.php?action_kouhyou_detail_004_kani=true&JigyosyoCd=0972600399-00&ServiceCd=320&Type=search", "url2": "https://www.kurosu-hospital.jp/sakurano/" }, "geometry": { "type": "Point", "coordinates": [ 139.969053088534253, 36.680824236732526 ] } },
{ "type": "Feature", "properties": { "内容": "グループホーム　さらい【認知症対応型共同生活介護】栃木県那須烏山市滝田1762番地2", "url": "https://www.kaigokensaku.mhlw.go.jp/09/index.php?action_kouhyou_detail_004_kani=true&JigyosyoCd=0991500034-00&ServiceCd=320&Type=search", "url2": "http://keiaikai-nasukarasuyama.com" }, "geometry": { "type": "Point", "coordinates": [ 140.145381510450761, 36.675487234056277 ] } },
{ "type": "Feature", "properties": { "内容": "グループホーム富士見屋【認知症対応型共同生活介護】栃木県那須烏山市下川井1439", "url": "https://www.kaigokensaku.mhlw.go.jp/09/index.php?action_kouhyou_detail_004_kani=true&JigyosyoCd=0991500067-00&ServiceCd=320&Type=search", "url2": "ghfujimiya@festa.ocn.ne.jp" }, "geometry": { "type": "Point", "coordinates": [ 140.097539500000039, 36.691968 ] } },
{ "type": "Feature", "properties": { "内容": "グループホーム　ふげん【認知症対応型共同生活介護】栃木県那須烏山市大桶1085－2", "url": "https://www.kaigokensaku.mhlw.go.jp/09/index.php?action_kouhyou_detail_004_kani=true&JigyosyoCd=0991500018-00&ServiceCd=320&Type=search", "url2": "http://www.seisyu-kai.net/aiwaen/rou.html" }, "geometry": { "type": "Point", "coordinates": [ 140.154309499999954, 36.7067458 ] } },
{ "type": "Feature", "properties": { "内容": "グループホームあすか【認知症対応型共同生活介護】栃木県下野市川中子1465-1", "url": "https://www.kaigokensaku.mhlw.go.jp/09/index.php?action_kouhyou_detail_004_kani=true&JigyosyoCd=0972300784-00&ServiceCd=320&Type=search", "url2": "http://keiwa22.or.jp" }, "geometry": { "type": "Point", "coordinates": [ 139.834459599999946, 36.3808676 ] } },
{ "type": "Feature", "properties": { "内容": "認知症高齢者グループホームいしばし【認知症対応型共同生活介護】栃木県下野市上古山５６９－１", "url": "https://www.kaigokensaku.mhlw.go.jp/09/index.php?action_kouhyou_detail_004_kani=true&JigyosyoCd=0991600016-00&ServiceCd=320&Type=search", "url2": "http://tochinokikai.or.jp/" }, "geometry": { "type": "Point", "coordinates": [ 139.858484399999952, 36.4679803 ] } },
{ "type": "Feature", "properties": { "内容": "グループホーム仁良川苑【認知症対応型共同生活介護】栃木県下野市仁良川1442", "url": "https://www.kaigokensaku.mhlw.go.jp/09/index.php?action_kouhyou_detail_004_kani=true&JigyosyoCd=0972100507-00&ServiceCd=320&Type=search", "url2": "https://www.ebihara-clinic.jp/group-home" }, "geometry": { "type": "Point", "coordinates": [ 139.8783317, 36.3748532 ] } },
{ "type": "Feature", "properties": { "内容": "グループホームふれんど下野【認知症対応型共同生活介護】栃木県下野市薬師寺3178-6", "url": "https://www.kaigokensaku.mhlw.go.jp/09/index.php?action_kouhyou_detail_004_kani=true&JigyosyoCd=0991600032-00&ServiceCd=320&Type=search", "url2": "http://www.f-pw.jp/shopinfo/grouphome/#top" }, "geometry": { "type": "Point", "coordinates": [ 139.86327592631983, 36.394799472051403 ] } },
{ "type": "Feature", "properties": { "内容": "グループホーム　ヘブンリートータス【認知症対応型共同生活介護】栃木県河内郡上三川町下神主２３１－１", "url": "https://www.kaigokensaku.mhlw.go.jp/09/index.php?action_kouhyou_detail_004_kani=true&JigyosyoCd=0972100457-00&ServiceCd=320&Type=search", "url2": "http://www.tortoise-h.jp" }, "geometry": { "type": "Point", "coordinates": [ 139.881466899999964, 36.4528765 ] } },
{ "type": "Feature", "properties": { "内容": "グループホームぽぷら【認知症対応型共同生活介護】栃木県河内郡上三川町大字石田１２３１番地３", "url": "https://www.kaigokensaku.mhlw.go.jp/09/index.php?action_kouhyou_detail_004_kani=true&JigyosyoCd=0992100032-00&ServiceCd=320&Type=search", "url2": "http://sakura-popura.jp" }, "geometry": { "type": "Point", "coordinates": [ 139.900383315869107, 36.468607686553483 ] } },
{ "type": "Feature", "properties": { "内容": "グループホーム能羅坊【認知症対応型共同生活介護】栃木県芳賀郡益子町益子２５", "url": "https://www.kaigokensaku.mhlw.go.jp/09/index.php?action_kouhyou_detail_004_kani=true&JigyosyoCd=0972700413-00&ServiceCd=320&Type=search", "url2": "ghw@fumon.jp" }, "geometry": { "type": "Point", "coordinates": [ 140.089936800000032, 36.4624703 ] } },
{ "type": "Feature", "properties": { "内容": "指定認知症高齢者グループホームグリーンハウスとちぎ【認知症対応型共同生活介護】栃木県芳賀郡茂木町茂木63-28", "url": "https://www.kaigokensaku.mhlw.go.jp/09/index.php?action_kouhyou_detail_004_kani=true&JigyosyoCd=0972700504-00&ServiceCd=320&Type=search", "url2": "http://www.shoseikai.com/totigi/top/tochigi.html" }, "geometry": { "type": "Point", "coordinates": [ 140.19111440000006, 36.533411900000026 ] } },
{ "type": "Feature", "properties": { "内容": "グループホーム　つきのき荘【認知症対応型共同生活介護】栃木県芳賀郡茂木町馬門1373", "url": "https://www.kaigokensaku.mhlw.go.jp/09/index.php?action_kouhyou_detail_004_kani=true&JigyosyoCd=0992700146-00&ServiceCd=320&Type=search", "url2": null }, "geometry": { "type": "Point", "coordinates": [ 140.21821435316042, 36.553048870279035 ] } },
{ "type": "Feature", "properties": { "内容": "アットホームいちはな【認知症対応型共同生活介護】栃木県芳賀郡市貝町市塙1601-1", "url": "https://www.kaigokensaku.mhlw.go.jp/09/index.php?action_kouhyou_detail_004_kani=true&JigyosyoCd=0992700070-00&ServiceCd=320&Type=search", "url2": "https://www.at-home-gr.co.jp/" }, "geometry": { "type": "Point", "coordinates": [ 140.102855614155601, 36.537052845572511 ] } },
{ "type": "Feature", "properties": { "内容": "グループホーム　みささかん【認知症対応型共同生活介護】栃木県芳賀郡芳賀町東水沼2928", "url": "https://www.kaigokensaku.mhlw.go.jp/09/index.php?action_kouhyou_detail_004_kani=true&JigyosyoCd=0992700039-00&ServiceCd=320&Type=search", "url2": "http://www.f-pw.jp" }, "geometry": { "type": "Point", "coordinates": [ 139.99837125753325, 36.557412208313949 ] } },
{ "type": "Feature", "properties": { "内容": "グループホームふれんど芳賀【認知症対応型共同生活介護】栃木県芳賀郡芳賀町祖母井1684-7", "url": "https://www.kaigokensaku.mhlw.go.jp/09/index.php?action_kouhyou_detail_004_kani=true&JigyosyoCd=0992700161-00&ServiceCd=320&Type=search", "url2": "http://ｗｗｗ.ｆ-ｐｗ.jp" }, "geometry": { "type": "Point", "coordinates": [ 140.071171949737618, 36.539601220230445 ] } },
{ "type": "Feature", "properties": { "内容": "グループホーム元気【認知症対応型共同生活介護】栃木県壬生町大字壬生甲2224-1", "url": "https://www.kaigokensaku.mhlw.go.jp/09/index.php?action_kouhyou_detail_004_kani=true&JigyosyoCd=0992300079-00&ServiceCd=320&Type=search", "url2": "http://keiwa22.or.jp" }, "geometry": { "type": "Point", "coordinates": [ 139.8088593, 36.4305185 ] } },
{ "type": "Feature", "properties": { "内容": "グループホーム　ふれんど壬生【認知症対応型共同生活介護】栃木県下都賀郡壬生町大字壬生甲591-2", "url": "https://www.kaigokensaku.mhlw.go.jp/09/index.php?action_kouhyou_detail_004_kani=true&JigyosyoCd=0992300053-00&ServiceCd=320&Type=search", "url2": "http://friendmibu.web.fc2.com/toi.html" }, "geometry": { "type": "Point", "coordinates": [ 139.808212200000071, 36.4302102 ] } },
{ "type": "Feature", "properties": { "内容": "グループホームふれんど東雲【認知症対応型共同生活介護】栃木県下都賀郡壬生町大字壬生甲591-5", "url": "https://www.kaigokensaku.mhlw.go.jp/09/index.php?action_kouhyou_detail_004_kani=true&JigyosyoCd=0992300111-00&ServiceCd=320&Type=search", "url2": "www.f-pw.ｊｐ" }, "geometry": { "type": "Point", "coordinates": [ 139.808279255225386, 36.430142221274089 ] } },
{ "type": "Feature", "properties": { "内容": "認知症老人グループホームうらら【認知症対応型共同生活介護】栃木県下都賀郡壬生町大字北小林812番地", "url": "https://www.kaigokensaku.mhlw.go.jp/09/index.php?action_kouhyou_detail_004_kani=true&JigyosyoCd=0972300578-00&ServiceCd=320&Type=search", "url2": "http://tochinokikai.or.jp/" }, "geometry": { "type": "Point", "coordinates": [ 139.820687499999963, 36.4751034 ] } },
{ "type": "Feature", "properties": { "内容": "グループホーム　森の舎【認知症対応型共同生活介護】栃木県下都賀郡野木町南赤塚1218-8", "url": "https://www.kaigokensaku.mhlw.go.jp/09/index.php?action_kouhyou_detail_004_kani=true&JigyosyoCd=0972300446-00&ServiceCd=320&Type=search", "url2": "http://www.nogihosp.or.jp" }, "geometry": { "type": "Point", "coordinates": [ 139.747357518385343, 36.219138484145006 ] } },
{ "type": "Feature", "properties": { "内容": "グループホームおおくぼ【認知症対応型共同生活介護】栃木県塩谷郡塩谷町大字大久保1650-1", "url": "https://www.kaigokensaku.mhlw.go.jp/09/index.php?action_kouhyou_detail_004_kani=true&JigyosyoCd=0992600064-00&ServiceCd=320&Type=search", "url2": null }, "geometry": { "type": "Point", "coordinates": [ 139.909300499999972, 36.7266676 ] } },
{ "type": "Feature", "properties": { "内容": "グループホーム　かわむら【認知症対応型共同生活介護】栃木県塩谷郡塩谷町大字船生3844番地46", "url": "https://www.kaigokensaku.mhlw.go.jp/09/index.php?action_kouhyou_detail_004_kani=true&JigyosyoCd=0992600023-00&ServiceCd=320&Type=search", "url2": "asunaro-swc.jp/kawamura.html" }, "geometry": { "type": "Point", "coordinates": [ 139.790025900000046, 36.7607192 ] } },
{ "type": "Feature", "properties": { "内容": "アグリケアホームしおや【認知症対応型共同生活介護】栃木県塩谷郡塩谷町大久保1650-1", "url": "https://www.kaigokensaku.mhlw.go.jp/09/index.php?action_kouhyou_detail_004_kani=true&JigyosyoCd=0992600114-00&ServiceCd=320&Type=search", "url2": null }, "geometry": { "type": "Point", "coordinates": [ 139.909343, 36.7266226 ] } },
{ "type": "Feature", "properties": { "内容": "グループホーム高根沢【認知症対応型共同生活介護】栃木県塩谷郡高根沢町大字石末1005番地8", "url": "https://www.kaigokensaku.mhlw.go.jp/09/index.php?action_kouhyou_detail_004_kani=true&JigyosyoCd=0972600308-00&ServiceCd=320&Type=search", "url2": "http://www.hokutokai.or.jp/silver/grouphome/t-facility/index.html" }, "geometry": { "type": "Point", "coordinates": [ 140.00331529999994, 36.6331872 ] } },
{ "type": "Feature", "properties": { "内容": "ケアハウス　フローラ【認知症対応型共同生活介護】栃木県塩谷郡高根沢町大字上柏崎５５１番地１", "url": "https://www.kaigokensaku.mhlw.go.jp/09/index.php?action_kouhyou_detail_004_kani=true&JigyosyoCd=0972600050-00&ServiceCd=320&Type=search", "url2": "http://www.kouseikai-flora.or.jp/" }, "geometry": { "type": "Point", "coordinates": [ 140.053785699999906, 36.6348607 ] } },
{ "type": "Feature", "properties": { "内容": "認知症グループホーム　大地【認知症対応型共同生活介護】栃木県塩谷郡高根沢町宝積寺２４２４－１８", "url": "https://www.kaigokensaku.mhlw.go.jp/09/index.php?action_kouhyou_detail_004_kani=true&JigyosyoCd=0992600049-00&ServiceCd=320&Type=search", "url2": "http://houm.jp" }, "geometry": { "type": "Point", "coordinates": [ 139.97805649999998, 36.6320255 ] } },
{ "type": "Feature", "properties": { "内容": "認知症高齢者グループホーム愛里須【認知症対応型共同生活介護】栃木県那須郡那須町大字寺子乙4402-2", "url": "https://www.kaigokensaku.mhlw.go.jp/09/index.php?action_kouhyou_detail_004_kani=true&JigyosyoCd=0972501035-00&ServiceCd=320&Type=search", "url2": null }, "geometry": { "type": "Point", "coordinates": [ 140.125727899999987, 37.0137351 ] } },
{ "type": "Feature", "properties": { "内容": "認知症高齢者グループホーム　ソフィア【認知症対応型共同生活介護】栃木県那須郡那須町大字寺子丙１０４－３", "url": "https://www.kaigokensaku.mhlw.go.jp/09/index.php?action_kouhyou_detail_004_kani=true&JigyosyoCd=0992500074-00&ServiceCd=320&Type=search", "url2": null }, "geometry": { "type": "Point", "coordinates": [ 140.113067399999977, 37.0246752 ] } },
{ "type": "Feature", "properties": { "内容": "認知症高齢者グループホーム　りんどう荘【認知症対応型共同生活介護】栃木県那須郡那須町大字湯本新林206番地", "url": "https://www.kaigokensaku.mhlw.go.jp/09/index.php?action_kouhyou_detail_004_kani=true&JigyosyoCd=0992500124-00&ServiceCd=320&Type=search", "url2": "https://www.nasu-kaigo.or.jp/" }, "geometry": { "type": "Point", "coordinates": [ 140.01759049478153, 37.090381512397883 ] } },
{ "type": "Feature", "properties": { "内容": "さわやかグループホームなすまち【認知症対応型共同生活介護】栃木県那須郡那須町大字寺子乙３９６７番２１さわやかグループホームなすまち", "url": "https://www.kaigokensaku.mhlw.go.jp/09/index.php?action_kouhyou_detail_004_kani=true&JigyosyoCd=0992500132-00&ServiceCd=320&Type=search", "url2": "http://www.sawayakaclub.j/nasumachi/" }, "geometry": { "type": "Point", "coordinates": [ 140.123475099999951, 37.0180817 ] } },
{ "type": "Feature", "properties": { "内容": "認知症対応型共同生活介護施設アベーテ【認知症対応型共同生活介護】栃木県那須郡那珂川町馬頭2050番地1", "url": "https://www.kaigokensaku.mhlw.go.jp/09/index.php?action_kouhyou_detail_004_kani=true&JigyosyoCd=0992500066-00&ServiceCd=320&Type=search", "url2": "http://www.shofukai.or.jp/nakagawa/" }, "geometry": { "type": "Point", "coordinates": [ 140.161726700000031, 36.7355701 ] } },
{ "type": "Feature", "properties": { "内容": "グループホームえにし苑【認知症対応型共同生活介護】栃木県那珂川町谷川1609", "url": "https://www.kaigokensaku.mhlw.go.jp/09/index.php?action_kouhyou_detail_004_kani=true&JigyosyoCd=0992500090-00&ServiceCd=320&Type=search", "url2": "https://www.mitsui-care.com" }, "geometry": { "type": "Point", "coordinates": [ 140.235167600000011, 36.7721768 ] } }
]
}
