{
"type": "FeatureCollection",
"name": "geo_09_特定施設入居者生活介護（有料老人ホーム）",
"crs": { "type": "name", "properties": { "name": "urn:ogc:def:crs:OGC:1.3:CRS84" } },
"features": [
{ "type": "Feature", "properties": { "内容": "あずみ苑グランデ宇都宮【特定施設入居者生活介護（有料老人ホーム）】栃木県宇都宮市宝木本町1239-1", "url": "https://www.kaigokensaku.mhlw.go.jp/09/index.php?action_kouhyou_detail_004_kani=true&JigyosyoCd=0970104287-00&ServiceCd=331&Type=search", "url2": null }, "geometry": { "type": "Point", "coordinates": [ 139.848857700000053, 36.6038612 ] } },
{ "type": "Feature", "properties": { "内容": "あやめの郷上戸祭【特定施設入居者生活介護（有料老人ホーム）】栃木県宇都宮市上戸祭町124-4", "url": "https://www.kaigokensaku.mhlw.go.jp/09/index.php?action_kouhyou_detail_004_kani=true&JigyosyoCd=0970108833-00&ServiceCd=331&Type=search", "url2": null }, "geometry": { "type": "Point", "coordinates": [ 139.8639374, 36.594656 ] } },
{ "type": "Feature", "properties": { "内容": "あやめの郷　上戸祭【特定施設入居者生活介護（有料老人ホーム）】栃木県宇都宮市上戸祭町124番地4", "url": "https://www.kaigokensaku.mhlw.go.jp/09/index.php?action_kouhyou_detail_004_kani=true&JigyosyoCd=0970109104-00&ServiceCd=331&Type=search", "url2": null }, "geometry": { "type": "Point", "coordinates": [ 139.8639374, 36.594656 ] } },
{ "type": "Feature", "properties": { "内容": "ケアライフゆいの杜【特定施設入居者生活介護（有料老人ホーム）】栃木県宇都宮市ゆいの杜6-29-18", "url": "https://www.kaigokensaku.mhlw.go.jp/09/index.php?action_kouhyou_detail_004_kani=true&JigyosyoCd=0970104584-00&ServiceCd=331&Type=search", "url2": "http://www.fb-kaigo.co.jp/" }, "geometry": { "type": "Point", "coordinates": [ 139.998823810234086, 36.570465112399219 ] } },
{ "type": "Feature", "properties": { "内容": "介護付有料老人ホーム　さわやか　すずめのみや【特定施設入居者生活介護（有料老人ホーム）】栃木県宇都宮市若松原2丁目18番26号介護付有料老人ホーム　さわやかすずめのみや", "url": "https://www.kaigokensaku.mhlw.go.jp/09/index.php?action_kouhyou_detail_004_kani=true&JigyosyoCd=0970105953-00&ServiceCd=331&Type=search", "url2": "http//www.sawayakaclub.jp" }, "geometry": { "type": "Point", "coordinates": [ 139.867077399999971, 36.4981545 ] } },
{ "type": "Feature", "properties": { "内容": "介護付有料老人ホーム桜庵【特定施設入居者生活介護（有料老人ホーム）】栃木県宇都宮市江曽島本町8-9介護付有料老人ホーム桜庵", "url": "https://www.kaigokensaku.mhlw.go.jp/09/index.php?action_kouhyou_detail_004_kani=true&JigyosyoCd=0970106829-00&ServiceCd=331&Type=search", "url2": "http://www.ouan.jp/" }, "geometry": { "type": "Point", "coordinates": [ 139.871552219049107, 36.529750562652595 ] } },
{ "type": "Feature", "properties": { "内容": "社会医療法人中山会　介護付き有料老人ホーム　宝木荘【特定施設入居者生活介護（有料老人ホーム）】栃木県宇都宮市宝木町二丁目１０９０－２７", "url": "https://www.kaigokensaku.mhlw.go.jp/09/index.php?action_kouhyou_detail_004_kani=true&JigyosyoCd=0970108742-00&ServiceCd=331&Type=search", "url2": "https://takaragisou.com" }, "geometry": { "type": "Point", "coordinates": [ 139.8470883, 36.5960184 ] } },
{ "type": "Feature", "properties": { "内容": "ミモザ宇都宮上戸祭【特定施設入居者生活介護（有料老人ホーム）】栃木県宇都宮市上戸祭町649番地42", "url": "https://www.kaigokensaku.mhlw.go.jp/09/index.php?action_kouhyou_detail_004_kani=true&JigyosyoCd=0970108882-00&ServiceCd=331&Type=search", "url2": "https://mimoza-care.com" }, "geometry": { "type": "Point", "coordinates": [ 139.870655053681674, 36.585881875250067 ] } },
{ "type": "Feature", "properties": { "内容": "有料老人ホーム　くれまちす【特定施設入居者生活介護（有料老人ホーム）】栃木県足利市借宿町６１０－１ケアルネッサンスうるしばら", "url": "https://www.kaigokensaku.mhlw.go.jp/09/index.php?action_kouhyou_detail_004_kani=true&JigyosyoCd=0970202131-00&ServiceCd=331&Type=search", "url2": "http://urushibara-kaigo.net" }, "geometry": { "type": "Point", "coordinates": [ 139.4260707, 36.325018900000011 ] } },
{ "type": "Feature", "properties": { "内容": "大地【特定施設入居者生活介護（有料老人ホーム）】栃木県足利市駒場町568-1", "url": "https://www.kaigokensaku.mhlw.go.jp/09/index.php?action_kouhyou_detail_004_kani=true&JigyosyoCd=0970201463-00&ServiceCd=331&Type=search", "url2": "https://n-p-o.or.jp" }, "geometry": { "type": "Point", "coordinates": [ 139.528522400000043, 36.3166507 ] } },
{ "type": "Feature", "properties": { "内容": "介護付有料老人ホームひまわり【特定施設入居者生活介護（有料老人ホーム）】栃木県足利市大久保町754-1高齢者介護福祉施設ひまわり", "url": "https://www.kaigokensaku.mhlw.go.jp/09/index.php?action_kouhyou_detail_004_kani=true&JigyosyoCd=0970202149-00&ServiceCd=331&Type=search", "url2": "http://www.hsc.co.jp" }, "geometry": { "type": "Point", "coordinates": [ 139.499966800000038, 36.315389 ] } },
{ "type": "Feature", "properties": { "内容": "ラ・ナシカ　あしかが【特定施設入居者生活介護（有料老人ホーム）】栃木県足利市山川町10-11", "url": "https://www.kaigokensaku.mhlw.go.jp/09/index.php?action_kouhyou_detail_004_kani=true&JigyosyoCd=0970202321-00&ServiceCd=331&Type=search", "url2": "https://www.cedar-group.co.jp" }, "geometry": { "type": "Point", "coordinates": [ 139.477727100000038, 36.3228317 ] } },
{ "type": "Feature", "properties": { "内容": "ふるさとホーム足利渡良瀬川【特定施設入居者生活介護（有料老人ホーム）】福富町1836-1ふるさとホーム足利渡良瀬川", "url": "https://www.kaigokensaku.mhlw.go.jp/09/index.php?action_kouhyou_detail_004_kani=true&JigyosyoCd=0970202941-00&ServiceCd=331&Type=search", "url2": "http://www.vati.co.jp/" }, "geometry": { "type": "Point", "coordinates": [ 139.464161500000046, 36.3176095 ] } },
{ "type": "Feature", "properties": { "内容": "グッドネス足利【特定施設入居者生活介護（有料老人ホーム）】栃木県足利市福富町2172-1", "url": "https://www.kaigokensaku.mhlw.go.jp/09/index.php?action_kouhyou_detail_004_kani=true&JigyosyoCd=0970203758-00&ServiceCd=331&Type=search", "url2": "https://www.ryomomaruzen.co.jp/" }, "geometry": { "type": "Point", "coordinates": [ 139.4602319, 36.3177274 ] } },
{ "type": "Feature", "properties": { "内容": "介護付有料老人ホームほほえみ【特定施設入居者生活介護（有料老人ホーム）】栃木県足利市小俣町1625", "url": "https://www.kaigokensaku.mhlw.go.jp/09/index.php?action_kouhyou_detail_004_kani=true&JigyosyoCd=0970203386-00&ServiceCd=331&Type=search", "url2": "http://sanyukai-hohoemi.or.jp" }, "geometry": { "type": "Point", "coordinates": [ 139.3770088, 36.3791631 ] } },
{ "type": "Feature", "properties": { "内容": "有料老人ホーム　竹の翠【特定施設入居者生活介護（有料老人ホーム）】栃木県足利市福居町８４３番地", "url": "https://www.kaigokensaku.mhlw.go.jp/09/index.php?action_kouhyou_detail_004_kani=true&JigyosyoCd=0970201042-00&ServiceCd=331&Type=search", "url2": "https://www.urushibara-kaigo.net" }, "geometry": { "type": "Point", "coordinates": [ 139.450904400000013, 36.3143037 ] } },
{ "type": "Feature", "properties": { "内容": "介護付有料老人ホーム　みどり【特定施設入居者生活介護（有料老人ホーム）】栃木県栃木市平柳町3-23-3", "url": "https://www.kaigokensaku.mhlw.go.jp/09/index.php?action_kouhyou_detail_004_kani=true&JigyosyoCd=0970301776-00&ServiceCd=331&Type=search", "url2": "http://www.medical-green.com/" }, "geometry": { "type": "Point", "coordinates": [ 139.748476100000062, 36.3954626 ] } },
{ "type": "Feature", "properties": { "内容": "株式会社　にこにこ川原田倶楽部【特定施設入居者生活介護（有料老人ホーム）】栃木県栃木市川原田町338-1にこにこ川原田倶楽部", "url": "https://www.kaigokensaku.mhlw.go.jp/09/index.php?action_kouhyou_detail_004_kani=true&JigyosyoCd=0970301594-00&ServiceCd=331&Type=search", "url2": "https://www.koureisha-j.co.jp/" }, "geometry": { "type": "Point", "coordinates": [ 139.7329383, 36.4008504 ] } },
{ "type": "Feature", "properties": { "内容": "センチュリーシルバー佐野【特定施設入居者生活介護（有料老人ホーム）】栃木県佐野市大橋町１４１６－５", "url": "https://www.kaigokensaku.mhlw.go.jp/09/index.php?action_kouhyou_detail_004_kani=true&JigyosyoCd=0970400768-00&ServiceCd=331&Type=search", "url2": "http://www.centurysilver.jp" }, "geometry": { "type": "Point", "coordinates": [ 139.555684499999984, 36.3144012 ] } },
{ "type": "Feature", "properties": { "内容": "みずき佐野【特定施設入居者生活介護（有料老人ホーム）】栃木県佐野市堀米町820-5", "url": "https://www.kaigokensaku.mhlw.go.jp/09/index.php?action_kouhyou_detail_004_kani=true&JigyosyoCd=0970400990-00&ServiceCd=331&Type=search", "url2": "http://www.tbcss.co.jp/" }, "geometry": { "type": "Point", "coordinates": [ 139.5894925, 36.3275677 ] } },
{ "type": "Feature", "properties": { "内容": "さわやかさの館【特定施設入居者生活介護（有料老人ホーム）】栃木県佐野市堀米町3261-1", "url": "https://www.kaigokensaku.mhlw.go.jp/09/index.php?action_kouhyou_detail_004_kani=true&JigyosyoCd=0970402079-00&ServiceCd=331&Type=search", "url2": "http:www.sawayakaclub.jp/sanokan/" }, "geometry": { "type": "Point", "coordinates": [ 139.56904560000001, 36.3339995 ] } },
{ "type": "Feature", "properties": { "内容": "あすなろ田沼【特定施設入居者生活介護（有料老人ホーム）】栃木県佐野市山越町238-1", "url": "https://www.kaigokensaku.mhlw.go.jp/09/index.php?action_kouhyou_detail_004_kani=true&JigyosyoCd=0970402632-00&ServiceCd=331&Type=search", "url2": null }, "geometry": { "type": "Point", "coordinates": [ 139.589420107245473, 36.375882605438029 ] } },
{ "type": "Feature", "properties": { "内容": "さわやかかぬま館【特定施設入居者生活介護（有料老人ホーム）】栃木県鹿沼市寺町914番1", "url": "https://www.kaigokensaku.mhlw.go.jp/09/index.php?action_kouhyou_detail_004_kani=true&JigyosyoCd=0970501268-00&ServiceCd=331&Type=search", "url2": "http://sawayakaclub.co.jp" }, "geometry": { "type": "Point", "coordinates": [ 139.748720899999967, 36.5606753 ] } },
{ "type": "Feature", "properties": { "内容": "介護付有料老人ホームたけむら【特定施設入居者生活介護（有料老人ホーム）】栃木県鹿沼市西茂呂四丁目46番3", "url": "https://www.kaigokensaku.mhlw.go.jp/09/index.php?action_kouhyou_detail_004_kani=true&JigyosyoCd=0970500948-00&ServiceCd=331&Type=search", "url2": "http://takemuracarecenter.com/" }, "geometry": { "type": "Point", "coordinates": [ 139.767630899999972, 36.5431697 ] } },
{ "type": "Feature", "properties": { "内容": "介護付高齢者ホーム　ウェルケアひよし【特定施設入居者生活介護（有料老人ホーム）】栃木県鹿沼市日吉町937番地1", "url": "https://www.kaigokensaku.mhlw.go.jp/09/index.php?action_kouhyou_detail_004_kani=true&JigyosyoCd=0970501474-00&ServiceCd=331&Type=search", "url2": "http://nikko-fukueikai.or.jp/" }, "geometry": { "type": "Point", "coordinates": [ 139.734377499999937, 36.5680684 ] } },
{ "type": "Feature", "properties": { "内容": "すかいの郷こもれび【特定施設入居者生活介護（有料老人ホーム）】栃木県日光市小佐越8-25", "url": "https://www.kaigokensaku.mhlw.go.jp/09/index.php?action_kouhyou_detail_004_kani=true&JigyosyoCd=0970600730-00&ServiceCd=331&Type=search", "url2": "https://sukai.jp/" }, "geometry": { "type": "Point", "coordinates": [ 139.702325344319149, 36.790215024520414 ] } },
{ "type": "Feature", "properties": { "内容": "介護付有料老人ホーム　しあわせ思川館【特定施設入居者生活介護（有料老人ホーム）】栃木県小山市乙女1212-1", "url": "https://www.kaigokensaku.mhlw.go.jp/09/index.php?action_kouhyou_detail_004_kani=true&JigyosyoCd=0970802591-00&ServiceCd=331&Type=search", "url2": null }, "geometry": { "type": "Point", "coordinates": [ 139.750356900000043, 36.2573031 ] } },
{ "type": "Feature", "properties": { "内容": "有料老人ホームさくら本館【特定施設入居者生活介護（有料老人ホーム）】栃木県小山市喜沢６６７－１４５", "url": "https://www.kaigokensaku.mhlw.go.jp/09/index.php?action_kouhyou_detail_004_kani=true&JigyosyoCd=0970800702-00&ServiceCd=331&Type=search", "url2": "http://sakura-oyama.com" }, "geometry": { "type": "Point", "coordinates": [ 139.820439699999952, 36.3436303 ] } },
{ "type": "Feature", "properties": { "内容": "介護付き有料老人ホーム　アスピア乙女【特定施設入居者生活介護（有料老人ホーム）】栃木県小山市乙女786-1", "url": "https://www.kaigokensaku.mhlw.go.jp/09/index.php?action_kouhyou_detail_004_kani=true&JigyosyoCd=0970801775-00&ServiceCd=331&Type=search", "url2": "aspia-otome.jp" }, "geometry": { "type": "Point", "coordinates": [ 139.746035503704888, 36.251041704195138 ] } },
{ "type": "Feature", "properties": { "内容": "介護付有料老人ホームしあわせ小山館【特定施設入居者生活介護（有料老人ホーム）】栃木県小山市間々田791-5", "url": "https://www.kaigokensaku.mhlw.go.jp/09/index.php?action_kouhyou_detail_004_kani=true&JigyosyoCd=0970802401-00&ServiceCd=331&Type=search", "url2": "aiaicare.jp" }, "geometry": { "type": "Point", "coordinates": [ 139.773684057672085, 36.276178208587552 ] } },
{ "type": "Feature", "properties": { "内容": "介護付き有料老人ホーム　アナベル犬塚【特定施設入居者生活介護（有料老人ホーム）】栃木県小山市大字犬塚９９８－７", "url": "https://www.kaigokensaku.mhlw.go.jp/09/index.php?action_kouhyou_detail_004_kani=true&JigyosyoCd=0970802583-00&ServiceCd=331&Type=search", "url2": "https://npoajisai.org" }, "geometry": { "type": "Point", "coordinates": [ 139.827174272352579, 36.304220046957965 ] } },
{ "type": "Feature", "properties": { "内容": "サンメゾン小山【特定施設入居者生活介護（有料老人ホーム）】栃木県小山市西城南1-11-56サンメゾン小山", "url": "https://www.kaigokensaku.mhlw.go.jp/09/index.php?action_kouhyou_detail_004_kani=true&JigyosyoCd=0970803045-00&ServiceCd=331&Type=search", "url2": "https://taiyougroup.jp/" }, "geometry": { "type": "Point", "coordinates": [ 139.798895081614688, 36.299110576614638 ] } },
{ "type": "Feature", "properties": { "内容": "介護付有料老人ホームゆう愛【特定施設入居者生活介護（有料老人ホーム）】栃木県小山市神鳥谷5-12-13", "url": "https://www.kaigokensaku.mhlw.go.jp/09/index.php?action_kouhyou_detail_004_kani=true&JigyosyoCd=0970802013-00&ServiceCd=331&Type=search", "url2": "https://hakuaikai-sugimura-hp.amebaownd.com/pages/8069599/page_201603171106" }, "geometry": { "type": "Point", "coordinates": [ 139.790529900000024, 36.2951732 ] } },
{ "type": "Feature", "properties": { "内容": "だいな紫塚ケアホーム【特定施設入居者生活介護（有料老人ホーム）】栃木県大田原市紫塚3-2633-12", "url": "https://www.kaigokensaku.mhlw.go.jp/09/index.php?action_kouhyou_detail_004_kani=true&JigyosyoCd=0971000963-00&ServiceCd=331&Type=search", "url2": "http://dyna.gotdns.com" }, "geometry": { "type": "Point", "coordinates": [ 140.021572600000013, 36.8778268 ] } },
{ "type": "Feature", "properties": { "内容": "ふるさとホーム大田原城【特定施設入居者生活介護（有料老人ホーム）】栃木県大田原市中田原810-82", "url": "https://www.kaigokensaku.mhlw.go.jp/09/index.php?action_kouhyou_detail_004_kani=true&JigyosyoCd=0971001201-00&ServiceCd=331&Type=search", "url2": "http://ww.vati.co.jp" }, "geometry": { "type": "Point", "coordinates": [ 140.035251199999948, 36.8707955 ] } },
{ "type": "Feature", "properties": { "内容": "さわやかなすしおばら館【特定施設入居者生活介護（有料老人ホーム）】栃木県那須塩原市西朝日町3番4号", "url": "https://www.kaigokensaku.mhlw.go.jp/09/index.php?action_kouhyou_detail_004_kani=true&JigyosyoCd=0971301254-00&ServiceCd=331&Type=search", "url2": "https://www.sawayakaclub.jp/nasushiobarakan/" }, "geometry": { "type": "Point", "coordinates": [ 139.989576531877105, 36.887316693104282 ] } },
{ "type": "Feature", "properties": { "内容": "かいごつきゆうりょうろうじんほーむさくらのさと【特定施設入居者生活介護（有料老人ホーム）】栃木県さくら市氏家1889番地", "url": "https://www.kaigokensaku.mhlw.go.jp/09/index.php?action_kouhyou_detail_004_kani=true&JigyosyoCd=0971400171-00&ServiceCd=331&Type=search", "url2": "http://www.kurosu-hospital.jp/sakuranosato/" }, "geometry": { "type": "Point", "coordinates": [ 139.965795395384276, 36.67769374471537 ] } },
{ "type": "Feature", "properties": { "内容": "介護付有料老人ホーム　明和ふれあいガーデン【特定施設入居者生活介護（有料老人ホーム）】栃木県那須烏山市小木須2659-2", "url": "https://www.kaigokensaku.mhlw.go.jp/09/index.php?action_kouhyou_detail_004_kani=true&JigyosyoCd=0971500152-00&ServiceCd=331&Type=search", "url2": "http://www.fureai-garden.com/" }, "geometry": { "type": "Point", "coordinates": [ 140.207919100000026, 36.6315924 ] } }
]
}
