{
"type": "FeatureCollection",
"name": "geo_09_訪問入浴介護",
"crs": { "type": "name", "properties": { "name": "urn:ogc:def:crs:OGC:1.3:CRS84" } },
"features": [
{ "type": "Feature", "properties": { "内容": "訪問入浴介護さわやか（平成３０年度新規指定事業所）【訪問入浴介護】栃木県宇都宮市中岡本町２８２３－４３", "url2": "https://www.kaigokensaku.mhlw.go.jp/09/index.php?action_kouhyou_detail_004_kani=true&JigyosyoCd=0970107884-00&ServiceCd=120&Type=search" }, "geometry": { "type": "Point", "coordinates": [ 139.943204299999934, 36.611686 ] } },
{ "type": "Feature", "properties": { "内容": "株式会社　陽光ヘルプ【訪問入浴介護】栃木県宇都宮市今宮3-7-11", "url2": "https://www.kaigokensaku.mhlw.go.jp/09/index.php?action_kouhyou_detail_004_kani=true&JigyosyoCd=0970100335-00&ServiceCd=120&Type=search" }, "geometry": { "type": "Point", "coordinates": [ 139.864421399999969, 36.5152914 ] } },
{ "type": "Feature", "properties": { "内容": "アースサポート宇都宮【訪問入浴介護】栃木県宇都宮市戸祭三丁目5番3号", "url2": "https://www.kaigokensaku.mhlw.go.jp/09/index.php?action_kouhyou_detail_004_kani=true&JigyosyoCd=0970103008-00&ServiceCd=120&Type=search" }, "geometry": { "type": "Point", "coordinates": [ 139.869316516146881, 36.57385997819209 ] } },
{ "type": "Feature", "properties": { "内容": "ツクイ宇都宮【訪問入浴介護】栃木県宇都宮市鶴田町739-15", "url2": "https://www.kaigokensaku.mhlw.go.jp/09/index.php?action_kouhyou_detail_004_kani=true&JigyosyoCd=0970108353-00&ServiceCd=120&Type=search" }, "geometry": { "type": "Point", "coordinates": [ 139.8564308, 36.555436700000016 ] } },
{ "type": "Feature", "properties": { "内容": "ニチイケアセンター宇都宮【訪問入浴介護】栃木県宇都宮市東簗瀬1-8-3", "url2": "https://www.kaigokensaku.mhlw.go.jp/09/index.php?action_kouhyou_detail_004_kani=true&JigyosyoCd=0970100020-00&ServiceCd=120&Type=search" }, "geometry": { "type": "Point", "coordinates": [ 139.896968500000014, 36.544752900000034 ] } },
{ "type": "Feature", "properties": { "内容": "特別養護老人ホーム　義明苑【訪問入浴介護】栃木県足利市久保田町１２２３番地", "url2": "https://www.kaigokensaku.mhlw.go.jp/09/index.php?action_kouhyou_detail_004_kani=true&JigyosyoCd=0970200218-00&ServiceCd=120&Type=search" }, "geometry": { "type": "Point", "coordinates": [ 139.494951, 36.2956188 ] } },
{ "type": "Feature", "properties": { "内容": "ＳＯＭＰＯケア　足利　訪問入浴【訪問入浴介護】栃木県足利市有楽町841番地3岩崎ビル２階", "url2": "https://www.kaigokensaku.mhlw.go.jp/09/index.php?action_kouhyou_detail_004_kani=true&JigyosyoCd=0970402293-00&ServiceCd=120&Type=search" }, "geometry": { "type": "Point", "coordinates": [ 139.45607678416772, 36.341697538724254 ] } },
{ "type": "Feature", "properties": { "内容": "丸光ケア訪問入浴栃木【訪問入浴介護】栃木県栃木市箱森町50番15号", "url2": "https://www.kaigokensaku.mhlw.go.jp/09/index.php?action_kouhyou_detail_004_kani=true&JigyosyoCd=0970300471-00&ServiceCd=120&Type=search" }, "geometry": { "type": "Point", "coordinates": [ 139.727209943316666, 36.397163605377592 ] } },
{ "type": "Feature", "properties": { "内容": "丸光ケア訪問入浴佐野【訪問入浴介護】佐野市富岡町229番地12号", "url2": "https://www.kaigokensaku.mhlw.go.jp/09/index.php?action_kouhyou_detail_004_kani=true&JigyosyoCd=0970401170-00&ServiceCd=120&Type=search" }, "geometry": { "type": "Point", "coordinates": [ 139.589984400000048, 36.3174742 ] } },
{ "type": "Feature", "properties": { "内容": "アースサポート佐野【訪問入浴介護】栃木県佐野市大橋町3236番地8", "url2": "https://www.kaigokensaku.mhlw.go.jp/09/index.php?action_kouhyou_detail_004_kani=true&JigyosyoCd=0970401501-00&ServiceCd=120&Type=search" }, "geometry": { "type": "Point", "coordinates": [ 139.564558900000065, 36.3111851 ] } },
{ "type": "Feature", "properties": { "内容": "特定非営利活動法人ケアフラッグ幸【訪問入浴介護】葛生東２丁目8番15号", "url2": "https://www.kaigokensaku.mhlw.go.jp/09/index.php?action_kouhyou_detail_004_kani=true&JigyosyoCd=0970402426-00&ServiceCd=120&Type=search" }, "geometry": { "type": "Point", "coordinates": [ 139.612104299336238, 36.40628455862803 ] } },
{ "type": "Feature", "properties": { "内容": "丸光ケア訪問入浴鹿沼【訪問入浴介護】栃木県栃木県鹿沼市千渡1893-1", "url2": "https://www.kaigokensaku.mhlw.go.jp/09/index.php?action_kouhyou_detail_004_kani=true&JigyosyoCd=0970500898-00&ServiceCd=120&Type=search" }, "geometry": { "type": "Point", "coordinates": [ 139.775603626627827, 36.567379075088574 ] } },
{ "type": "Feature", "properties": { "内容": "訪問入浴介護ひかりの里【訪問入浴介護】日光市今市1086-2", "url2": "https://www.kaigokensaku.mhlw.go.jp/09/index.php?action_kouhyou_detail_004_kani=true&JigyosyoCd=0970600193-00&ServiceCd=120&Type=search" }, "geometry": { "type": "Point", "coordinates": [ 139.697792700000036, 36.7248921 ] } },
{ "type": "Feature", "properties": { "内容": "アースサポート小山【訪問入浴介護】栃木県小山市東城南5-3-2", "url2": "https://www.kaigokensaku.mhlw.go.jp/09/index.php?action_kouhyou_detail_004_kani=true&JigyosyoCd=0970801510-00&ServiceCd=120&Type=search" }, "geometry": { "type": "Point", "coordinates": [ 139.8093328, 36.3165468 ] } },
{ "type": "Feature", "properties": { "内容": "ウエルシア介護サービス小山【訪問入浴介護】栃木県小山市城東5丁目2-2海老原ビル1階", "url2": "https://www.kaigokensaku.mhlw.go.jp/09/index.php?action_kouhyou_detail_004_kani=true&JigyosyoCd=0970803227-00&ServiceCd=120&Type=search" }, "geometry": { "type": "Point", "coordinates": [ 139.8188849, 36.3136649 ] } },
{ "type": "Feature", "properties": { "内容": "アスケア訪問入浴　小山【訪問入浴介護】小山市駅東通り一丁目23番地13レジデンスYMM103号室", "url2": "https://www.kaigokensaku.mhlw.go.jp/09/index.php?action_kouhyou_detail_004_kani=true&JigyosyoCd=0970802898-00&ServiceCd=120&Type=search" }, "geometry": { "type": "Point", "coordinates": [ 139.8095592, 36.3099893 ] } },
{ "type": "Feature", "properties": { "内容": "ウエルシア介護サービス真岡【訪問入浴介護】栃木県真岡市亀山1丁目6-2磯貝住宅B号", "url2": "https://www.kaigokensaku.mhlw.go.jp/09/index.php?action_kouhyou_detail_004_kani=true&JigyosyoCd=0970900908-00&ServiceCd=120&Type=search" }, "geometry": { "type": "Point", "coordinates": [ 139.9882445, 36.4489726 ] } },
{ "type": "Feature", "properties": { "内容": "ＳＯＭＰＯケア　大田原　訪問入浴【訪問入浴介護】栃木県大田原市薄葉2206番地2金井倉庫付事務所102号", "url2": "https://www.kaigokensaku.mhlw.go.jp/09/index.php?action_kouhyou_detail_004_kani=true&JigyosyoCd=0971001375-00&ServiceCd=120&Type=search" }, "geometry": { "type": "Point", "coordinates": [ 139.961854200000062, 36.8408554 ] } },
{ "type": "Feature", "properties": { "内容": "アースサポート那須【訪問入浴介護】栃木県那須塩原市西朝日町16番14号", "url2": "https://www.kaigokensaku.mhlw.go.jp/09/index.php?action_kouhyou_detail_004_kani=true&JigyosyoCd=0971300595-00&ServiceCd=120&Type=search" }, "geometry": { "type": "Point", "coordinates": [ 139.9893657, 36.8831234 ] } },
{ "type": "Feature", "properties": { "内容": "なすの訪問入浴介護ステーション【訪問入浴介護】栃木県那須塩原市緑1丁目8番43号坂本事務所1", "url2": "https://www.kaigokensaku.mhlw.go.jp/09/index.php?action_kouhyou_detail_004_kani=true&JigyosyoCd=0971301528-00&ServiceCd=120&Type=search" }, "geometry": { "type": "Point", "coordinates": [ 140.006555244071933, 36.869624466887146 ] } },
{ "type": "Feature", "properties": { "内容": "指定訪問入浴介護センター　グリーンハウスとちぎ【訪問入浴介護】栃木県芳賀郡茂木町茂木63-28", "url2": "https://www.kaigokensaku.mhlw.go.jp/09/index.php?action_kouhyou_detail_004_kani=true&JigyosyoCd=0972700306-00&ServiceCd=120&Type=search" }, "geometry": { "type": "Point", "coordinates": [ 140.19111440000006, 36.5334119 ] } }
]
}
