{
"type": "FeatureCollection",
"name": "geo_09_短期入所生活介護",
"crs": { "type": "name", "properties": { "name": "urn:ogc:def:crs:OGC:1.3:CRS84" } },
"features": [
{ "type": "Feature", "properties": { "内容": "かみこもりやショートステイ【短期入所生活介護】栃木県宇都宮市上籠谷町3566-1", "url": "https://www.kaigokensaku.mhlw.go.jp/09/index.php?action_kouhyou_detail_004_kani=true&JigyosyoCd=0970103917-00&ServiceCd=210&Type=search", "url2": "http://kamikomoriya.or.jp" }, "geometry": { "type": "Point", "coordinates": [ 139.964181199999985, 36.5312814 ] } },
{ "type": "Feature", "properties": { "内容": "特別養護老人ホーム緑の郷ショートステイ【短期入所生活介護】栃木県宇都宮市西刑部町２５４４番地１７５", "url": "https://www.kaigokensaku.mhlw.go.jp/09/index.php?action_kouhyou_detail_004_kani=true&JigyosyoCd=0970105367-00&ServiceCd=210&Type=search", "url2": "http://www.tohseikai.com/" }, "geometry": { "type": "Point", "coordinates": [ 139.926405674729949, 36.513197311489442 ] } },
{ "type": "Feature", "properties": { "内容": "ショートステイふたたびの森【短期入所生活介護】栃木県宇都宮市雀の宮6-5-5", "url": "https://www.kaigokensaku.mhlw.go.jp/09/index.php?action_kouhyou_detail_004_kani=true&JigyosyoCd=0970107298-00&ServiceCd=210&Type=search", "url2": "http://shingenkaimoriiin.wixsite.com/my-site" }, "geometry": { "type": "Point", "coordinates": [ 139.867719399336238, 36.491993156693525 ] } },
{ "type": "Feature", "properties": { "内容": "特別養護老人ホーム　マイホームきよはら【短期入所生活介護】栃木県宇都宮市鐺山町1983番地", "url": "https://www.kaigokensaku.mhlw.go.jp/09/index.php?action_kouhyou_detail_004_kani=true&JigyosyoCd=0970100731-00&ServiceCd=210&Type=search", "url2": "http://www.kiyohara.jp/" }, "geometry": { "type": "Point", "coordinates": [ 139.975888199999986, 36.5387811 ] } },
{ "type": "Feature", "properties": { "内容": "ショートステイ　おおるりの森【短期入所生活介護】栃木県宇都宮市竹下町435番地３４４", "url": "https://www.kaigokensaku.mhlw.go.jp/09/index.php?action_kouhyou_detail_004_kani=true&JigyosyoCd=0970105797-00&ServiceCd=210&Type=search", "url2": "http://www.koukyukai.or.jp" }, "geometry": { "type": "Point", "coordinates": [ 139.965019100000063, 36.551138 ] } },
{ "type": "Feature", "properties": { "内容": "さわやかすずめのみや【短期入所生活介護】若松原2-18-26さわやかすずめのみや", "url": "https://www.kaigokensaku.mhlw.go.jp/09/index.php?action_kouhyou_detail_004_kani=true&JigyosyoCd=0970105953-00&ServiceCd=210&Type=search", "url2": "http://www.sawayakaclub.jp" }, "geometry": { "type": "Point", "coordinates": [ 139.8680746, 36.4984794 ] } },
{ "type": "Feature", "properties": { "内容": "西川田ケアセンターそよ風【短期入所生活介護】西川田本町一丁目5番1号", "url": "https://www.kaigokensaku.mhlw.go.jp/09/index.php?action_kouhyou_detail_004_kani=true&JigyosyoCd=0970106571-00&ServiceCd=210&Type=search", "url2": "htt://corp.sykz.co.jp/" }, "geometry": { "type": "Point", "coordinates": [ 139.847091556344594, 36.518531830669005 ] } },
{ "type": "Feature", "properties": { "内容": "宇都宮ケアセンターそよ風【短期入所生活介護】栃木県宇都宮市西3丁目1-26", "url": "https://www.kaigokensaku.mhlw.go.jp/09/index.php?action_kouhyou_detail_004_kani=true&JigyosyoCd=0970108460-00&ServiceCd=210&Type=search", "url2": "http://sykz.co.jp/" }, "geometry": { "type": "Point", "coordinates": [ 139.878661481614671, 36.556020199734952 ] } },
{ "type": "Feature", "properties": { "内容": "ショートステイ　元氣の家【短期入所生活介護】栃木県宇都宮市幕田町1458‐1", "url": "https://www.kaigokensaku.mhlw.go.jp/09/index.php?action_kouhyou_detail_004_kani=true&JigyosyoCd=0970105359-00&ServiceCd=210&Type=search", "url2": "https://nantokai.com/011-2/" }, "geometry": { "type": "Point", "coordinates": [ 139.8513924, 36.4961852 ] } },
{ "type": "Feature", "properties": { "内容": "短期入所生活介護　宮の里かわだ【短期入所生活介護】栃木県宇都宮市川田町1077-2", "url": "https://www.kaigokensaku.mhlw.go.jp/09/index.php?action_kouhyou_detail_004_kani=true&JigyosyoCd=0970105433-00&ServiceCd=210&Type=search", "url2": "http://www.miyanosato.net" }, "geometry": { "type": "Point", "coordinates": [ 139.8872407, 36.5382173 ] } },
{ "type": "Feature", "properties": { "内容": "特別養護老人ホーム　滝の原苑【短期入所生活介護】栃木県宇都宮市鶴田町３３８１番地", "url": "https://www.kaigokensaku.mhlw.go.jp/09/index.php?action_kouhyou_detail_004_kani=true&JigyosyoCd=0970100400-00&ServiceCd=210&Type=search", "url2": "http://care-net.biz/09/saijinkai/" }, "geometry": { "type": "Point", "coordinates": [ 139.861831973016336, 36.544485756438526 ] } },
{ "type": "Feature", "properties": { "内容": "特別養護老人ホーム　はりがや【短期入所生活介護】栃木県宇都宮市針ヶ谷町６５５", "url": "https://www.kaigokensaku.mhlw.go.jp/09/index.php?action_kouhyou_detail_004_kani=true&JigyosyoCd=0970100509-00&ServiceCd=210&Type=search", "url2": "http://www.fukushi-asahikai.or.jp" }, "geometry": { "type": "Point", "coordinates": [ 139.851800899999944, 36.4897915 ] } },
{ "type": "Feature", "properties": { "内容": "宝寿苑ショートステイ【短期入所生活介護】栃木県宇都宮市宝木本町１７６８番地", "url": "https://www.kaigokensaku.mhlw.go.jp/09/index.php?action_kouhyou_detail_004_kani=true&JigyosyoCd=0970100616-00&ServiceCd=210&Type=search", "url2": "http://www.seikeikai.jp" }, "geometry": { "type": "Point", "coordinates": [ 139.835202699999968, 36.6082274 ] } },
{ "type": "Feature", "properties": { "内容": "飯田福祉会高砂荘　(特別養護老人ホーム高砂荘）【短期入所生活介護】栃木県宇都宮市平出町1510-1", "url": "https://www.kaigokensaku.mhlw.go.jp/09/index.php?action_kouhyou_detail_004_kani=true&JigyosyoCd=0970100624-00&ServiceCd=210&Type=search", "url2": "http://iida-f.jp/" }, "geometry": { "type": "Point", "coordinates": [ 139.945086, 36.5783208 ] } },
{ "type": "Feature", "properties": { "内容": "特別養護老人ホームとちの木荘【短期入所生活介護】栃木県宇都宮市徳次郎町2479-1", "url": "https://www.kaigokensaku.mhlw.go.jp/09/index.php?action_kouhyou_detail_004_kani=true&JigyosyoCd=0970100699-00&ServiceCd=210&Type=search", "url2": "http://tochisaikou.com/" }, "geometry": { "type": "Point", "coordinates": [ 139.840545, 36.658257900000017 ] } },
{ "type": "Feature", "properties": { "内容": "特別養護老人ホーム敬祥苑【短期入所生活介護】栃木県宇都宮市宝木本町２１４１番地", "url": "https://www.kaigokensaku.mhlw.go.jp/09/index.php?action_kouhyou_detail_004_kani=true&JigyosyoCd=0970100723-00&ServiceCd=210&Type=search", "url2": "http://numaog.or.jp/" }, "geometry": { "type": "Point", "coordinates": [ 139.843198600000051, 36.6296692 ] } },
{ "type": "Feature", "properties": { "内容": "特別養護老人ホーム　ケアプラザ而今【短期入所生活介護】栃木県宇都宮市砥上町５４－１", "url": "https://www.kaigokensaku.mhlw.go.jp/09/index.php?action_kouhyou_detail_004_kani=true&JigyosyoCd=0970100780-00&ServiceCd=210&Type=search", "url2": "http://ｗｗｗ.ｈｏａｉｋａｉ.ｏｒ.ｊｐ" }, "geometry": { "type": "Point", "coordinates": [ 139.845296599999983, 36.544146 ] } },
{ "type": "Feature", "properties": { "内容": "特別養護老人ホーム　梅の里【短期入所生活介護】宇都宮市南一の沢町2番23号", "url": "https://www.kaigokensaku.mhlw.go.jp/09/index.php?action_kouhyou_detail_004_kani=true&JigyosyoCd=0970101150-00&ServiceCd=210&Type=search", "url2": "http://www.umenosato.jp/" }, "geometry": { "type": "Point", "coordinates": [ 139.863605399999983, 36.5634802 ] } },
{ "type": "Feature", "properties": { "内容": "特別養護老人ホームとよさと【短期入所生活介護】栃木県宇都宮市川俣町897-8", "url": "https://www.kaigokensaku.mhlw.go.jp/09/index.php?action_kouhyou_detail_004_kani=true&JigyosyoCd=0970102265-00&ServiceCd=210&Type=search", "url2": "https://www.toyosato-g.or.jp/" }, "geometry": { "type": "Point", "coordinates": [ 139.90392769999994, 36.5988254 ] } },
{ "type": "Feature", "properties": { "内容": "ふれんどショートステイ富士見が丘【短期入所生活介護】栃木県宇都宮市富士見が丘１－１４－１０", "url": "https://www.kaigokensaku.mhlw.go.jp/09/index.php?action_kouhyou_detail_004_kani=true&JigyosyoCd=0970104568-00&ServiceCd=210&Type=search", "url2": "http://www.f-pw.jp" }, "geometry": { "type": "Point", "coordinates": [ 139.884130699999986, 36.5848037 ] } },
{ "type": "Feature", "properties": { "内容": "特別養護老人ホームはりがや実梨の丘【短期入所生活介護】栃木県宇都宮市針ヶ谷町1001番地1", "url": "https://www.kaigokensaku.mhlw.go.jp/09/index.php?action_kouhyou_detail_004_kani=true&JigyosyoCd=0970105425-00&ServiceCd=210&Type=search", "url2": "http://www.fukusi-asahikai.co.jp" }, "geometry": { "type": "Point", "coordinates": [ 139.849609399999963, 36.4897248 ] } },
{ "type": "Feature", "properties": { "内容": "ショートステイふくろうの杜【短期入所生活介護】栃木県宇都宮市逆面町３８５－１", "url": "https://www.kaigokensaku.mhlw.go.jp/09/index.php?action_kouhyou_detail_004_kani=true&JigyosyoCd=0970105805-00&ServiceCd=210&Type=search", "url2": "http://www.fukurou-mori.jp/" }, "geometry": { "type": "Point", "coordinates": [ 139.90242020384369, 36.65459615609813 ] } },
{ "type": "Feature", "properties": { "内容": "老人短期入所事業　ころぼっくる【短期入所生活介護】栃木県宇都宮市岩曽町１３１０番地１", "url": "https://www.kaigokensaku.mhlw.go.jp/09/index.php?action_kouhyou_detail_004_kani=true&JigyosyoCd=0970105821-00&ServiceCd=210&Type=search", "url2": "http://www.kouseikai-flora.or.jp/" }, "geometry": { "type": "Point", "coordinates": [ 139.910000099999934, 36.5832162 ] } },
{ "type": "Feature", "properties": { "内容": "鶴田ショートステイひばりヶ丘【短期入所生活介護】栃木県宇都宮市鶴田町988-1", "url": "https://www.kaigokensaku.mhlw.go.jp/09/index.php?action_kouhyou_detail_004_kani=true&JigyosyoCd=0970105839-00&ServiceCd=210&Type=search", "url2": "htttp://oac-kikaku.com/" }, "geometry": { "type": "Point", "coordinates": [ 139.855362, 36.5541228 ] } },
{ "type": "Feature", "properties": { "内容": "老人短期入所　はりがや花の風【短期入所生活介護】栃木県宇都宮市針ヶ谷町６４６番地", "url": "https://www.kaigokensaku.mhlw.go.jp/09/index.php?action_kouhyou_detail_004_kani=true&JigyosyoCd=0970106597-00&ServiceCd=210&Type=search", "url2": "http://www.fukushi-asahikai.or.jp" }, "geometry": { "type": "Point", "coordinates": [ 139.857517199999961, 36.4873335 ] } },
{ "type": "Feature", "properties": { "内容": "短期入所施設なつぼ【短期入所生活介護】栃木県宇都宮市中岡本町3720-67", "url": "https://www.kaigokensaku.mhlw.go.jp/09/index.php?action_kouhyou_detail_004_kani=true&JigyosyoCd=0970107587-00&ServiceCd=210&Type=search", "url2": null }, "geometry": { "type": "Point", "coordinates": [ 139.934131158335902, 36.609898337397858 ] } },
{ "type": "Feature", "properties": { "内容": "特別養護老人ホーム　祥豊苑【短期入所生活介護】栃木県宇都宮市宮山田町９１５番地", "url": "https://www.kaigokensaku.mhlw.go.jp/09/index.php?action_kouhyou_detail_004_kani=true&JigyosyoCd=0972100069-00&ServiceCd=210&Type=search", "url2": null }, "geometry": { "type": "Point", "coordinates": [ 139.84785050000005, 36.7124204 ] } },
{ "type": "Feature", "properties": { "内容": "さくらがおかケアセンター氷室【短期入所生活介護】栃木県宇都宮市氷室町1014-1", "url": "https://www.kaigokensaku.mhlw.go.jp/09/index.php?action_kouhyou_detail_004_kani=true&JigyosyoCd=0970103305-00&ServiceCd=210&Type=search", "url2": null }, "geometry": { "type": "Point", "coordinates": [ 140.00098, 36.540515 ] } },
{ "type": "Feature", "properties": { "内容": "あずみ苑宇都宮南【短期入所生活介護】兵庫塚町281-1", "url": "https://www.kaigokensaku.mhlw.go.jp/09/index.php?action_kouhyou_detail_004_kani=true&JigyosyoCd=0970107603-00&ServiceCd=210&Type=search", "url2": "http://www.azumien.jp/search/utsunomiyaminami/" }, "geometry": { "type": "Point", "coordinates": [ 139.859611099999938, 36.5024762 ] } },
{ "type": "Feature", "properties": { "内容": "社会福祉法人　梨一会　豊幸の郷石井【短期入所生活介護】栃木県宇都宮市石井町2580-1", "url": "https://www.kaigokensaku.mhlw.go.jp/09/index.php?action_kouhyou_detail_004_kani=true&JigyosyoCd=0970100681-00&ServiceCd=210&Type=search", "url2": "http://www.houkounosatoishii.com/" }, "geometry": { "type": "Point", "coordinates": [ 139.939146700000038, 36.5443184 ] } },
{ "type": "Feature", "properties": { "内容": "老人短期入所　はりがや夢希の杜【短期入所生活介護】栃木県宇都宮市針ヶ谷町654番地", "url": "https://www.kaigokensaku.mhlw.go.jp/09/index.php?action_kouhyou_detail_004_kani=true&JigyosyoCd=0970107470-00&ServiceCd=210&Type=search", "url2": "http://www.fukushi-asahikai.or.jp" }, "geometry": { "type": "Point", "coordinates": [ 139.851675900000032, 36.4900665 ] } },
{ "type": "Feature", "properties": { "内容": "特別養護老人ホーム　清明苑【短期入所生活介護】栃木県足利市大月町１０４２－２", "url": "https://www.kaigokensaku.mhlw.go.jp/09/index.php?action_kouhyou_detail_004_kani=true&JigyosyoCd=0970200077-00&ServiceCd=210&Type=search", "url2": "http://seimeien.or.jp" }, "geometry": { "type": "Point", "coordinates": [ 139.475557400000071, 36.349804 ] } },
{ "type": "Feature", "properties": { "内容": "ショートステイ　陽のあたる場所【短期入所生活介護】栃木県足利市今福町４７１－１０", "url": "https://www.kaigokensaku.mhlw.go.jp/09/index.php?action_kouhyou_detail_004_kani=true&JigyosyoCd=0970202693-00&ServiceCd=210&Type=search", "url2": null }, "geometry": { "type": "Point", "coordinates": [ 139.431930393917838, 36.335972293235834 ] } },
{ "type": "Feature", "properties": { "内容": "特別養護老人ホームあしかが西の杜【短期入所生活介護】栃木県足利市山下町2422番地１", "url": "https://www.kaigokensaku.mhlw.go.jp/09/index.php?action_kouhyou_detail_004_kani=true&JigyosyoCd=0970203444-00&ServiceCd=210&Type=search", "url2": null }, "geometry": { "type": "Point", "coordinates": [ 139.416116399999964, 36.3499282 ] } },
{ "type": "Feature", "properties": { "内容": "あがたの宿【短期入所生活介護】栃木県足利市県町１１３７番地", "url": "https://www.kaigokensaku.mhlw.go.jp/09/index.php?action_kouhyou_detail_004_kani=true&JigyosyoCd=0970202503-00&ServiceCd=210&Type=search", "url2": "info@kaigo-tmk.com" }, "geometry": { "type": "Point", "coordinates": [ 139.464027879623472, 36.283174793288005 ] } },
{ "type": "Feature", "properties": { "内容": "特別養護老人ホームプロムナードひこや【短期入所生活介護】栃木県足利市葉鹿町２０１９－１", "url": "https://www.kaigokensaku.mhlw.go.jp/09/index.php?action_kouhyou_detail_004_kani=true&JigyosyoCd=0970200168-00&ServiceCd=210&Type=search", "url2": null }, "geometry": { "type": "Point", "coordinates": [ 139.385179699999981, 36.3742186 ] } },
{ "type": "Feature", "properties": { "内容": "高齢者複合施設　みのりの里・田島【短期入所生活介護】栃木県足利市田島町１９５９番地１", "url": "https://www.kaigokensaku.mhlw.go.jp/09/index.php?action_kouhyou_detail_004_kani=true&JigyosyoCd=0970201711-00&ServiceCd=210&Type=search", "url2": "http://seimeien.or.jp" }, "geometry": { "type": "Point", "coordinates": [ 139.465283, 36.3647968 ] } },
{ "type": "Feature", "properties": { "内容": "特別養護老人ホーム　義明苑【短期入所生活介護】栃木県足利市久保田町１２２３番地", "url": "https://www.kaigokensaku.mhlw.go.jp/09/index.php?action_kouhyou_detail_004_kani=true&JigyosyoCd=0970200218-00&ServiceCd=210&Type=search", "url2": "https://www.mimeikai.com/" }, "geometry": { "type": "Point", "coordinates": [ 139.494951, 36.2956188 ] } },
{ "type": "Feature", "properties": { "内容": "麗日荘ショートステイサービス【短期入所生活介護】栃木県足利市田中町100", "url": "https://www.kaigokensaku.mhlw.go.jp/09/index.php?action_kouhyou_detail_004_kani=true&JigyosyoCd=0970200291-00&ServiceCd=210&Type=search", "url2": "https://reijitsusou.com" }, "geometry": { "type": "Point", "coordinates": [ 139.4511708, 36.3243695 ] } },
{ "type": "Feature", "properties": { "内容": "特別養護老人ホームたんぽぽ【短期入所生活介護】栃木県足利市通5丁目3435番地3", "url": "https://www.kaigokensaku.mhlw.go.jp/09/index.php?action_kouhyou_detail_004_kani=true&JigyosyoCd=0970200697-00&ServiceCd=210&Type=search", "url2": "http://www.tanpopo-net.or.jp" }, "geometry": { "type": "Point", "coordinates": [ 139.442088199999944, 36.3360125 ] } },
{ "type": "Feature", "properties": { "内容": "特別養護老人ホーム義明苑　ショートステイ相生【短期入所生活介護】栃木県足利市大橋町２丁目１８１０番地６", "url": "https://www.kaigokensaku.mhlw.go.jp/09/index.php?action_kouhyou_detail_004_kani=true&JigyosyoCd=0970201117-00&ServiceCd=210&Type=search", "url2": "https://www.mimeikai.com/" }, "geometry": { "type": "Point", "coordinates": [ 139.462452900000017, 36.3357687 ] } },
{ "type": "Feature", "properties": { "内容": "特別養護老人ホームこはく苑【短期入所生活介護】栃木県足利市堀込町２００６番地1", "url": "https://www.kaigokensaku.mhlw.go.jp/09/index.php?action_kouhyou_detail_004_kani=true&JigyosyoCd=0970201554-00&ServiceCd=210&Type=search", "url2": "http://5890.jp" }, "geometry": { "type": "Point", "coordinates": [ 139.437225300000023, 36.3078265 ] } },
{ "type": "Feature", "properties": { "内容": "特別養護老人ホーム　青空【短期入所生活介護】栃木県足利市島田町８０１", "url": "https://www.kaigokensaku.mhlw.go.jp/09/index.php?action_kouhyou_detail_004_kani=true&JigyosyoCd=0970201703-00&ServiceCd=210&Type=search", "url2": "http://www.mutumikai.ecnet.jp" }, "geometry": { "type": "Point", "coordinates": [ 139.449740900000052, 36.304313 ] } },
{ "type": "Feature", "properties": { "内容": "特別養護老人ホームまごころ【短期入所生活介護】栃木県足利市本城１丁目１４８０番地６", "url": "https://www.kaigokensaku.mhlw.go.jp/09/index.php?action_kouhyou_detail_004_kani=true&JigyosyoCd=0970201752-00&ServiceCd=210&Type=search", "url2": "http://magokoro-kaigo.com/" }, "geometry": { "type": "Point", "coordinates": [ 139.4560533, 36.3476147 ] } },
{ "type": "Feature", "properties": { "内容": "特別養護老人ホーム　みどりの丘・大月【短期入所生活介護】栃木県足利市大月町545番地25", "url": "https://www.kaigokensaku.mhlw.go.jp/09/index.php?action_kouhyou_detail_004_kani=true&JigyosyoCd=0970202313-00&ServiceCd=210&Type=search", "url2": "http://seimeien.or.jp" }, "geometry": { "type": "Point", "coordinates": [ 139.4811654, 36.3469322 ] } },
{ "type": "Feature", "properties": { "内容": "四季舎【短期入所生活介護】栃木県足利市伊勢町二丁目10番地23", "url": "https://www.kaigokensaku.mhlw.go.jp/09/index.php?action_kouhyou_detail_004_kani=true&JigyosyoCd=0970202925-00&ServiceCd=210&Type=search", "url2": "https://www.ikiiki-mifuku.jp/" }, "geometry": { "type": "Point", "coordinates": [ 139.460304800000017, 36.3328999 ] } },
{ "type": "Feature", "properties": { "内容": "葵の園・足利　短期入所生活介護【短期入所生活介護】栃木県足利市常見町二丁目１０－１", "url": "https://www.kaigokensaku.mhlw.go.jp/09/index.php?action_kouhyou_detail_004_kani=true&JigyosyoCd=0970202974-00&ServiceCd=210&Type=search", "url2": "http://www.aoikai.jp/" }, "geometry": { "type": "Point", "coordinates": [ 139.486170899999934, 36.3182243 ] } },
{ "type": "Feature", "properties": { "内容": "地域密着型特別養護老人ホーム　義明苑ふくとみ【短期入所生活介護】栃木県足利市福富町1688", "url": "https://www.kaigokensaku.mhlw.go.jp/09/index.php?action_kouhyou_detail_004_kani=true&JigyosyoCd=0970203261-00&ServiceCd=210&Type=search", "url2": "https://www.mimeikai.com/" }, "geometry": { "type": "Point", "coordinates": [ 139.471088235616691, 36.31386157422353 ] } },
{ "type": "Feature", "properties": { "内容": "四季の華【短期入所生活介護】栃木県足利市新山町１－１", "url": "https://www.kaigokensaku.mhlw.go.jp/09/index.php?action_kouhyou_detail_004_kani=true&JigyosyoCd=0970203469-00&ServiceCd=210&Type=search", "url2": "https://www.ikiiki-mifuku.jp" }, "geometry": { "type": "Point", "coordinates": [ 139.4662443, 36.348048399999982 ] } },
{ "type": "Feature", "properties": { "内容": "特別養護老人ホーム　義明苑いなほ【短期入所生活介護】栃木県足利市久保田町1214-1", "url": "https://www.kaigokensaku.mhlw.go.jp/09/index.php?action_kouhyou_detail_004_kani=true&JigyosyoCd=0970203550-00&ServiceCd=210&Type=search", "url2": "https://www.mimeikai.com/" }, "geometry": { "type": "Point", "coordinates": [ 139.49460874972209, 36.295021245701193 ] } },
{ "type": "Feature", "properties": { "内容": "特別養護老人ホーム和見山苑【短期入所生活介護】栃木県足利市稲岡町１０８３－１", "url": "https://www.kaigokensaku.mhlw.go.jp/09/index.php?action_kouhyou_detail_004_kani=true&JigyosyoCd=0970200200-00&ServiceCd=210&Type=search", "url2": "http://wamiyama.jp/" }, "geometry": { "type": "Point", "coordinates": [ 139.532643600000029, 36.3342877 ] } },
{ "type": "Feature", "properties": { "内容": "湯の里長寿苑ショートステイサービスセンター【短期入所生活介護】栃木県足利市大沼田町2163番地1", "url": "https://www.kaigokensaku.mhlw.go.jp/09/index.php?action_kouhyou_detail_004_kani=true&JigyosyoCd=0970200838-00&ServiceCd=210&Type=search", "url2": "https://yunosato2003.com/" }, "geometry": { "type": "Point", "coordinates": [ 139.492667500000039, 36.3352003 ] } },
{ "type": "Feature", "properties": { "内容": "八木宿ショートスティ【短期入所生活介護】栃木県足利市福居町１８０番地１平屋建て", "url": "https://www.kaigokensaku.mhlw.go.jp/09/index.php?action_kouhyou_detail_004_kani=true&JigyosyoCd=0970201588-00&ServiceCd=210&Type=search", "url2": "https://kaigo-tmk.com/yagijuku.php" }, "geometry": { "type": "Point", "coordinates": [ 139.44698829999993, 36.3070461 ] } },
{ "type": "Feature", "properties": { "内容": "ショートステイほほえみ【短期入所生活介護】栃木県足利市小俣町１５６２特別養護老人ホームほほえみ", "url": "https://www.kaigokensaku.mhlw.go.jp/09/index.php?action_kouhyou_detail_004_kani=true&JigyosyoCd=0970202933-00&ServiceCd=210&Type=search", "url2": "http://sanyukai-hohoemi.or.jp/" }, "geometry": { "type": "Point", "coordinates": [ 139.373330399999986, 36.3748991 ] } },
{ "type": "Feature", "properties": { "内容": "盛雄苑ショートステイサービスセンター【短期入所生活介護】栃木県足利市山下町2753番地の1", "url": "https://www.kaigokensaku.mhlw.go.jp/09/index.php?action_kouhyou_detail_004_kani=true&JigyosyoCd=0970200341-00&ServiceCd=210&Type=search", "url2": "http://www.koubaikai.jp" }, "geometry": { "type": "Point", "coordinates": [ 139.409877899999969, 36.3596873 ] } },
{ "type": "Feature", "properties": { "内容": "足利ケアセンターそよ風【短期入所生活介護】栃木県足利市山川町1078-2", "url": "https://www.kaigokensaku.mhlw.go.jp/09/index.php?action_kouhyou_detail_004_kani=true&JigyosyoCd=0970201828-00&ServiceCd=210&Type=search", "url2": "http://www.unimat-soyokaze.co.jp/" }, "geometry": { "type": "Point", "coordinates": [ 139.478420110203587, 36.327726464156889 ] } },
{ "type": "Feature", "properties": { "内容": "あずみ苑栃木大町【短期入所生活介護】栃木県栃木市大町25-27", "url": "https://www.kaigokensaku.mhlw.go.jp/09/index.php?action_kouhyou_detail_004_kani=true&JigyosyoCd=0970302360-00&ServiceCd=210&Type=search", "url2": "https://www.azumien.jp/search/tochigidaicho/" }, "geometry": { "type": "Point", "coordinates": [ 139.7348263, 36.396287 ] } },
{ "type": "Feature", "properties": { "内容": "短期入所生活介護事業所雅の風【短期入所生活介護】栃木県栃木市西方町金崎４０３－１", "url": "https://www.kaigokensaku.mhlw.go.jp/09/index.php?action_kouhyou_detail_004_kani=true&JigyosyoCd=0972200133-00&ServiceCd=210&Type=search", "url2": "http://miyabinokaze.com" }, "geometry": { "type": "Point", "coordinates": [ 139.74518230000001, 36.4691706 ] } },
{ "type": "Feature", "properties": { "内容": "栃木ケアセンターそよ風【短期入所生活介護】栃木県栃木市沼和田町9-27", "url": "https://www.kaigokensaku.mhlw.go.jp/09/index.php?action_kouhyou_detail_004_kani=true&JigyosyoCd=0970300398-00&ServiceCd=210&Type=search", "url2": "http://www.sykz.co.jp/" }, "geometry": { "type": "Point", "coordinates": [ 139.729558, 36.3693327 ] } },
{ "type": "Feature", "properties": { "内容": "特別養護老人ホームみつみねの郷【短期入所生活介護】栃木県栃木市梅沢町９７０番地", "url": "https://www.kaigokensaku.mhlw.go.jp/09/index.php?action_kouhyou_detail_004_kani=true&JigyosyoCd=0970300810-00&ServiceCd=210&Type=search", "url2": "https://suginamikikai-tochigi.com/" }, "geometry": { "type": "Point", "coordinates": [ 139.650783100000012, 36.4421321 ] } },
{ "type": "Feature", "properties": { "内容": "短期入所生活介護事業所　蔵の街ひまわり【短期入所生活介護】栃木県　栃木市　城内町　2丁目　17番　23号", "url": "https://www.kaigokensaku.mhlw.go.jp/09/index.php?action_kouhyou_detail_004_kani=true&JigyosyoCd=0970301651-00&ServiceCd=210&Type=search", "url2": "http://tochigi-himawari.jp/jounai/snh.html" }, "geometry": { "type": "Point", "coordinates": [ 139.752132969975264, 36.370937983060998 ] } },
{ "type": "Feature", "properties": { "内容": "特別養護老人ホーム緑風苑【短期入所生活介護】栃木県栃木市藤岡町中根355-2", "url": "https://www.kaigokensaku.mhlw.go.jp/09/index.php?action_kouhyou_detail_004_kani=true&JigyosyoCd=0972300313-00&ServiceCd=210&Type=search", "url2": "http://www.ryokufuen.or.jp/" }, "geometry": { "type": "Point", "coordinates": [ 139.689060360747931, 36.284578869154473 ] } },
{ "type": "Feature", "properties": { "内容": "社会福祉法人スイートホームひまわり【短期入所生活介護】栃木県栃木市都賀町原宿１４２４－１", "url": "https://www.kaigokensaku.mhlw.go.jp/09/index.php?action_kouhyou_detail_004_kani=true&JigyosyoCd=0972300628-00&ServiceCd=210&Type=search", "url2": "http://www.tochigi-himawari.jp" }, "geometry": { "type": "Point", "coordinates": [ 139.729190300000027, 36.4381208 ] } },
{ "type": "Feature", "properties": { "内容": "特別養護老人ホーム　レユーナ【短期入所生活介護】栃木県栃木市箱森町１－１４", "url": "https://www.kaigokensaku.mhlw.go.jp/09/index.php?action_kouhyou_detail_004_kani=true&JigyosyoCd=0970300042-00&ServiceCd=210&Type=search", "url2": "http://www.reyuna.com" }, "geometry": { "type": "Point", "coordinates": [ 139.727499888360626, 36.385001795195215 ] } },
{ "type": "Feature", "properties": { "内容": "特別養護老人ホームうづま荘【短期入所生活介護】栃木県栃木市川原田町1612", "url": "https://www.kaigokensaku.mhlw.go.jp/09/index.php?action_kouhyou_detail_004_kani=true&JigyosyoCd=0970300174-00&ServiceCd=210&Type=search", "url2": "http://www.cc9.ne.jp/~koseikai/" }, "geometry": { "type": "Point", "coordinates": [ 139.738370900000064, 36.4069054 ] } },
{ "type": "Feature", "properties": { "内容": "短期入所生活介護事業所　まろにえ四季の里【短期入所生活介護】栃木県栃木市大宮町2023-3", "url": "https://www.kaigokensaku.mhlw.go.jp/09/index.php?action_kouhyou_detail_004_kani=true&JigyosyoCd=0970300620-00&ServiceCd=210&Type=search", "url2": "http://souwakai.or.jp" }, "geometry": { "type": "Point", "coordinates": [ 139.756347900000037, 36.3926993 ] } },
{ "type": "Feature", "properties": { "内容": "特別養護老人ホーム　咲くら館【短期入所生活介護】栃木県栃木市大平町下皆川916番地", "url": "https://www.kaigokensaku.mhlw.go.jp/09/index.php?action_kouhyou_detail_004_kani=true&JigyosyoCd=0970301735-00&ServiceCd=210&Type=search", "url2": null }, "geometry": { "type": "Point", "coordinates": [ 139.715112269480869, 36.359632901905741 ] } },
{ "type": "Feature", "properties": { "内容": "みすぎの郷【短期入所生活介護】栃木県栃木市岩舟町小野寺1500番地", "url": "https://www.kaigokensaku.mhlw.go.jp/09/index.php?action_kouhyou_detail_004_kani=true&JigyosyoCd=0970301784-00&ServiceCd=210&Type=search", "url2": "http://www.suginokokai.or.jp/misugi/index.html" }, "geometry": { "type": "Point", "coordinates": [ 139.625650767598017, 36.360811713924683 ] } },
{ "type": "Feature", "properties": { "内容": "ハーモネートショートステイ大平【短期入所生活介護】栃木県栃木市大平町富田５－２３１", "url": "https://www.kaigokensaku.mhlw.go.jp/09/index.php?action_kouhyou_detail_004_kani=true&JigyosyoCd=0970302006-00&ServiceCd=210&Type=search", "url2": "http://www.halp.co.jp/" }, "geometry": { "type": "Point", "coordinates": [ 139.704081652253763, 36.336310796074386 ] } },
{ "type": "Feature", "properties": { "内容": "特別養護老人ホームかたやなぎショートステイ【短期入所生活介護】栃木県栃木市片柳町4-14-43-18", "url": "https://www.kaigokensaku.mhlw.go.jp/09/index.php?action_kouhyou_detail_004_kani=true&JigyosyoCd=0970302089-00&ServiceCd=210&Type=search", "url2": "http://fureai-coop.com/" }, "geometry": { "type": "Point", "coordinates": [ 139.714304216671707, 36.369039751152535 ] } },
{ "type": "Feature", "properties": { "内容": "短期入所生活介護事業所たいようの家【短期入所生活介護】栃木県栃木市平井町122番地8", "url": "https://www.kaigokensaku.mhlw.go.jp/09/index.php?action_kouhyou_detail_004_kani=true&JigyosyoCd=0970302188-00&ServiceCd=210&Type=search", "url2": "info@taiyounoie-tochigi.jp" }, "geometry": { "type": "Point", "coordinates": [ 139.708701057008398, 36.370950132040043 ] } },
{ "type": "Feature", "properties": { "内容": "特別養護老人ホーム清松園【短期入所生活介護】栃木県栃木市岩舟町大字和泉８１６", "url": "https://www.kaigokensaku.mhlw.go.jp/09/index.php?action_kouhyou_detail_004_kani=true&JigyosyoCd=0972300172-00&ServiceCd=210&Type=search", "url2": "http://seisho.s-y.gr.com/" }, "geometry": { "type": "Point", "coordinates": [ 139.671775900000057, 36.3239173 ] } },
{ "type": "Feature", "properties": { "内容": "在宅老人ショートステイ幸寿苑【短期入所生活介護】栃木県栃木市大平町上高島774", "url": "https://www.kaigokensaku.mhlw.go.jp/09/index.php?action_kouhyou_detail_004_kani=true&JigyosyoCd=0972300453-00&ServiceCd=210&Type=search", "url2": "http://www.tochigi-toufuukai.com" }, "geometry": { "type": "Point", "coordinates": [ 139.732416100000023, 36.347429 ] } },
{ "type": "Feature", "properties": { "内容": "特別養護老人ホーム　かがやき【短期入所生活介護】栃木県栃木市岩舟町静戸９７０番地１", "url": "https://www.kaigokensaku.mhlw.go.jp/09/index.php?action_kouhyou_detail_004_kani=true&JigyosyoCd=0972300974-00&ServiceCd=210&Type=search", "url2": "kagayaki.s-y.gr.com" }, "geometry": { "type": "Point", "coordinates": [ 139.699001299999964, 36.3158771 ] } },
{ "type": "Feature", "properties": { "内容": "代　官　荘【短期入所生活介護】栃木県栃木市田村町928", "url": "https://www.kaigokensaku.mhlw.go.jp/09/index.php?action_kouhyou_detail_004_kani=true&JigyosyoCd=0970300125-00&ServiceCd=210&Type=search", "url2": "http://www.sfk.or.jp/" }, "geometry": { "type": "Point", "coordinates": [ 139.78337369999997, 36.3931864 ] } },
{ "type": "Feature", "properties": { "内容": "特別養護老人ホームみながわ桜園【短期入所生活介護】栃木県栃木市皆川城内町５２０番地", "url": "https://www.kaigokensaku.mhlw.go.jp/09/index.php?action_kouhyou_detail_004_kani=true&JigyosyoCd=0970301123-00&ServiceCd=210&Type=search", "url2": "http://minagawa-sakura.com/" }, "geometry": { "type": "Point", "coordinates": [ 139.6895442, 36.397724500000017 ] } },
{ "type": "Feature", "properties": { "内容": "ショートステイ常若の杜みながわ【短期入所生活介護】皆川城内町1771-1", "url": "https://www.kaigokensaku.mhlw.go.jp/09/index.php?action_kouhyou_detail_004_kani=true&JigyosyoCd=0970302030-00&ServiceCd=210&Type=search", "url2": "https://taishinokai.or.jp/" }, "geometry": { "type": "Point", "coordinates": [ 139.682124499999958, 36.3915851 ] } },
{ "type": "Feature", "properties": { "内容": "特別養護老人ホーム　丹頂【短期入所生活介護】栃木県佐野市栃本町３２５５", "url": "https://www.kaigokensaku.mhlw.go.jp/09/index.php?action_kouhyou_detail_004_kani=true&JigyosyoCd=0970400792-00&ServiceCd=210&Type=search", "url2": null }, "geometry": { "type": "Point", "coordinates": [ 139.584230899999966, 36.3465739 ] } },
{ "type": "Feature", "properties": { "内容": "明水の里【短期入所生活介護】栃木県佐野市石塚町1018番地", "url": "https://www.kaigokensaku.mhlw.go.jp/09/index.php?action_kouhyou_detail_004_kani=true&JigyosyoCd=0970401576-00&ServiceCd=210&Type=search", "url2": "http://himawari-kai.com/" }, "geometry": { "type": "Point", "coordinates": [ 139.550955400000021, 36.3499503 ] } },
{ "type": "Feature", "properties": { "内容": "さわやかさの館【短期入所生活介護】栃木県佐野市堀米町3261-1", "url": "https://www.kaigokensaku.mhlw.go.jp/09/index.php?action_kouhyou_detail_004_kani=true&JigyosyoCd=0970402079-00&ServiceCd=210&Type=search", "url2": "http://www.sawayakaclub.jp/sanokan/" }, "geometry": { "type": "Point", "coordinates": [ 139.56904560000001, 36.3339995 ] } },
{ "type": "Feature", "properties": { "内容": "ショートステイ　万葉堀米の里【短期入所生活介護】栃木県佐野市堀米町１２７０番地８", "url": "https://www.kaigokensaku.mhlw.go.jp/09/index.php?action_kouhyou_detail_004_kani=true&JigyosyoCd=0970402327-00&ServiceCd=210&Type=search", "url2": "http://manyou.or.jp/" }, "geometry": { "type": "Point", "coordinates": [ 139.580660779762297, 36.327693135666273 ] } },
{ "type": "Feature", "properties": { "内容": "ショートステイ結和の里【短期入所生活介護】栃木県佐野市小見町７３３", "url": "https://www.kaigokensaku.mhlw.go.jp/09/index.php?action_kouhyou_detail_004_kani=true&JigyosyoCd=0970402517-00&ServiceCd=210&Type=search", "url2": null }, "geometry": { "type": "Point", "coordinates": [ 139.571756443666601, 36.349620883711829 ] } },
{ "type": "Feature", "properties": { "内容": "特別養護老人ホーム葛生ホーム【短期入所生活介護】栃木県佐野市仙波町８４７番地", "url": "https://www.kaigokensaku.mhlw.go.jp/09/index.php?action_kouhyou_detail_004_kani=true&JigyosyoCd=0972400089-00&ServiceCd=210&Type=search", "url2": null }, "geometry": { "type": "Point", "coordinates": [ 139.597733100000028, 36.4419674 ] } },
{ "type": "Feature", "properties": { "内容": "特別養護老人ホーム佐野サンリバー【短期入所生活介護】栃木県佐野市小中町１８２０－４", "url": "https://www.kaigokensaku.mhlw.go.jp/09/index.php?action_kouhyou_detail_004_kani=true&JigyosyoCd=0970400222-00&ServiceCd=210&Type=search", "url2": "ｈｔｔｐ//park12.wakiwak.com/~sunriver" }, "geometry": { "type": "Point", "coordinates": [ 139.548328199999986, 36.337285 ] } },
{ "type": "Feature", "properties": { "内容": "ショートステイ万葉【短期入所生活介護】栃木県佐野市堀米町1336-1", "url": "https://www.kaigokensaku.mhlw.go.jp/09/index.php?action_kouhyou_detail_004_kani=true&JigyosyoCd=0970400834-00&ServiceCd=210&Type=search", "url2": "http://www.manyou.or.jp/" }, "geometry": { "type": "Point", "coordinates": [ 139.5795736, 36.3305449 ] } },
{ "type": "Feature", "properties": { "内容": "佐野ショートステイ花の広場【短期入所生活介護】栃木県佐野市小見町７３２番地", "url": "https://www.kaigokensaku.mhlw.go.jp/09/index.php?action_kouhyou_detail_004_kani=true&JigyosyoCd=0970400966-00&ServiceCd=210&Type=search", "url2": "http://hanano-hiroba.sakura.ne.jp" }, "geometry": { "type": "Point", "coordinates": [ 139.5714511, 36.3500897 ] } },
{ "type": "Feature", "properties": { "内容": "ショートステイ万葉植野の里【短期入所生活介護】栃木県佐野市植下町4010－10", "url": "https://www.kaigokensaku.mhlw.go.jp/09/index.php?action_kouhyou_detail_004_kani=true&JigyosyoCd=0970401295-00&ServiceCd=210&Type=search", "url2": "http://manyou.or.jp/" }, "geometry": { "type": "Point", "coordinates": [ 139.585427200000026, 36.2942709 ] } },
{ "type": "Feature", "properties": { "内容": "ショートステイゆめみ【短期入所生活介護】栃木県佐野市伊保内町3841-1", "url": "https://www.kaigokensaku.mhlw.go.jp/09/index.php?action_kouhyou_detail_004_kani=true&JigyosyoCd=0970401485-00&ServiceCd=210&Type=search", "url2": "http://kamedaiin.com/genkimura/" }, "geometry": { "type": "Point", "coordinates": [ 139.5812419, 36.2807168 ] } },
{ "type": "Feature", "properties": { "内容": "特別養護老人ホーム　きぼう【短期入所生活介護】栃木県佐野市葛生東1-15-6", "url": "https://www.kaigokensaku.mhlw.go.jp/09/index.php?action_kouhyou_detail_004_kani=true&JigyosyoCd=0970401584-00&ServiceCd=210&Type=search", "url2": "http://www.sf-kibou.jp/" }, "geometry": { "type": "Point", "coordinates": [ 139.614058500000027, 36.4014811 ] } },
{ "type": "Feature", "properties": { "内容": "ショートステイ温寿苑【短期入所生活介護】栃木県佐野市馬門町1470番地", "url": "https://www.kaigokensaku.mhlw.go.jp/09/index.php?action_kouhyou_detail_004_kani=true&JigyosyoCd=0970401725-00&ServiceCd=210&Type=search", "url2": "https://onjuen.com/" }, "geometry": { "type": "Point", "coordinates": [ 139.602911799999987, 36.2824899 ] } },
{ "type": "Feature", "properties": { "内容": "ショートステイゆずりは【短期入所生活介護】栃木県佐野市山形町255-1介護老人福祉施設ゆずりは", "url": "https://www.kaigokensaku.mhlw.go.jp/09/index.php?action_kouhyou_detail_004_kani=true&JigyosyoCd=0970402624-00&ServiceCd=210&Type=search", "url2": "https://www.tochinomi.or.jp" }, "geometry": { "type": "Point", "coordinates": [ 139.5461262, 36.3828806 ] } },
{ "type": "Feature", "properties": { "内容": "特別養護老人ホーム　蓬莱荘【短期入所生活介護】栃木県佐野市長谷場町1798-1", "url": "https://www.kaigokensaku.mhlw.go.jp/09/index.php?action_kouhyou_detail_004_kani=true&JigyosyoCd=0972400097-00&ServiceCd=210&Type=search", "url2": "http://www.hourai.or.jp" }, "geometry": { "type": "Point", "coordinates": [ 139.550224500000013, 36.4298658 ] } },
{ "type": "Feature", "properties": { "内容": "あずみ苑関川【短期入所生活介護】栃木県佐野市関川町325-2", "url": "https://www.kaigokensaku.mhlw.go.jp/09/index.php?action_kouhyou_detail_004_kani=true&JigyosyoCd=0970402566-00&ServiceCd=210&Type=search", "url2": "https://www.az-lifecare.co.jp/" }, "geometry": { "type": "Point", "coordinates": [ 139.622957949073793, 36.323375095172949 ] } },
{ "type": "Feature", "properties": { "内容": "佐野ショートステイそよ風【短期入所生活介護】栃木県佐野市天神町984-2", "url": "https://www.kaigokensaku.mhlw.go.jp/09/index.php?action_kouhyou_detail_004_kani=true&JigyosyoCd=0970402020-00&ServiceCd=210&Type=search", "url2": "http://www.Sykz.co." }, "geometry": { "type": "Point", "coordinates": [ 139.570844, 36.3220538 ] } },
{ "type": "Feature", "properties": { "内容": "特別養護老人ホームハーモニー【短期入所生活介護】栃木県鹿沼市村井町１４６－６", "url": "https://www.kaigokensaku.mhlw.go.jp/09/index.php?action_kouhyou_detail_004_kani=true&JigyosyoCd=0970500203-00&ServiceCd=210&Type=search", "url2": "http://kyuujyu.com/" }, "geometry": { "type": "Point", "coordinates": [ 139.746004699999958, 36.5483071 ] } },
{ "type": "Feature", "properties": { "内容": "あずみ苑鹿沼【短期入所生活介護】栃木県鹿沼市貝島町５９５－５", "url": "https://www.kaigokensaku.mhlw.go.jp/09/index.php?action_kouhyou_detail_004_kani=true&JigyosyoCd=0970501623-00&ServiceCd=210&Type=search", "url2": "https://www.azumien.jp" }, "geometry": { "type": "Point", "coordinates": [ 139.7636866, 36.557998400000031 ] } },
{ "type": "Feature", "properties": { "内容": "さわやかかぬまかん【短期入所生活介護】栃木県鹿沼市寺町914-1", "url": "https://www.kaigokensaku.mhlw.go.jp/09/index.php?action_kouhyou_detail_004_kani=true&JigyosyoCd=0970501268-00&ServiceCd=210&Type=search", "url2": "https://www.sawayakaclub.jp" }, "geometry": { "type": "Point", "coordinates": [ 139.748829100000023, 36.5599567 ] } },
{ "type": "Feature", "properties": { "内容": "特別養護老人ホーム　さつき荘【短期入所生活介護】栃木県鹿沼市白桑田２５４－７", "url": "https://www.kaigokensaku.mhlw.go.jp/09/index.php?action_kouhyou_detail_004_kani=true&JigyosyoCd=0970500161-00&ServiceCd=210&Type=search", "url2": "http://www.tudafukushi.com" }, "geometry": { "type": "Point", "coordinates": [ 139.813059599999974, 36.5501948 ] } },
{ "type": "Feature", "properties": { "内容": "介護ステーションたけむら【短期入所生活介護】栃木県鹿沼市西茂呂四丁目46番3", "url": "https://www.kaigokensaku.mhlw.go.jp/09/index.php?action_kouhyou_detail_004_kani=true&JigyosyoCd=0970500740-00&ServiceCd=210&Type=search", "url2": "http://take2002.on.arena.ne.jp/" }, "geometry": { "type": "Point", "coordinates": [ 139.767630899999972, 36.5431697 ] } },
{ "type": "Feature", "properties": { "内容": "短期入所生活介護事業所　ポプリ【短期入所生活介護】栃木県鹿沼市下永野270-2特別養護老人ホーム　ポプリ", "url": "https://www.kaigokensaku.mhlw.go.jp/09/index.php?action_kouhyou_detail_004_kani=true&JigyosyoCd=0970500963-00&ServiceCd=210&Type=search", "url2": "http://yu-sinkai.com" }, "geometry": { "type": "Point", "coordinates": [ 139.619981300000063, 36.478097300000016 ] } },
{ "type": "Feature", "properties": { "内容": "老人短期入所　かぬま花の風【短期入所生活介護】栃木県鹿沼市緑町2丁目3-17特別養護老人ホームかぬま花の風", "url": "https://www.kaigokensaku.mhlw.go.jp/09/index.php?action_kouhyou_detail_004_kani=true&JigyosyoCd=0970501177-00&ServiceCd=210&Type=search", "url2": "http://www.fukushi-asahikai.or.jp/" }, "geometry": { "type": "Point", "coordinates": [ 139.776785199999949, 36.557921 ] } },
{ "type": "Feature", "properties": { "内容": "特別養護老人ホーム　さかた園【短期入所生活介護】栃木県鹿沼市日吉町937番地4", "url": "https://www.kaigokensaku.mhlw.go.jp/09/index.php?action_kouhyou_detail_004_kani=true&JigyosyoCd=0970501417-00&ServiceCd=210&Type=search", "url2": "http://nikko-fukueikai.or.jp" }, "geometry": { "type": "Point", "coordinates": [ 139.734163699999954, 36.5678629 ] } },
{ "type": "Feature", "properties": { "内容": "特別養護老人ホーム　粟野荘【短期入所生活介護】栃木県鹿沼市深程1520", "url": "https://www.kaigokensaku.mhlw.go.jp/09/index.php?action_kouhyou_detail_004_kani=true&JigyosyoCd=0972200067-00&ServiceCd=210&Type=search", "url2": "http://awanosou.jp/" }, "geometry": { "type": "Point", "coordinates": [ 139.697691099999929, 36.4961776 ] } },
{ "type": "Feature", "properties": { "内容": "短期入所生活介護事業おりづる【短期入所生活介護】栃木県鹿沼市茂呂１０９０番地２５", "url": "https://www.kaigokensaku.mhlw.go.jp/09/index.php?action_kouhyou_detail_004_kani=true&JigyosyoCd=0970500625-00&ServiceCd=210&Type=search", "url2": "http://moro-skf.jp/" }, "geometry": { "type": "Point", "coordinates": [ 139.779637900000012, 36.5490943 ] } },
{ "type": "Feature", "properties": { "内容": "特別養護老人ホーム　グリーンホーム【短期入所生活介護】栃木県鹿沼市下日向438-1", "url": "https://www.kaigokensaku.mhlw.go.jp/09/index.php?action_kouhyou_detail_004_kani=true&JigyosyoCd=0970500211-00&ServiceCd=210&Type=search", "url2": "http://www.ryokufukai.jp/" }, "geometry": { "type": "Point", "coordinates": [ 139.717359699999946, 36.5504111 ] } },
{ "type": "Feature", "properties": { "内容": "短期入所生活介護事業所　かぬま四季の里【短期入所生活介護】鹿沼市西沢町209", "url": "https://www.kaigokensaku.mhlw.go.jp/09/index.php?action_kouhyou_detail_004_kani=true&JigyosyoCd=0970500880-00&ServiceCd=210&Type=search", "url2": "https://souwakai.or.jp" }, "geometry": { "type": "Point", "coordinates": [ 139.70848639999997, 36.5169034 ] } },
{ "type": "Feature", "properties": { "内容": "特別養護老人ホ－ム　オレンジホ－ム【短期入所生活介護】栃木県鹿沼市富岡492-2", "url": "https://www.kaigokensaku.mhlw.go.jp/09/index.php?action_kouhyou_detail_004_kani=true&JigyosyoCd=0970500229-00&ServiceCd=210&Type=search", "url2": "http://www.ryokufukai.jp/" }, "geometry": { "type": "Point", "coordinates": [ 139.735069599999946, 36.6155575 ] } },
{ "type": "Feature", "properties": { "内容": "鹿沼ケアセンターそよ風【短期入所生活介護】栃木県鹿沼市西茂呂2-5-3", "url": "https://www.kaigokensaku.mhlw.go.jp/09/index.php?action_kouhyou_detail_004_kani=true&JigyosyoCd=0970500716-00&ServiceCd=210&Type=search", "url2": null }, "geometry": { "type": "Point", "coordinates": [ 139.769438700000023, 36.5554405 ] } },
{ "type": "Feature", "properties": { "内容": "老人短期入所事業　さくら苑【短期入所生活介護】栃木県日光市大室863-7", "url": "https://www.kaigokensaku.mhlw.go.jp/09/index.php?action_kouhyou_detail_004_kani=true&JigyosyoCd=0970700423-00&ServiceCd=210&Type=search", "url2": "http://oomurosakuraen.jp" }, "geometry": { "type": "Point", "coordinates": [ 139.7501241, 36.7229311 ] } },
{ "type": "Feature", "properties": { "内容": "特別養護老人ホーム　きびたき荘【短期入所生活介護】栃木県日光市細尾町95番地", "url": "https://www.kaigokensaku.mhlw.go.jp/09/index.php?action_kouhyou_detail_004_kani=true&JigyosyoCd=0970600037-00&ServiceCd=210&Type=search", "url2": "http://kibitakisou.com/" }, "geometry": { "type": "Point", "coordinates": [ 139.549010599999974, 36.7303137 ] } },
{ "type": "Feature", "properties": { "内容": "特別養護老人ホーム　ひかりの里【短期入所生活介護】日光市今市1086-2", "url": "https://www.kaigokensaku.mhlw.go.jp/09/index.php?action_kouhyou_detail_004_kani=true&JigyosyoCd=0970600185-00&ServiceCd=210&Type=search", "url2": "http://www.taikei.jp/" }, "geometry": { "type": "Point", "coordinates": [ 139.697757499999966, 36.7248243 ] } },
{ "type": "Feature", "properties": { "内容": "特別養護老人ホームきわだの郷【短期入所生活介護】栃木県日光市木和田島3008番地11", "url": "https://www.kaigokensaku.mhlw.go.jp/09/index.php?action_kouhyou_detail_004_kani=true&JigyosyoCd=0970600276-00&ServiceCd=210&Type=search", "url2": "nikko-fukueikai.or.jp" }, "geometry": { "type": "Point", "coordinates": [ 139.753484, 36.6819276 ] } },
{ "type": "Feature", "properties": { "内容": "ショートステイホームさんらいず【短期入所生活介護】栃木県日光市塩野室町1504-2", "url": "https://www.kaigokensaku.mhlw.go.jp/09/index.php?action_kouhyou_detail_004_kani=true&JigyosyoCd=0970600417-00&ServiceCd=210&Type=search", "url2": null }, "geometry": { "type": "Point", "coordinates": [ 139.797266740475465, 36.735149748453964 ] } },
{ "type": "Feature", "properties": { "内容": "特別養護老人ホーム　ひらがさ喜の里【短期入所生活介護】栃木県日光市平ヶ崎６０８-５", "url": "https://www.kaigokensaku.mhlw.go.jp/09/index.php?action_kouhyou_detail_004_kani=true&JigyosyoCd=0970600441-00&ServiceCd=210&Type=search", "url2": "http://nikko-fukueikai.or.jp" }, "geometry": { "type": "Point", "coordinates": [ 139.680687600000027, 36.7157384 ] } },
{ "type": "Feature", "properties": { "内容": "特別養護老人ホーム　喜わだ亭【短期入所生活介護】栃木県日光市木和田島3008番地13特別養護老人ホーム　喜わだ亭", "url": "https://www.kaigokensaku.mhlw.go.jp/09/index.php?action_kouhyou_detail_004_kani=true&JigyosyoCd=0970600581-00&ServiceCd=210&Type=search", "url2": null }, "geometry": { "type": "Point", "coordinates": [ 139.753050700000017, 36.6823192 ] } },
{ "type": "Feature", "properties": { "内容": "すかいの郷【短期入所生活介護】栃木県日光市倉ケ崎新田１４３－１", "url": "https://www.kaigokensaku.mhlw.go.jp/09/index.php?action_kouhyou_detail_004_kani=true&JigyosyoCd=0970600797-00&ServiceCd=210&Type=search", "url2": "http://www.sukai.jp/" }, "geometry": { "type": "Point", "coordinates": [ 139.7096828, 36.748672 ] } },
{ "type": "Feature", "properties": { "内容": "特別養護老人ホーム　今市ホーム【短期入所生活介護】日光市板橋2190-2", "url": "https://www.kaigokensaku.mhlw.go.jp/09/index.php?action_kouhyou_detail_004_kani=true&JigyosyoCd=0970700134-00&ServiceCd=210&Type=search", "url2": "http://www.taikei.jp/publics/index/9/" }, "geometry": { "type": "Point", "coordinates": [ 139.73511869999993, 36.6492286 ] } },
{ "type": "Feature", "properties": { "内容": "特別養護老人ホーム　誠心園【短期入所生活介護】栃木県日光市倉ケ崎６０５番地７", "url": "https://www.kaigokensaku.mhlw.go.jp/09/index.php?action_kouhyou_detail_004_kani=true&JigyosyoCd=0970700142-00&ServiceCd=210&Type=search", "url2": "http://www.sankokai.com" }, "geometry": { "type": "Point", "coordinates": [ 139.712723899999986, 36.7550186 ] } },
{ "type": "Feature", "properties": { "内容": "ショートステイ　きぬ川苑【短期入所生活介護】栃木県日光市高徳６１９番地３", "url": "https://www.kaigokensaku.mhlw.go.jp/09/index.php?action_kouhyou_detail_004_kani=true&JigyosyoCd=0972600324-00&ServiceCd=210&Type=search", "url2": "https://www.kinugawaen.com/" }, "geometry": { "type": "Point", "coordinates": [ 139.706646099999944, 36.7825262 ] } },
{ "type": "Feature", "properties": { "内容": "特別養護老人ホーム　栗林荘【短期入所生活介護】栃木県小山市大字塚崎４６３番地１", "url": "https://www.kaigokensaku.mhlw.go.jp/09/index.php?action_kouhyou_detail_004_kani=true&JigyosyoCd=0970800181-00&ServiceCd=210&Type=search", "url2": null }, "geometry": { "type": "Point", "coordinates": [ 139.815155799999957, 36.2634334 ] } },
{ "type": "Feature", "properties": { "内容": "短期入所生活介護施設　みやうち【短期入所生活介護】栃木県小山市粟宮１丁目８番１６号", "url": "https://www.kaigokensaku.mhlw.go.jp/09/index.php?action_kouhyou_detail_004_kani=true&JigyosyoCd=0970801056-00&ServiceCd=210&Type=search", "url2": null }, "geometry": { "type": "Point", "coordinates": [ 139.787855199999967, 36.2934982 ] } },
{ "type": "Feature", "properties": { "内容": "特別養護老人ホーム　きぬの里【短期入所生活介護】栃木県小山市大字高椅132-1", "url": "https://www.kaigokensaku.mhlw.go.jp/09/index.php?action_kouhyou_detail_004_kani=true&JigyosyoCd=0970800223-00&ServiceCd=210&Type=search", "url2": "http://kusu-noki.co.or.jp" }, "geometry": { "type": "Point", "coordinates": [ 139.888123599999972, 36.3390051 ] } },
{ "type": "Feature", "properties": { "内容": "特別養護老人ホーム春わらう舎【短期入所生活介護】栃木県小山市大字小山1509番地1", "url": "https://www.kaigokensaku.mhlw.go.jp/09/index.php?action_kouhyou_detail_004_kani=true&JigyosyoCd=0970801569-00&ServiceCd=210&Type=search", "url2": "http://www.nogihosp.or.jp/" }, "geometry": { "type": "Point", "coordinates": [ 139.818173600000023, 36.3015129 ] } },
{ "type": "Feature", "properties": { "内容": "特別養護老人ホーム　富士見荘【短期入所生活介護】栃木県小山市大字上石塚１５番地", "url": "https://www.kaigokensaku.mhlw.go.jp/09/index.php?action_kouhyou_detail_004_kani=true&JigyosyoCd=0970800199-00&ServiceCd=210&Type=search", "url2": "https://www.fujimisou.or.jp/" }, "geometry": { "type": "Point", "coordinates": [ 139.776344, 36.3326043 ] } },
{ "type": "Feature", "properties": { "内容": "特別養護老人ホームしょうし苑【短期入所生活介護】栃木県小山市中久喜1273-1", "url": "https://www.kaigokensaku.mhlw.go.jp/09/index.php?action_kouhyou_detail_004_kani=true&JigyosyoCd=0970800207-00&ServiceCd=210&Type=search", "url2": "http://oyamaseifukai.or.jp/" }, "geometry": { "type": "Point", "coordinates": [ 139.834405699999934, 36.3236804 ] } },
{ "type": "Feature", "properties": { "内容": "特別養護老人ホーム穂の香苑【短期入所生活介護】栃木県小山市間々田１４４２", "url": "https://www.kaigokensaku.mhlw.go.jp/09/index.php?action_kouhyou_detail_004_kani=true&JigyosyoCd=0970800215-00&ServiceCd=210&Type=search", "url2": "http://www.honokaen.jp/" }, "geometry": { "type": "Point", "coordinates": [ 139.762830500000064, 36.2679172 ] } },
{ "type": "Feature", "properties": { "内容": "小山ケアセンターそよ風【短期入所生活介護】栃木県小山市大字犬塚8-3-8", "url": "https://www.kaigokensaku.mhlw.go.jp/09/index.php?action_kouhyou_detail_004_kani=true&JigyosyoCd=0970801387-00&ServiceCd=210&Type=search", "url2": "https://corp.sykz.co.jp/" }, "geometry": { "type": "Point", "coordinates": [ 139.832947399999966, 36.309507 ] } },
{ "type": "Feature", "properties": { "内容": "サンフラワーグリーンホーム・ショートステイ【短期入所生活介護】栃木県小山市大字出井１９３９", "url": "https://www.kaigokensaku.mhlw.go.jp/09/index.php?action_kouhyou_detail_004_kani=true&JigyosyoCd=0970801577-00&ServiceCd=210&Type=search", "url2": "http://www.sensinkai.or.jp" }, "geometry": { "type": "Point", "coordinates": [ 139.837111099999987, 36.3337764 ] } },
{ "type": "Feature", "properties": { "内容": "北星館【短期入所生活介護】栃木県小山市喜沢399－3", "url": "https://www.kaigokensaku.mhlw.go.jp/09/index.php?action_kouhyou_detail_004_kani=true&JigyosyoCd=0970801593-00&ServiceCd=210&Type=search", "url2": "http://www.hokuseikan.com" }, "geometry": { "type": "Point", "coordinates": [ 139.822317500000054, 36.3296709 ] } },
{ "type": "Feature", "properties": { "内容": "ショートステイひらわの郷【短期入所生活介護】栃木県小山市大字平和256番地", "url": "https://www.kaigokensaku.mhlw.go.jp/09/index.php?action_kouhyou_detail_004_kani=true&JigyosyoCd=0970801726-00&ServiceCd=210&Type=search", "url2": "http://www.s-koyukai.or.jp" }, "geometry": { "type": "Point", "coordinates": [ 139.774026763229358, 36.256426980256798 ] } },
{ "type": "Feature", "properties": { "内容": "アスピア乙女【短期入所生活介護】栃木県小山市乙女786番地1", "url": "https://www.kaigokensaku.mhlw.go.jp/09/index.php?action_kouhyou_detail_004_kani=true&JigyosyoCd=0970801775-00&ServiceCd=210&Type=search", "url2": "aspia-otome.jp" }, "geometry": { "type": "Point", "coordinates": [ 139.746019410450799, 36.251033052098073 ] } },
{ "type": "Feature", "properties": { "内容": "特別養護老人ホーム穂の香苑【短期入所生活介護】栃木県小山市間々田１４４２", "url": "https://www.kaigokensaku.mhlw.go.jp/09/index.php?action_kouhyou_detail_004_kani=true&JigyosyoCd=0970801957-00&ServiceCd=210&Type=search", "url2": "https://www.honokaen.jp/" }, "geometry": { "type": "Point", "coordinates": [ 139.762841987873003, 36.267969210639428 ] } },
{ "type": "Feature", "properties": { "内容": "イーストピア小山【短期入所生活介護】栃木県小山市駅東通り1-21-21", "url": "https://www.kaigokensaku.mhlw.go.jp/09/index.php?action_kouhyou_detail_004_kani=true&JigyosyoCd=0970802153-00&ServiceCd=210&Type=search", "url2": "https://isutopiaoyama.jimdofree.com/" }, "geometry": { "type": "Point", "coordinates": [ 139.8088715, 36.308815100000025 ] } },
{ "type": "Feature", "properties": { "内容": "特別養護老人ホーム　しょうし苑星座の森短期入所生活介護【短期入所生活介護】栃木県小山市中久喜１２７３－１", "url": "https://www.kaigokensaku.mhlw.go.jp/09/index.php?action_kouhyou_detail_004_kani=true&JigyosyoCd=0970802195-00&ServiceCd=210&Type=search", "url2": "http://oyamaseifukai.or.jp/" }, "geometry": { "type": "Point", "coordinates": [ 139.834405699999934, 36.3236804 ] } },
{ "type": "Feature", "properties": { "内容": "ショートステイサンタモニカ【短期入所生活介護】栃木県小山市北飯田74-1", "url": "https://www.kaigokensaku.mhlw.go.jp/09/index.php?action_kouhyou_detail_004_kani=true&JigyosyoCd=0970802237-00&ServiceCd=210&Type=search", "url2": "http://www.minamith.or.jp/index.html" }, "geometry": { "type": "Point", "coordinates": [ 139.8654924, 36.3364353 ] } },
{ "type": "Feature", "properties": { "内容": "介護付有料老人ホームしあわせ小山館【短期入所生活介護】栃木県小山市間々田791-5", "url": "https://www.kaigokensaku.mhlw.go.jp/09/index.php?action_kouhyou_detail_004_kani=true&JigyosyoCd=0970802401-00&ServiceCd=210&Type=search", "url2": "https://www.aiaicare.jp/information/nursing_home/" }, "geometry": { "type": "Point", "coordinates": [ 139.773665299999948, 36.2759805 ] } },
{ "type": "Feature", "properties": { "内容": "介護付き有料老人ホーム　アナベル犬塚【短期入所生活介護】栃木県小山市大字犬塚998-7介護付き有料老人ホーム　アナベル犬塚", "url": "https://www.kaigokensaku.mhlw.go.jp/09/index.php?action_kouhyou_detail_004_kani=true&JigyosyoCd=0970802583-00&ServiceCd=210&Type=search", "url2": "https://www.npoajisai.org" }, "geometry": { "type": "Point", "coordinates": [ 139.827173877869399, 36.304191208361559 ] } },
{ "type": "Feature", "properties": { "内容": "短期入所生活介護事業所　ソレイユ思川【短期入所生活介護】栃木県小山市大字松沼５７９-１", "url": "https://www.kaigokensaku.mhlw.go.jp/09/index.php?action_kouhyou_detail_004_kani=true&JigyosyoCd=0970802823-00&ServiceCd=210&Type=search", "url2": "https://meiroukai.jp/" }, "geometry": { "type": "Point", "coordinates": [ 139.776686700000027, 36.3465045 ] } },
{ "type": "Feature", "properties": { "内容": "短期入所生活介護　大沼の里【短期入所生活介護】荒井6-2", "url": "https://www.kaigokensaku.mhlw.go.jp/09/index.php?action_kouhyou_detail_004_kani=true&JigyosyoCd=0970803177-00&ServiceCd=210&Type=search", "url2": "https://reiwakai.or.jp" }, "geometry": { "type": "Point", "coordinates": [ 139.5114562, 36.0100668 ] } },
{ "type": "Feature", "properties": { "内容": "ショートステイいいだの郷【短期入所生活介護】栃木県小山市平和263番地1", "url": "https://www.kaigokensaku.mhlw.go.jp/09/index.php?action_kouhyou_detail_004_kani=true&JigyosyoCd=0970803268-00&ServiceCd=210&Type=search", "url2": "http://www.s-koyukai.or.jp" }, "geometry": { "type": "Point", "coordinates": [ 139.772677116394078, 36.256259168676415 ] } },
{ "type": "Feature", "properties": { "内容": "ショートステイ　小山すみれ【短期入所生活介護】栃木県小山市横倉862-1", "url": "https://www.kaigokensaku.mhlw.go.jp/09/index.php?action_kouhyou_detail_004_kani=true&JigyosyoCd=0970803078-00&ServiceCd=210&Type=search", "url2": "htpps://www.oyamasumire.com" }, "geometry": { "type": "Point", "coordinates": [ 139.8372125, 36.2776491 ] } },
{ "type": "Feature", "properties": { "内容": "短期入所生活介護事業所　田井の里【短期入所生活介護】栃木県真岡市西田井748-2", "url": "https://www.kaigokensaku.mhlw.go.jp/09/index.php?action_kouhyou_detail_004_kani=true&JigyosyoCd=0970900692-00&ServiceCd=210&Type=search", "url2": "URL：http：//tobiyama.org/" }, "geometry": { "type": "Point", "coordinates": [ 140.0700167, 36.45371 ] } },
{ "type": "Feature", "properties": { "内容": "特別養護老人ホーム　やまさわの里【短期入所生活介護】栃木県真岡市熊倉町3435番地1", "url": "https://www.kaigokensaku.mhlw.go.jp/09/index.php?action_kouhyou_detail_004_kani=true&JigyosyoCd=0970900379-00&ServiceCd=210&Type=search", "url2": "http://www.yamasawanosato.or.jp" }, "geometry": { "type": "Point", "coordinates": [ 139.996468400000026, 36.4329276 ] } },
{ "type": "Feature", "properties": { "内容": "三起の森ショートステイ【短期入所生活介護】栃木県真岡市上大田和１３１３", "url": "https://www.kaigokensaku.mhlw.go.jp/09/index.php?action_kouhyou_detail_004_kani=true&JigyosyoCd=0970900528-00&ServiceCd=210&Type=search", "url2": null }, "geometry": { "type": "Point", "coordinates": [ 140.0059688, 36.4818219 ] } },
{ "type": "Feature", "properties": { "内容": "ショートステイ　にのみや【短期入所生活介護】栃木県真岡市久下田712-2", "url": "https://www.kaigokensaku.mhlw.go.jp/09/index.php?action_kouhyou_detail_004_kani=true&JigyosyoCd=0970900536-00&ServiceCd=210&Type=search", "url2": "http://ncclinic.or.jp" }, "geometry": { "type": "Point", "coordinates": [ 139.96842330000004, 36.3743964 ] } },
{ "type": "Feature", "properties": { "内容": "三起の花ショートステイ【短期入所生活介護】栃木県真岡市堀内1897-8", "url": "https://www.kaigokensaku.mhlw.go.jp/09/index.php?action_kouhyou_detail_004_kani=true&JigyosyoCd=0970900866-00&ServiceCd=210&Type=search", "url2": "https://www.shafukusanki.com" }, "geometry": { "type": "Point", "coordinates": [ 140.002671099999986, 36.4827557 ] } },
{ "type": "Feature", "properties": { "内容": "特別養護老人ホーム喜望荘【短期入所生活介護】栃木県真岡市石島463", "url": "https://www.kaigokensaku.mhlw.go.jp/09/index.php?action_kouhyou_detail_004_kani=true&JigyosyoCd=0972700140-00&ServiceCd=210&Type=search", "url2": "http://www.kibousou.jp/" }, "geometry": { "type": "Point", "coordinates": [ 139.974350100000038, 36.3935833 ] } },
{ "type": "Feature", "properties": { "内容": "特別養護老人ホーム　椿寿園【短期入所生活介護】栃木県真岡市亀山350-20", "url": "https://www.kaigokensaku.mhlw.go.jp/09/index.php?action_kouhyou_detail_004_kani=true&JigyosyoCd=0970900163-00&ServiceCd=210&Type=search", "url2": "http://care-net.biz/09/shinkikai/" }, "geometry": { "type": "Point", "coordinates": [ 139.988915499999962, 36.459577 ] } },
{ "type": "Feature", "properties": { "内容": "特別養護老人ホーム　きたはら【短期入所生活介護】栃木県真岡市若旅６５６番地", "url": "https://www.kaigokensaku.mhlw.go.jp/09/index.php?action_kouhyou_detail_004_kani=true&JigyosyoCd=0970900189-00&ServiceCd=210&Type=search", "url2": "http://www.keikoukai.or.jp/" }, "geometry": { "type": "Point", "coordinates": [ 139.948432700000012, 36.4023594 ] } },
{ "type": "Feature", "properties": { "内容": "ショートステイ晴風園【短期入所生活介護】栃木県大田原市下石上１２５８", "url": "https://www.kaigokensaku.mhlw.go.jp/09/index.php?action_kouhyou_detail_004_kani=true&JigyosyoCd=0971000229-00&ServiceCd=210&Type=search", "url2": "http://shiseikai-seifuen.com" }, "geometry": { "type": "Point", "coordinates": [ 139.945960900000046, 36.8518786 ] } },
{ "type": "Feature", "properties": { "内容": "大田原ケアセンターそよ風【短期入所生活介護】栃木県大田原市新富町3-7-24", "url": "https://www.kaigokensaku.mhlw.go.jp/09/index.php?action_kouhyou_detail_004_kani=true&JigyosyoCd=0971000690-00&ServiceCd=210&Type=search", "url2": null }, "geometry": { "type": "Point", "coordinates": [ 140.023126899999966, 36.8621103 ] } },
{ "type": "Feature", "properties": { "内容": "ショートステイ　やすらぎの里・大田原【短期入所生活介護】栃木県大田原市北大和久1番地３", "url": "https://www.kaigokensaku.mhlw.go.jp/09/index.php?action_kouhyou_detail_004_kani=true&JigyosyoCd=0971000153-00&ServiceCd=210&Type=search", "url2": "https://www.yasuragi1977.jp/ohtawara/" }, "geometry": { "type": "Point", "coordinates": [ 140.051470699999982, 36.8451681 ] } },
{ "type": "Feature", "properties": { "内容": "ほっとアスターショートステイセンター【短期入所生活介護】栃木県大田原市前田８６３－５", "url": "https://www.kaigokensaku.mhlw.go.jp/09/index.php?action_kouhyou_detail_004_kani=true&JigyosyoCd=0971000526-00&ServiceCd=210&Type=search", "url2": "http://hotaster.com/" }, "geometry": { "type": "Point", "coordinates": [ 140.13086880000003, 36.8670092 ] } },
{ "type": "Feature", "properties": { "内容": "特別養護老人ホーム　おおたわら風花苑【短期入所生活介護】栃木県大田原市北金丸２６００番地１０", "url": "https://www.kaigokensaku.mhlw.go.jp/09/index.php?action_kouhyou_detail_004_kani=true&JigyosyoCd=0971000583-00&ServiceCd=210&Type=search", "url2": "http://hoyukai.iuhw.ac.jp" }, "geometry": { "type": "Point", "coordinates": [ 140.069893776057341, 36.87255221053487 ] } },
{ "type": "Feature", "properties": { "内容": "介護の郷　わたぼうし　ショートステイ【短期入所生活介護】栃木県大田原市本町１丁目２６９５番地５７", "url": "https://www.kaigokensaku.mhlw.go.jp/09/index.php?action_kouhyou_detail_004_kani=true&JigyosyoCd=0971000641-00&ServiceCd=210&Type=search", "url2": "http://watabousi.com/" }, "geometry": { "type": "Point", "coordinates": [ 140.0121497, 36.8741364 ] } },
{ "type": "Feature", "properties": { "内容": "だいな紫塚ショートステイ【短期入所生活介護】栃木県大田原市紫塚3-2633-12", "url": "https://www.kaigokensaku.mhlw.go.jp/09/index.php?action_kouhyou_detail_004_kani=true&JigyosyoCd=0971000955-00&ServiceCd=210&Type=search", "url2": "http://dyna.gotdns.com" }, "geometry": { "type": "Point", "coordinates": [ 140.0215624, 36.8777892 ] } },
{ "type": "Feature", "properties": { "内容": "ショートステイやすらぎの里シエスタ【短期入所生活介護】栃木県大田原市北大和久１番地３", "url": "https://www.kaigokensaku.mhlw.go.jp/09/index.php?action_kouhyou_detail_004_kani=true&JigyosyoCd=0971001136-00&ServiceCd=210&Type=search", "url2": "https://www.yasuragi1977.jp/ohtawara/" }, "geometry": { "type": "Point", "coordinates": [ 140.051181021426402, 36.845107999051343 ] } },
{ "type": "Feature", "properties": { "内容": "ショートステイにちにちそう【短期入所生活介護】栃木県大田原市加治屋83-81", "url": "https://www.kaigokensaku.mhlw.go.jp/09/index.php?action_kouhyou_detail_004_kani=true&JigyosyoCd=0971001276-00&ServiceCd=210&Type=search", "url2": "http://kenshinkai.or.jp/" }, "geometry": { "type": "Point", "coordinates": [ 139.999129683517907, 36.856694717125848 ] } },
{ "type": "Feature", "properties": { "内容": "特別養護老人ホームほのぼの園【短期入所生活介護】栃木県大田原市湯津上5-989", "url": "https://www.kaigokensaku.mhlw.go.jp/09/index.php?action_kouhyou_detail_004_kani=true&JigyosyoCd=0972500235-00&ServiceCd=210&Type=search", "url2": "http://www.nasubm.co.jp/keifukukai/honobono/" }, "geometry": { "type": "Point", "coordinates": [ 140.105483400000026, 36.8252085 ] } },
{ "type": "Feature", "properties": { "内容": "ショートステイ事業所　山百合荘【短期入所生活介護】栃木県大田原市久野又８０４番地", "url": "https://www.kaigokensaku.mhlw.go.jp/09/index.php?action_kouhyou_detail_004_kani=true&JigyosyoCd=0972500276-00&ServiceCd=210&Type=search", "url2": "http://yamayuriso.com/" }, "geometry": { "type": "Point", "coordinates": [ 140.138423, 36.8901711 ] } },
{ "type": "Feature", "properties": { "内容": "あずみ苑グランデ矢板【短期入所生活介護】栃木県矢板市東町８－３７", "url": "https://www.kaigokensaku.mhlw.go.jp/09/index.php?action_kouhyou_detail_004_kani=true&JigyosyoCd=0971100292-00&ServiceCd=210&Type=search", "url2": "http://www.leopalace21.co.jp/silver.html" }, "geometry": { "type": "Point", "coordinates": [ 139.942311, 36.8002792 ] } },
{ "type": "Feature", "properties": { "内容": "さざんかの家（平成22年度新規指定事業所）【短期入所生活介護】片岡1907-1", "url": "https://www.kaigokensaku.mhlw.go.jp/09/index.php?action_kouhyou_detail_004_kani=true&JigyosyoCd=0971100409-00&ServiceCd=210&Type=search", "url2": null }, "geometry": { "type": "Point", "coordinates": [ 139.9346243, 36.7692299 ] } },
{ "type": "Feature", "properties": { "内容": "特別養護老人ホーム　八汐苑【短期入所生活介護】栃木県矢板市平野1362-12", "url": "https://www.kaigokensaku.mhlw.go.jp/09/index.php?action_kouhyou_detail_004_kani=true&JigyosyoCd=0971100045-00&ServiceCd=210&Type=search", "url2": "http://yasioen.okoshi-yasu.com/" }, "geometry": { "type": "Point", "coordinates": [ 139.886294600000042, 36.8663585 ] } },
{ "type": "Feature", "properties": { "内容": "特別養護老人ホーム　ひだまりの里【短期入所生活介護】栃木県矢板市川崎反町303番地", "url": "https://www.kaigokensaku.mhlw.go.jp/09/index.php?action_kouhyou_detail_004_kani=true&JigyosyoCd=0971100433-00&ServiceCd=210&Type=search", "url2": "http://www.tomoikikai.info" }, "geometry": { "type": "Point", "coordinates": [ 139.919613499999969, 36.7933127 ] } },
{ "type": "Feature", "properties": { "内容": "つつじ苑【短期入所生活介護】栃木県矢板市東町１２００番地１６", "url": "https://www.kaigokensaku.mhlw.go.jp/09/index.php?action_kouhyou_detail_004_kani=true&JigyosyoCd=0971100508-00&ServiceCd=210&Type=search", "url2": "http://fusyoukai.jp/" }, "geometry": { "type": "Point", "coordinates": [ 139.94335698717191, 36.797763761858931 ] } },
{ "type": "Feature", "properties": { "内容": "つばきハウス【短期入所生活介護】木綿畑５２９番地２", "url": "https://www.kaigokensaku.mhlw.go.jp/09/index.php?action_kouhyou_detail_004_kani=true&JigyosyoCd=0971300876-00&ServiceCd=210&Type=search", "url2": null }, "geometry": { "type": "Point", "coordinates": [ 139.93340608220899, 36.99024271523696 ] } },
{ "type": "Feature", "properties": { "内容": "那須友愛苑【短期入所生活介護】栃木県那須塩原市西富山58-1", "url": "https://www.kaigokensaku.mhlw.go.jp/09/index.php?action_kouhyou_detail_004_kani=true&JigyosyoCd=0971300926-00&ServiceCd=210&Type=search", "url2": null }, "geometry": { "type": "Point", "coordinates": [ 139.985270600000035, 36.9025848 ] } },
{ "type": "Feature", "properties": { "内容": "セレビィー【短期入所生活介護】栃木県那須塩原市大黒町２－５地域包括総合センター", "url": "https://www.kaigokensaku.mhlw.go.jp/09/index.php?action_kouhyou_detail_004_kani=true&JigyosyoCd=0971300199-00&ServiceCd=210&Type=search", "url2": null }, "geometry": { "type": "Point", "coordinates": [ 140.049029734918236, 36.971134833522768 ] } },
{ "type": "Feature", "properties": { "内容": "特別養護老人ホーム　寿山荘【短期入所生活介護】栃木県那須塩原市住吉町5番10号", "url": "https://www.kaigokensaku.mhlw.go.jp/09/index.php?action_kouhyou_detail_004_kani=true&JigyosyoCd=0971200084-00&ServiceCd=210&Type=search", "url2": "http://www.keihukukai.com/" }, "geometry": { "type": "Point", "coordinates": [ 140.049396200000047, 36.9653006 ] } },
{ "type": "Feature", "properties": { "内容": "特別養護老人ホーム　あじさい苑【短期入所生活介護】栃木県那須塩原市東原字天蚕場１６６番地", "url": "https://www.kaigokensaku.mhlw.go.jp/09/index.php?action_kouhyou_detail_004_kani=true&JigyosyoCd=0971200092-00&ServiceCd=210&Type=search", "url2": "http://www.nasu-kaigo.or.jp" }, "geometry": { "type": "Point", "coordinates": [ 140.046066, 36.961698 ] } },
{ "type": "Feature", "properties": { "内容": "有限会社　ライフサポート遊歩【短期入所生活介護】栃木県那須塩原市豊浦10－129", "url": "https://www.kaigokensaku.mhlw.go.jp/09/index.php?action_kouhyou_detail_004_kani=true&JigyosyoCd=0971200209-00&ServiceCd=210&Type=search", "url2": null }, "geometry": { "type": "Point", "coordinates": [ 140.059909800000014, 36.9492189 ] } },
{ "type": "Feature", "properties": { "内容": "くろいそケアセンターそよ風【短期入所生活介護】栃木県那須塩原市豊浦南町83-120", "url": "https://www.kaigokensaku.mhlw.go.jp/09/index.php?action_kouhyou_detail_004_kani=true&JigyosyoCd=0971200340-00&ServiceCd=210&Type=search", "url2": null }, "geometry": { "type": "Point", "coordinates": [ 140.038675, 36.962581 ] } },
{ "type": "Feature", "properties": { "内容": "ケアタウン　安暮里【短期入所生活介護】栃木県那須塩原市鍋掛1416番3号", "url": "https://www.kaigokensaku.mhlw.go.jp/09/index.php?action_kouhyou_detail_004_kani=true&JigyosyoCd=0971200357-00&ServiceCd=210&Type=search", "url2": "http://www.keifukukai.com/aguri.html" }, "geometry": { "type": "Point", "coordinates": [ 140.066042700000025, 36.9511383 ] } },
{ "type": "Feature", "properties": { "内容": "特別養護老人ホーム寿山荘ブランチさきたま【短期入所生活介護】栃木県那須塩原市埼玉3-17", "url": "https://www.kaigokensaku.mhlw.go.jp/09/index.php?action_kouhyou_detail_004_kani=true&JigyosyoCd=0971300827-00&ServiceCd=210&Type=search", "url2": "http://www.nasubm.co.jp/keifukukai" }, "geometry": { "type": "Point", "coordinates": [ 140.025126, 36.9834644 ] } },
{ "type": "Feature", "properties": { "内容": "短期入所生活介護事業所　あおば【短期入所生活介護】栃木県那須塩原市大原間西1－19－6", "url": "https://www.kaigokensaku.mhlw.go.jp/09/index.php?action_kouhyou_detail_004_kani=true&JigyosyoCd=0971301205-00&ServiceCd=210&Type=search", "url2": "maitokusha.jp" }, "geometry": { "type": "Point", "coordinates": [ 140.015525130024656, 36.929607943873677 ] } },
{ "type": "Feature", "properties": { "内容": "さわやかなすしおばら館【短期入所生活介護】西朝日町3番4号", "url": "https://www.kaigokensaku.mhlw.go.jp/09/index.php?action_kouhyou_detail_004_kani=true&JigyosyoCd=0971301254-00&ServiceCd=210&Type=search", "url2": "https://www.sawayakaclub.jp/nasushiobarakan/" }, "geometry": { "type": "Point", "coordinates": [ 139.98955024954148, 36.887320722385297 ] } },
{ "type": "Feature", "properties": { "内容": "特別養護老人ホーム　生きいきの里【短期入所生活介護】栃木県那須塩原市下田野２８２番地６", "url": "https://www.kaigokensaku.mhlw.go.jp/09/index.php?action_kouhyou_detail_004_kani=true&JigyosyoCd=0972500185-00&ServiceCd=210&Type=search", "url2": "https://www.ikiikinosato.com." }, "geometry": { "type": "Point", "coordinates": [ 139.895481, 36.9417286 ] } },
{ "type": "Feature", "properties": { "内容": "特別養護老人ホーム　栃の実荘【短期入所生活介護】栃木県那須塩原市井口533-11", "url": "https://www.kaigokensaku.mhlw.go.jp/09/index.php?action_kouhyou_detail_004_kani=true&JigyosyoCd=0972500326-00&ServiceCd=210&Type=search", "url2": "http://hoyukai.iuhw.ac.jp/tochinomisou/" }, "geometry": { "type": "Point", "coordinates": [ 139.973968120301436, 36.910638943956464 ] } },
{ "type": "Feature", "properties": { "内容": "特別養護老人ホーム　那須順天荘【短期入所生活介護】栃木県那須塩原市上赤田２３８番地６５８", "url": "https://www.kaigokensaku.mhlw.go.jp/09/index.php?action_kouhyou_detail_004_kani=true&JigyosyoCd=0972500359-00&ServiceCd=210&Type=search", "url2": null }, "geometry": { "type": "Point", "coordinates": [ 139.9475026, 36.9076555 ] } },
{ "type": "Feature", "properties": { "内容": "特別養護老人ホ－ムさちの森【短期入所生活介護】栃木県那須塩原市野間４５３番地２３", "url": "https://www.kaigokensaku.mhlw.go.jp/09/index.php?action_kouhyou_detail_004_kani=true&JigyosyoCd=0971300181-00&ServiceCd=210&Type=search", "url2": "http://www.sachinomori.jp" }, "geometry": { "type": "Point", "coordinates": [ 140.080967399999963, 36.9318491 ] } },
{ "type": "Feature", "properties": { "内容": "ほっと乃木ショートステイ【短期入所生活介護】石林224-5", "url": "https://www.kaigokensaku.mhlw.go.jp/09/index.php?action_kouhyou_detail_004_kani=true&JigyosyoCd=0971301551-00&ServiceCd=210&Type=search", "url2": null }, "geometry": { "type": "Point", "coordinates": [ 140.0060038, 36.8776452 ] } },
{ "type": "Feature", "properties": { "内容": "ショートステイつきみの里【短期入所生活介護】栃木県さくら市氏家3260-3", "url": "https://www.kaigokensaku.mhlw.go.jp/09/index.php?action_kouhyou_detail_004_kani=true&JigyosyoCd=0971400353-00&ServiceCd=210&Type=search", "url2": "http://aibikai.or.jp/publics/index/3/" }, "geometry": { "type": "Point", "coordinates": [ 139.9677035, 36.7048435 ] } },
{ "type": "Feature", "properties": { "内容": "ハートピアさくらの郷【短期入所生活介護】栃木県さくら市喜連川5633", "url": "https://www.kaigokensaku.mhlw.go.jp/09/index.php?action_kouhyou_detail_004_kani=true&JigyosyoCd=0971400148-00&ServiceCd=210&Type=search", "url2": "care-net.biz/12/kazu-corp/onsen.php" }, "geometry": { "type": "Point", "coordinates": [ 140.0334249, 36.7245265 ] } },
{ "type": "Feature", "properties": { "内容": "地域密着型特別養護老人ホーム　而今桜【短期入所生活介護】栃木県さくら市喜連川807-4", "url": "https://www.kaigokensaku.mhlw.go.jp/09/index.php?action_kouhyou_detail_004_kani=true&JigyosyoCd=0971400296-00&ServiceCd=210&Type=search", "url2": "http://www.hoaikai.or.jp/" }, "geometry": { "type": "Point", "coordinates": [ 140.030224827508505, 36.722744318528974 ] } },
{ "type": "Feature", "properties": { "内容": "特別養護老人ホーム　にこんきつれ荘【短期入所生活介護】栃木県さくら市下河戸1942-2", "url": "https://www.kaigokensaku.mhlw.go.jp/09/index.php?action_kouhyou_detail_004_kani=true&JigyosyoCd=0972600126-00&ServiceCd=210&Type=search", "url2": null }, "geometry": { "type": "Point", "coordinates": [ 140.018445700000029, 36.7722645 ] } },
{ "type": "Feature", "properties": { "内容": "特別養護老人ホームエリム【短期入所生活介護】栃木県さくら市鍛冶ケ澤57番地1", "url": "https://www.kaigokensaku.mhlw.go.jp/09/index.php?action_kouhyou_detail_004_kani=true&JigyosyoCd=0972600134-00&ServiceCd=210&Type=search", "url2": null }, "geometry": { "type": "Point", "coordinates": [ 140.026393900000016, 36.6847529 ] } },
{ "type": "Feature", "properties": { "内容": "短期入所生活介護事業所あいぜん【短期入所生活介護】栃木県那須烏山市上境４５８", "url": "https://www.kaigokensaku.mhlw.go.jp/09/index.php?action_kouhyou_detail_004_kani=true&JigyosyoCd=0971500129-00&ServiceCd=210&Type=search", "url2": "https://seisyu-kai.or.jp" }, "geometry": { "type": "Point", "coordinates": [ 140.170213500000045, 36.649686190080836 ] } },
{ "type": "Feature", "properties": { "内容": "特別養護老人ホーム敬愛荘【短期入所生活介護】栃木県那須烏山市滝田１８６７－３", "url": "https://www.kaigokensaku.mhlw.go.jp/09/index.php?action_kouhyou_detail_004_kani=true&JigyosyoCd=0972500342-00&ServiceCd=210&Type=search", "url2": "http://keiaikai.nasukarasuyama.com" }, "geometry": { "type": "Point", "coordinates": [ 140.145622300000014, 36.6769213 ] } },
{ "type": "Feature", "properties": { "内容": "ほっとからすやまショートステイセンター【短期入所生活介護】栃木県那須烏山市野上1623-1", "url": "https://www.kaigokensaku.mhlw.go.jp/09/index.php?action_kouhyou_detail_004_kani=true&JigyosyoCd=0972500839-00&ServiceCd=210&Type=search", "url2": "https://www.hot-claire.co.jp" }, "geometry": { "type": "Point", "coordinates": [ 140.159603899999979, 36.6369904 ] } },
{ "type": "Feature", "properties": { "内容": "ショートステイ大金の里【短期入所生活介護】栃木県那須烏山市田野倉528番地2", "url": "https://www.kaigokensaku.mhlw.go.jp/09/index.php?action_kouhyou_detail_004_kani=true&JigyosyoCd=0971400056-00&ServiceCd=210&Type=search", "url2": "erimu.jp" }, "geometry": { "type": "Point", "coordinates": [ 140.086517800000024, 36.6528951 ] } },
{ "type": "Feature", "properties": { "内容": "ユニット型特別養護老人ホーム愛和苑【短期入所生活介護】栃木県那須烏山市三箇183-1", "url": "https://www.kaigokensaku.mhlw.go.jp/09/index.php?action_kouhyou_detail_004_kani=true&JigyosyoCd=0971500160-00&ServiceCd=210&Type=search", "url2": "www.seisyu-kai.net/" }, "geometry": { "type": "Point", "coordinates": [ 140.0742361, 36.6912674 ] } },
{ "type": "Feature", "properties": { "内容": "特別養護老人ホーム愛和苑【短期入所生活介護】栃木県那須烏山市三箇183-1", "url": "https://www.kaigokensaku.mhlw.go.jp/09/index.php?action_kouhyou_detail_004_kani=true&JigyosyoCd=0972500045-00&ServiceCd=210&Type=search", "url2": "http://www.seisyu-kai.net/" }, "geometry": { "type": "Point", "coordinates": [ 140.0742361, 36.6912674 ] } },
{ "type": "Feature", "properties": { "内容": "特別養護老人ホーム　にらがわの郷【短期入所生活介護】栃木県下野市仁良川１６５１－１", "url": "https://www.kaigokensaku.mhlw.go.jp/09/index.php?action_kouhyou_detail_004_kani=true&JigyosyoCd=0971600226-00&ServiceCd=210&Type=search", "url2": "http://ebihara-med.byoinnavi.jp" }, "geometry": { "type": "Point", "coordinates": [ 139.874829299999988, 36.3721423 ] } },
{ "type": "Feature", "properties": { "内容": "特別養護老人ホームまほろばの里【短期入所生活介護】栃木県下野市箕輪441-1", "url": "https://www.kaigokensaku.mhlw.go.jp/09/index.php?action_kouhyou_detail_004_kani=true&JigyosyoCd=0972300321-00&ServiceCd=210&Type=search", "url2": "http://www.keiwa22.or.jp" }, "geometry": { "type": "Point", "coordinates": [ 139.8288867, 36.3966123 ] } },
{ "type": "Feature", "properties": { "内容": "ふれんどショートステイしもつけ【短期入所生活介護】栃木県下野市薬師寺３１７８－８", "url": "https://www.kaigokensaku.mhlw.go.jp/09/index.php?action_kouhyou_detail_004_kani=true&JigyosyoCd=0971600275-00&ServiceCd=210&Type=search", "url2": "http://www.f-pw.jp/fw.html" }, "geometry": { "type": "Point", "coordinates": [ 139.863963142327862, 36.394830685623113 ] } },
{ "type": "Feature", "properties": { "内容": "日新けあパレス（ショートステイ）【短期入所生活介護】栃木県下野市本吉田771番地1", "url": "https://www.kaigokensaku.mhlw.go.jp/09/index.php?action_kouhyou_detail_004_kani=true&JigyosyoCd=0971600549-00&ServiceCd=210&Type=search", "url2": "https://nissin-care.com" }, "geometry": { "type": "Point", "coordinates": [ 139.9096644, 36.3731266 ] } },
{ "type": "Feature", "properties": { "内容": "短期入所生活介護　欅【短期入所生活介護】栃木県下野市下石橋501番地1", "url": "https://www.kaigokensaku.mhlw.go.jp/09/index.php?action_kouhyou_detail_004_kani=true&JigyosyoCd=0971600606-00&ServiceCd=210&Type=search", "url2": null }, "geometry": { "type": "Point", "coordinates": [ 139.860936017582731, 36.421913133140649 ] } },
{ "type": "Feature", "properties": { "内容": "特別養護老人ホーム煌【短期入所生活介護】栃木県下野市上古山1849‐1", "url": "https://www.kaigokensaku.mhlw.go.jp/09/index.php?action_kouhyou_detail_004_kani=true&JigyosyoCd=0971600804-00&ServiceCd=210&Type=search", "url2": "http://tochinokikai.or.jp" }, "geometry": { "type": "Point", "coordinates": [ 139.859108445924448, 36.467519936886177 ] } },
{ "type": "Feature", "properties": { "内容": "特別養護老人ホーム　天寿荘【短期入所生活介護】栃木県下野市薬師寺1131番地10", "url": "https://www.kaigokensaku.mhlw.go.jp/09/index.php?action_kouhyou_detail_004_kani=true&JigyosyoCd=0972100168-00&ServiceCd=210&Type=search", "url2": null }, "geometry": { "type": "Point", "coordinates": [ 139.86452410000004, 36.3833515 ] } },
{ "type": "Feature", "properties": { "内容": "特別養護老人ホームいしばし【短期入所生活介護】栃木県下野市下古山１１７４", "url": "https://www.kaigokensaku.mhlw.go.jp/09/index.php?action_kouhyou_detail_004_kani=true&JigyosyoCd=0972300305-00&ServiceCd=210&Type=search", "url2": "http://www.tochinokikai.or.jp" }, "geometry": { "type": "Point", "coordinates": [ 139.844825600000036, 36.4450737 ] } },
{ "type": "Feature", "properties": { "内容": "特別養護老人ホーム友愛苑【短期入所生活介護】栃木県河内郡上三川町大字上三川１６３６－２", "url": "https://www.kaigokensaku.mhlw.go.jp/09/index.php?action_kouhyou_detail_004_kani=true&JigyosyoCd=0972100150-00&ServiceCd=210&Type=search", "url2": null }, "geometry": { "type": "Point", "coordinates": [ 139.929842, 36.4337922 ] } },
{ "type": "Feature", "properties": { "内容": "トータスホーム　ショートステイ事業【短期入所生活介護】栃木県河内郡上三川町下神主229-6", "url": "https://www.kaigokensaku.mhlw.go.jp/09/index.php?action_kouhyou_detail_004_kani=true&JigyosyoCd=0972100135-00&ServiceCd=210&Type=search", "url2": "http://www.tortoise-h.jp" }, "geometry": { "type": "Point", "coordinates": [ 139.881703, 36.4524571 ] } },
{ "type": "Feature", "properties": { "内容": "短期入所生活介護事業所　ふじやまの里【短期入所生活介護】栃木県河内郡上三川町大字上三川３９５０番地１", "url": "https://www.kaigokensaku.mhlw.go.jp/09/index.php?action_kouhyou_detail_004_kani=true&JigyosyoCd=0972100622-00&ServiceCd=210&Type=search", "url2": "http://www.fujiyamanosato.or.jp" }, "geometry": { "type": "Point", "coordinates": [ 139.909176600000023, 36.4240473 ] } },
{ "type": "Feature", "properties": { "内容": "特別養護老人ホームましこの里星の宮【短期入所生活介護】栃木県芳賀郡益子町大字塙3385番地", "url": "https://www.kaigokensaku.mhlw.go.jp/09/index.php?action_kouhyou_detail_004_kani=true&JigyosyoCd=0972700983-00&ServiceCd=210&Type=search", "url2": "http://mashikonosato.com/" }, "geometry": { "type": "Point", "coordinates": [ 140.07470503173829, 36.475668801206318 ] } },
{ "type": "Feature", "properties": { "内容": "特別養護老人ホームうぐいすの杜【短期入所生活介護】栃木県芳賀郡茂木町大字茂木1824-28", "url": "https://www.kaigokensaku.mhlw.go.jp/09/index.php?action_kouhyou_detail_004_kani=true&JigyosyoCd=0972701122-00&ServiceCd=210&Type=search", "url2": "https://www.motegi-uguisunomori.com" }, "geometry": { "type": "Point", "coordinates": [ 140.181269175659651, 36.534045003579806 ] } },
{ "type": "Feature", "properties": { "内容": "つつじが丘ショートステイ【短期入所生活介護】栃木県芳賀郡茂木町大字馬門1372番地1", "url": "https://www.kaigokensaku.mhlw.go.jp/09/index.php?action_kouhyou_detail_004_kani=true&JigyosyoCd=0972700660-00&ServiceCd=210&Type=search", "url2": null }, "geometry": { "type": "Point", "coordinates": [ 140.217899, 36.5534429 ] } },
{ "type": "Feature", "properties": { "内容": "せんぼんの家【短期入所生活介護】栃木県芳賀郡茂木町千本452-1", "url": "https://www.kaigokensaku.mhlw.go.jp/09/index.php?action_kouhyou_detail_004_kani=true&JigyosyoCd=0972700967-00&ServiceCd=210&Type=search", "url2": "www.sennbonnoie.sakura.ne.jp" }, "geometry": { "type": "Point", "coordinates": [ 140.145941200000038, 36.5696539 ] } },
{ "type": "Feature", "properties": { "内容": "特別養護老人ホームききょうの里【短期入所生活介護】栃木県芳賀郡茂木町大字飯1694", "url": "https://www.kaigokensaku.mhlw.go.jp/09/index.php?action_kouhyou_detail_004_kani=true&JigyosyoCd=0972700157-00&ServiceCd=210&Type=search", "url2": "https://kikyonosato.jp/" }, "geometry": { "type": "Point", "coordinates": [ 140.170607, 36.474662 ] } },
{ "type": "Feature", "properties": { "内容": "特別養護老人ホーム杉の樹園【短期入所生活介護】栃木県芳賀郡市貝町続谷736番地", "url": "https://www.kaigokensaku.mhlw.go.jp/09/index.php?action_kouhyou_detail_004_kani=true&JigyosyoCd=0972700132-00&ServiceCd=210&Type=search", "url2": "http://suginokien.com" }, "geometry": { "type": "Point", "coordinates": [ 140.125922100000025, 36.5956009 ] } },
{ "type": "Feature", "properties": { "内容": "アットホームたたら【短期入所生活介護】芳賀郡市貝町多田羅７３６－１", "url": "https://www.kaigokensaku.mhlw.go.jp/09/index.php?action_kouhyou_detail_004_kani=true&JigyosyoCd=0972700785-00&ServiceCd=210&Type=search", "url2": "at-home-gr.co.jp" }, "geometry": { "type": "Point", "coordinates": [ 140.089528800000039, 36.5143252 ] } },
{ "type": "Feature", "properties": { "内容": "芳賀ケアセンターそよ風【短期入所生活介護】芳賀郡芳賀町祖母井812-1", "url": "https://www.kaigokensaku.mhlw.go.jp/09/index.php?action_kouhyou_detail_004_kani=true&JigyosyoCd=0972700819-00&ServiceCd=210&Type=search", "url2": null }, "geometry": { "type": "Point", "coordinates": [ 140.060179299999959, 36.5544033 ] } },
{ "type": "Feature", "properties": { "内容": "特別養護老人ホーム　而今荘【短期入所生活介護】栃木県芳賀郡芳賀町大字稲毛田１８８７－４", "url": "https://www.kaigokensaku.mhlw.go.jp/09/index.php?action_kouhyou_detail_004_kani=true&JigyosyoCd=0972700124-00&ServiceCd=210&Type=search", "url2": "http://www.hoaikai.or.jp/" }, "geometry": { "type": "Point", "coordinates": [ 140.071831299999985, 36.5506206 ] } },
{ "type": "Feature", "properties": { "内容": "老人短期入所事業　はがの杜【短期入所生活介護】栃木県芳賀郡芳賀町大字東水沼２９２８番地１", "url": "https://www.kaigokensaku.mhlw.go.jp/09/index.php?action_kouhyou_detail_004_kani=true&JigyosyoCd=0972700959-00&ServiceCd=210&Type=search", "url2": "www.kouseikai-flora.or.jp/" }, "geometry": { "type": "Point", "coordinates": [ 139.999224199999958, 36.5573605 ] } },
{ "type": "Feature", "properties": { "内容": "ショートステイはが【短期入所生活介護】栃木県芳賀郡芳賀町東水沼1163-3", "url": "https://www.kaigokensaku.mhlw.go.jp/09/index.php?action_kouhyou_detail_004_kani=true&JigyosyoCd=0972701023-00&ServiceCd=210&Type=search", "url2": "なし" }, "geometry": { "type": "Point", "coordinates": [ 140.027451700000029, 36.5509977 ] } },
{ "type": "Feature", "properties": { "内容": "ショートステイみぶの杜【短期入所生活介護】栃木県下都賀郡壬生町上稲葉1205-1", "url": "https://www.kaigokensaku.mhlw.go.jp/09/index.php?action_kouhyou_detail_004_kani=true&JigyosyoCd=0972301527-00&ServiceCd=210&Type=search", "url2": "http://www.josai-hp.com/mibunomori/index_mibu.html" }, "geometry": { "type": "Point", "coordinates": [ 139.774497399999973, 36.4553006 ] } },
{ "type": "Feature", "properties": { "内容": "特別養護老人ホーム　しもつけ荘【短期入所生活介護】栃木県下都賀郡壬生町大字北小林812", "url": "https://www.kaigokensaku.mhlw.go.jp/09/index.php?action_kouhyou_detail_004_kani=true&JigyosyoCd=0972300198-00&ServiceCd=210&Type=search", "url2": "http://tochinokikai.or.jp/" }, "geometry": { "type": "Point", "coordinates": [ 139.820687499999963, 36.4751034 ] } },
{ "type": "Feature", "properties": { "内容": "ショートステイおもちゃのまち　えがお【短期入所生活介護】栃木県下都賀郡壬生町大字安塚字拓生3344番地10", "url": "https://www.kaigokensaku.mhlw.go.jp/09/index.php?action_kouhyou_detail_004_kani=true&JigyosyoCd=0972301154-00&ServiceCd=210&Type=search", "url2": "http://care-net.biz/09/egaokai/" }, "geometry": { "type": "Point", "coordinates": [ 139.845244160835222, 36.461729326722136 ] } },
{ "type": "Feature", "properties": { "内容": "地域密着型特別養護老人ホームしもつけ荘【短期入所生活介護】栃木県下都賀郡壬生町北小林812番地", "url": "https://www.kaigokensaku.mhlw.go.jp/09/index.php?action_kouhyou_detail_004_kani=true&JigyosyoCd=0972301352-00&ServiceCd=210&Type=search", "url2": "http://tochinokikai.or.jp/" }, "geometry": { "type": "Point", "coordinates": [ 139.820687499999963, 36.4751034 ] } },
{ "type": "Feature", "properties": { "内容": "特別養護老人ホーム　あいケアステーション六美【短期入所生活介護】栃木県下都賀郡壬生町大字壬生丁９２－２２", "url": "https://www.kaigokensaku.mhlw.go.jp/09/index.php?action_kouhyou_detail_004_kani=true&JigyosyoCd=0972301543-00&ServiceCd=210&Type=search", "url2": "http://kenbikai.net/" }, "geometry": { "type": "Point", "coordinates": [ 139.8272287, 36.4505583 ] } },
{ "type": "Feature", "properties": { "内容": "株式会社　光星電機　みぶケアーズ【短期入所生活介護】栃木県下都賀郡壬生町大字安塚888", "url": "https://www.kaigokensaku.mhlw.go.jp/09/index.php?action_kouhyou_detail_004_kani=true&JigyosyoCd=0972300982-00&ServiceCd=210&Type=search", "url2": "https://mibu-cares.com/" }, "geometry": { "type": "Point", "coordinates": [ 139.828217, 36.4856774 ] } },
{ "type": "Feature", "properties": { "内容": "特別養護老人ホーム　虹の舎【短期入所生活介護】栃木県下都賀郡野木町佐川野1785-1", "url": "https://www.kaigokensaku.mhlw.go.jp/09/index.php?action_kouhyou_detail_004_kani=true&JigyosyoCd=0972300131-00&ServiceCd=210&Type=search", "url2": "http://www.nogihosp.or.jp/" }, "geometry": { "type": "Point", "coordinates": [ 139.767812, 36.2350963 ] } },
{ "type": "Feature", "properties": { "内容": "特別養護老人ホーム　キラリの舎【短期入所生活介護】栃木県下都賀郡野木町南赤塚1218-9", "url": "https://www.kaigokensaku.mhlw.go.jp/09/index.php?action_kouhyou_detail_004_kani=true&JigyosyoCd=0972301329-00&ServiceCd=210&Type=search", "url2": "http://www.nogihosp.or.jp/kirari/index.html" }, "geometry": { "type": "Point", "coordinates": [ 139.747480900000028, 36.2190476 ] } },
{ "type": "Feature", "properties": { "内容": "野木ケアセンターそよ風【短期入所生活介護】栃木県下都賀郡野木町野木1895-1", "url": "https://www.kaigokensaku.mhlw.go.jp/09/index.php?action_kouhyou_detail_004_kani=true&JigyosyoCd=0972301535-00&ServiceCd=210&Type=search", "url2": null }, "geometry": { "type": "Point", "coordinates": [ 139.7129473, 36.2262849 ] } },
{ "type": "Feature", "properties": { "内容": "特別養護老人ホーム　星の郷【短期入所生活介護】栃木県塩谷郡塩谷町田所2191-19", "url": "https://www.kaigokensaku.mhlw.go.jp/09/index.php?action_kouhyou_detail_004_kani=true&JigyosyoCd=0972600696-00&ServiceCd=210&Type=search", "url2": null }, "geometry": { "type": "Point", "coordinates": [ 139.864491, 36.7811183 ] } },
{ "type": "Feature", "properties": { "内容": "特別養護老人ホーム　せせらぎ【短期入所生活介護】栃木県塩谷郡塩谷町大字上沢968番地", "url": "https://www.kaigokensaku.mhlw.go.jp/09/index.php?action_kouhyou_detail_004_kani=true&JigyosyoCd=0972600274-00&ServiceCd=210&Type=search", "url2": "http://www.asunaro-swc.jp/" }, "geometry": { "type": "Point", "coordinates": [ 139.8173124, 36.7567678 ] } },
{ "type": "Feature", "properties": { "内容": "ショートステイしんせい【短期入所生活介護】栃木県塩谷郡塩谷町上寺島584-13", "url": "https://www.kaigokensaku.mhlw.go.jp/09/index.php?action_kouhyou_detail_004_kani=true&JigyosyoCd=0972600613-00&ServiceCd=210&Type=search", "url2": "http://short-stay-shinsei-5.p-kit.com" }, "geometry": { "type": "Point", "coordinates": [ 139.824250900000038, 36.8121474 ] } },
{ "type": "Feature", "properties": { "内容": "特別養護老人ホーム　高根沢のぞみ苑【短期入所生活介護】栃木県塩谷郡高根沢町大字花岡２１５８－１０", "url": "https://www.kaigokensaku.mhlw.go.jp/09/index.php?action_kouhyou_detail_004_kani=true&JigyosyoCd=0972600142-00&ServiceCd=210&Type=search", "url2": "http://kuntoukai.sakura.ne.jp/" }, "geometry": { "type": "Point", "coordinates": [ 140.005520299999944, 36.6408251 ] } },
{ "type": "Feature", "properties": { "内容": "老人短期入所事業フローラりんくる【短期入所生活介護】栃木県塩谷郡高根沢町宝積寺2240番地１特別養護老人ホームフローラりんくる", "url": "https://www.kaigokensaku.mhlw.go.jp/09/index.php?action_kouhyou_detail_004_kani=true&JigyosyoCd=0972600530-00&ServiceCd=210&Type=search", "url2": "http://www.kouseikai-flora.or.jp/" }, "geometry": { "type": "Point", "coordinates": [ 139.990036199999963, 36.6254766 ] } },
{ "type": "Feature", "properties": { "内容": "地域密着型特別養護老人ホームあしの苑【短期入所生活介護】栃木県那須郡那須町大字芦野2165あしの苑", "url": "https://www.kaigokensaku.mhlw.go.jp/09/index.php?action_kouhyou_detail_004_kani=true&JigyosyoCd=0972501647-00&ServiceCd=210&Type=search", "url2": null }, "geometry": { "type": "Point", "coordinates": [ 140.1575212, 36.9885064 ] } },
{ "type": "Feature", "properties": { "内容": "特別養護老人ホーム　ゆたか苑【短期入所生活介護】栃木県那須郡那須町大字豊原乙６２７－９５", "url": "https://www.kaigokensaku.mhlw.go.jp/09/index.php?action_kouhyou_detail_004_kani=true&JigyosyoCd=0972500292-00&ServiceCd=210&Type=search", "url2": "http://www.nasu-kaigo.or.jp" }, "geometry": { "type": "Point", "coordinates": [ 140.126659100000012, 37.0848914 ] } },
{ "type": "Feature", "properties": { "内容": "特別養護老人ホーム　なすの苑【短期入所生活介護】栃木県那須郡那須町大字寺子乙３９１２－５", "url": "https://www.kaigokensaku.mhlw.go.jp/09/index.php?action_kouhyou_detail_004_kani=true&JigyosyoCd=0972501050-00&ServiceCd=210&Type=search", "url2": "http://www.nasu-kaigo.or.jp" }, "geometry": { "type": "Point", "coordinates": [ 140.12546969999994, 37.009805 ] } },
{ "type": "Feature", "properties": { "内容": "特別養護老人ホーム　寿山荘那須【短期入所生活介護】栃木県那須郡那須町大字寺子乙1241-12", "url": "https://www.kaigokensaku.mhlw.go.jp/09/index.php?action_kouhyou_detail_004_kani=true&JigyosyoCd=0972501282-00&ServiceCd=210&Type=search", "url2": "http://www.keifukukai.com" }, "geometry": { "type": "Point", "coordinates": [ 140.093117099999972, 37.0021688 ] } },
{ "type": "Feature", "properties": { "内容": "特別養護老人ホーム和見の里山【短期入所生活介護】栃木県那須郡那珂川町和見１９４０番地１", "url": "https://www.kaigokensaku.mhlw.go.jp/09/index.php?action_kouhyou_detail_004_kani=true&JigyosyoCd=0972501464-00&ServiceCd=210&Type=search", "url2": null }, "geometry": { "type": "Point", "coordinates": [ 140.174255099999982, 36.7659642 ] } },
{ "type": "Feature", "properties": { "内容": "ショートステイかたくりの郷【短期入所生活介護】栃木県那須郡那珂川町小川２９５８－２", "url": "https://www.kaigokensaku.mhlw.go.jp/09/index.php?action_kouhyou_detail_004_kani=true&JigyosyoCd=0972501142-00&ServiceCd=210&Type=search", "url2": "http://www.katakurinosato.jp" }, "geometry": { "type": "Point", "coordinates": [ 140.119761899999958, 36.7607799 ] } }
]
}
