{
"type": "FeatureCollection",
"name": "geo_09_各種学校",
"crs": { "type": "name", "properties": { "name": "urn:ogc:def:crs:EPSG::6668" } },
"features": [
{ "type": "Feature", "properties": { "P29_001": "09201", "P29_002": "H209310000014", "P29_003": "16015", "P29_004": "宇都宮服装文化学院", "P29_005": "栃木県宇都宮市池上町4-3", "P29_006": "4", "P29_007": "0", "P29_008": "00", "P29_009": null }, "geometry": { "type": "Point", "coordinates": [ 139.881018365643541, 36.561400963544266 ] } },
{ "type": "Feature", "properties": { "P29_001": "09201", "P29_002": "H209310000023", "P29_003": "16015", "P29_004": "増美文化服装学院", "P29_005": "栃木県宇都宮市泉町4-1", "P29_006": "4", "P29_007": "0", "P29_008": "00", "P29_009": null }, "geometry": { "type": "Point", "coordinates": [ 139.877860647224566, 36.564166946961649 ] } },
{ "type": "Feature", "properties": { "P29_001": "09204", "P29_002": "H209310000032", "P29_003": "16015", "P29_004": "こだま文化服装学院", "P29_005": "栃木県佐野市上台町2131", "P29_006": "4", "P29_007": "0", "P29_008": "00", "P29_009": null }, "geometry": { "type": "Point", "coordinates": [ 139.57754596175181, 36.307675721071078 ] } },
{ "type": "Feature", "properties": { "P29_001": "09203", "P29_002": "H209310000041", "P29_003": "16015", "P29_004": "日本簿記学校", "P29_005": "栃木県栃木市万町27-25", "P29_006": "4", "P29_007": "0", "P29_008": "00", "P29_009": null }, "geometry": { "type": "Point", "coordinates": [ 139.737115431283172, 36.382394599584714 ] } },
{ "type": "Feature", "properties": { "P29_001": "09208", "P29_002": "H209310000050", "P29_003": "16015", "P29_004": "小山珠算学院", "P29_005": "栃木県小山市若木町1-3-27", "P29_006": "4", "P29_007": "0", "P29_008": "00", "P29_009": null }, "geometry": { "type": "Point", "coordinates": [ 139.802315238317021, 36.322009704416303 ] } },
{ "type": "Feature", "properties": { "P29_001": "09209", "P29_002": "H209310000069", "P29_003": "16015", "P29_004": "真岡珠算簿記学校", "P29_005": "栃木県真岡市台町2343", "P29_006": "4", "P29_007": "0", "P29_008": "00", "P29_009": null }, "geometry": { "type": "Point", "coordinates": [ 140.004396951012467, 36.441234749240905 ] } },
{ "type": "Feature", "properties": { "P29_001": "09214", "P29_002": "H209310000087", "P29_003": "16015", "P29_004": "見目計算実務学校", "P29_005": "栃木県さくら市喜連川3919", "P29_006": "4", "P29_007": "0", "P29_008": "00", "P29_009": null }, "geometry": { "type": "Point", "coordinates": [ 140.027294554540191, 36.720210146803161 ] } },
{ "type": "Feature", "properties": { "P29_001": "09201", "P29_002": "H209310000096", "P29_003": "16015", "P29_004": "宇都宮病院附属准看護学校", "P29_005": "栃木県宇都宮市陽南4-6-34", "P29_006": "4", "P29_007": "0", "P29_008": "00", "P29_009": null }, "geometry": { "type": "Point", "coordinates": [ 139.866897534002049, 36.535935934209284 ] } },
{ "type": "Feature", "properties": { "P29_001": "09202", "P29_002": "H209310000103", "P29_003": "16015", "P29_004": "足利市医師会付属准看護学校", "P29_005": "栃木県足利市大正町863-6", "P29_006": "4", "P29_007": "0", "P29_008": "00", "P29_009": null }, "geometry": { "type": "Point", "coordinates": [ 139.449865658549157, 36.34217486415919 ] } },
{ "type": "Feature", "properties": { "P29_001": "09204", "P29_002": "H209310000112", "P29_003": "16015", "P29_004": "佐野市医師会附属佐野准看護学校", "P29_005": "栃木県佐野市植上町1678", "P29_006": "4", "P29_007": "0", "P29_008": "00", "P29_009": null }, "geometry": { "type": "Point", "coordinates": [ 139.582104470974116, 36.303596626394899 ] } },
{ "type": "Feature", "properties": { "P29_001": "09205", "P29_002": "H209310000121", "P29_003": "16015", "P29_004": "上都賀郡市医師会附属准看護学校", "P29_005": "栃木県鹿沼市上久我60-3", "P29_006": "4", "P29_007": "0", "P29_008": "00", "P29_009": null }, "geometry": { "type": "Point", "coordinates": [ 139.650926547325327, 36.592349774685154 ] } },
{ "type": "Feature", "properties": { "P29_001": "09201", "P29_002": "H209310000130", "P29_003": "16015", "P29_004": "昇玉学院", "P29_005": "栃木県宇都宮市清住1-3-30", "P29_006": "4", "P29_007": "0", "P29_008": "00", "P29_009": null }, "geometry": { "type": "Point", "coordinates": [ 139.878306843021136, 36.564934952686144 ] } },
{ "type": "Feature", "properties": { "P29_001": "09201", "P29_002": "H209310000149", "P29_003": "16015", "P29_004": "栃木県自動車学校", "P29_005": "栃木県宇都宮市陽南3-11-25", "P29_006": "4", "P29_007": "0", "P29_008": "00", "P29_009": null }, "geometry": { "type": "Point", "coordinates": [ 139.871791671263423, 36.535617352391789 ] } },
{ "type": "Feature", "properties": { "P29_001": "09201", "P29_002": "H209310000158", "P29_003": "16015", "P29_004": "宇都宮タイピスト学院", "P29_005": "栃木県宇都宮市池上町4-10", "P29_006": "4", "P29_007": "0", "P29_008": "00", "P29_009": null }, "geometry": { "type": "Point", "coordinates": [ 139.882068867776184, 36.561388128436832 ] } },
{ "type": "Feature", "properties": { "P29_001": "09208", "P29_002": "H209310000167", "P29_003": "16015", "P29_004": "栃木朝鮮初中級学校", "P29_005": "栃木県小山市中久喜上野原1518", "P29_006": "4", "P29_007": "0", "P29_008": "00", "P29_009": null }, "geometry": { "type": "Point", "coordinates": [ 139.850032514860999, 36.320821700688597 ] } },
{ "type": "Feature", "properties": { "P29_001": "09203", "P29_002": "H209310000176", "P29_003": "16015", "P29_004": "好学院国際学校", "P29_005": "栃木県栃木市大町1-15", "P29_006": "4", "P29_007": "0", "P29_008": "00", "P29_009": null }, "geometry": { "type": "Point", "coordinates": [ 139.735204657305189, 36.3912225348286 ] } },
{ "type": "Feature", "properties": { "P29_001": "09201", "P29_002": "H209310000185", "P29_003": "16015", "P29_004": "セントメリー日本語学院", "P29_005": "栃木県宇都宮市大通り4-2-10", "P29_006": "4", "P29_007": "0", "P29_008": "00", "P29_009": null }, "geometry": { "type": "Point", "coordinates": [ 139.895694298553536, 36.560042063742962 ] } }
]
}
