{
"type": "FeatureCollection",
"name": "geo_09_幼保連携型認定こども園",
"crs": { "type": "name", "properties": { "name": "urn:ogc:def:crs:EPSG::6668" } },
"features": [
{ "type": "Feature", "properties": { "P29_001": "09203", "P29_002": "A209210000011", "P29_003": "16013", "P29_004": "栃木市認定西方なかよしこども園", "P29_005": "栃木県栃木市西方町本郷516-2", "P29_006": "3", "P29_007": "0", "P29_008": "00", "P29_009": null }, "geometry": { "type": "Point", "coordinates": [ 139.737744018543111, 36.449950492914773 ] } },
{ "type": "Feature", "properties": { "P29_001": "09411", "P29_002": "A209210000020", "P29_003": "16013", "P29_004": "那珂川町立わかあゆ認定こども園", "P29_005": "栃木県那須郡那珂川町小川869", "P29_006": "3", "P29_007": "0", "P29_008": "00", "P29_009": null }, "geometry": { "type": "Point", "coordinates": [ 140.13441195197413, 36.763769224178816 ] } },
{ "type": "Feature", "properties": { "P29_001": "09411", "P29_002": "A209210000048", "P29_003": "16013", "P29_004": "那珂川町立ひばり認定こども園", "P29_005": "栃木県那須郡那珂川町和見82-1", "P29_006": "3", "P29_007": "0", "P29_008": "00", "P29_009": null }, "geometry": { "type": "Point", "coordinates": [ 140.162435700840831, 36.746113803356906 ] } },
{ "type": "Feature", "properties": { "P29_001": "09345", "P29_002": "A209310000019", "P29_003": "16013", "P29_004": "幼保連携型　認定ひばりこども園", "P29_005": "栃木県芳賀郡芳賀町芳志戸1024", "P29_006": "4", "P29_007": "0", "P29_008": "00", "P29_009": null }, "geometry": { "type": "Point", "coordinates": [ 140.048433027038811, 36.57565656183548 ] } },
{ "type": "Feature", "properties": { "P29_001": "09201", "P29_002": "A209310000028", "P29_003": "16013", "P29_004": "さくら認定こども園", "P29_005": "栃木県宇都宮市戸祭台44", "P29_006": "4", "P29_007": "0", "P29_008": "00", "P29_009": null }, "geometry": { "type": "Point", "coordinates": [ 139.878525740312398, 36.580828698448819 ] } },
{ "type": "Feature", "properties": { "P29_001": "09201", "P29_002": "A209310000037", "P29_003": "16013", "P29_004": "認定みどりこども園", "P29_005": "栃木県宇都宮市西原町3335-2", "P29_006": "4", "P29_007": "0", "P29_008": "00", "P29_009": null }, "geometry": { "type": "Point", "coordinates": [ 139.885497036129379, 36.543768468789182 ] } },
{ "type": "Feature", "properties": { "P29_001": "09201", "P29_002": "A209310000046", "P29_003": "16013", "P29_004": "みふみ認定こども園", "P29_005": "栃木県宇都宮市富士見が丘4-25-13", "P29_006": "4", "P29_007": "0", "P29_008": "00", "P29_009": null }, "geometry": { "type": "Point", "coordinates": [ 139.886631999692554, 36.590331001411137 ] } },
{ "type": "Feature", "properties": { "P29_001": "09201", "P29_002": "A209310000055", "P29_003": "16013", "P29_004": "認定こども園さくらが丘", "P29_005": "栃木県宇都宮市陽東1-14-1", "P29_006": "4", "P29_007": "0", "P29_008": "00", "P29_009": null }, "geometry": { "type": "Point", "coordinates": [ 139.926394799532716, 36.55098715177165 ] } },
{ "type": "Feature", "properties": { "P29_001": "09201", "P29_002": "A209310000064", "P29_003": "16013", "P29_004": "山王認定こども園", "P29_005": "栃木県宇都宮市徳次郎町508-3", "P29_006": "4", "P29_007": "0", "P29_008": "00", "P29_009": null }, "geometry": { "type": "Point", "coordinates": [ 139.842121076213573, 36.640849419907717 ] } },
{ "type": "Feature", "properties": { "P29_001": "09201", "P29_002": "A209310000073", "P29_003": "16013", "P29_004": "認定しらゆりこども園", "P29_005": "栃木県宇都宮市若草4-13-12", "P29_006": "4", "P29_007": "0", "P29_008": "00", "P29_009": null }, "geometry": { "type": "Point", "coordinates": [ 139.85761043462162, 36.585892503782809 ] } },
{ "type": "Feature", "properties": { "P29_001": "09201", "P29_002": "A209310000082", "P29_003": "16013", "P29_004": "さかえ認定こども園", "P29_005": "栃木県宇都宮市兵庫塚3-8-13", "P29_006": "4", "P29_007": "0", "P29_008": "00", "P29_009": null }, "geometry": { "type": "Point", "coordinates": [ 139.855975420153385, 36.498287777529164 ] } },
{ "type": "Feature", "properties": { "P29_001": "09201", "P29_002": "A209310000091", "P29_003": "16013", "P29_004": "認定すずめこども園", "P29_005": "栃木県宇都宮市五代3-1-9", "P29_006": "4", "P29_007": "0", "P29_008": "00", "P29_009": null }, "geometry": { "type": "Point", "coordinates": [ 139.863913086834657, 36.498064460961039 ] } },
{ "type": "Feature", "properties": { "P29_001": "09201", "P29_002": "A209310000108", "P29_003": "16013", "P29_004": "認定こども園駒生幼稚園", "P29_005": "栃木県宇都宮市駒生町3360-36", "P29_006": "4", "P29_007": "0", "P29_008": "00", "P29_009": null }, "geometry": { "type": "Point", "coordinates": [ 139.850518923243584, 36.577960557740269 ] } },
{ "type": "Feature", "properties": { "P29_001": "09201", "P29_002": "A209310000117", "P29_003": "16013", "P29_004": "八幡台認定こども園", "P29_005": "栃木県宇都宮市八幡台14-21", "P29_006": "4", "P29_007": "0", "P29_008": "00", "P29_009": null }, "geometry": { "type": "Point", "coordinates": [ 139.888060513063436, 36.578630687291088 ] } },
{ "type": "Feature", "properties": { "P29_001": "09201", "P29_002": "A209310000126", "P29_003": "16013", "P29_004": "風と緑の認定こども園", "P29_005": "栃木県宇都宮市下栗町631-2", "P29_006": "4", "P29_007": "0", "P29_008": "00", "P29_009": null }, "geometry": { "type": "Point", "coordinates": [ 139.915820679473995, 36.512625054265364 ] } },
{ "type": "Feature", "properties": { "P29_001": "09202", "P29_002": "A209310000135", "P29_003": "16013", "P29_004": "認定こども園友愛幼稚園", "P29_005": "栃木県足利市通5-3437", "P29_006": "4", "P29_007": "0", "P29_008": "00", "P29_009": null }, "geometry": { "type": "Point", "coordinates": [ 139.442746003115275, 36.336014999447443 ] } },
{ "type": "Feature", "properties": { "P29_001": "09202", "P29_002": "A209310000144", "P29_003": "16013", "P29_004": "認定こども園東光寺幼稚園", "P29_005": "栃木県足利市葉鹿町224", "P29_006": "4", "P29_007": "0", "P29_008": "00", "P29_009": null }, "geometry": { "type": "Point", "coordinates": [ 139.382594901201855, 36.365984473553667 ] } },
{ "type": "Feature", "properties": { "P29_001": "09202", "P29_002": "A209310000153", "P29_003": "16013", "P29_004": "幼保連携型認定こども園足利しらゆり幼稚園", "P29_005": "栃木県足利市田中町943-11", "P29_006": "4", "P29_007": "0", "P29_008": "00", "P29_009": null }, "geometry": { "type": "Point", "coordinates": [ 139.44838490273284, 36.324861723205395 ] } },
{ "type": "Feature", "properties": { "P29_001": "09203", "P29_002": "A209310000162", "P29_003": "16013", "P29_004": "認定こども園しずわでら幼稚園", "P29_005": "栃木県栃木市岩舟町静和1151-4", "P29_006": "4", "P29_007": "0", "P29_008": "00", "P29_009": null }, "geometry": { "type": "Point", "coordinates": [ 139.692371522124972, 36.327898546110866 ] } },
{ "type": "Feature", "properties": { "P29_001": "09203", "P29_002": "A209310000171", "P29_003": "16013", "P29_004": "幼保連携型認定こども園バンビ幼稚園", "P29_005": "栃木県栃木市藤岡町大前358-1", "P29_006": "4", "P29_007": "0", "P29_008": "00", "P29_009": null }, "geometry": { "type": "Point", "coordinates": [ 139.651240594201596, 36.27526157195166 ] } },
{ "type": "Feature", "properties": { "P29_001": "09203", "P29_002": "A209310000180", "P29_003": "16013", "P29_004": "認定こども園ふじおか幼稚園", "P29_005": "栃木県栃木市藤岡町藤岡6466-7", "P29_006": "4", "P29_007": "0", "P29_008": "00", "P29_009": null }, "geometry": { "type": "Point", "coordinates": [ 139.657641475435639, 36.268984627498256 ] } },
{ "type": "Feature", "properties": { "P29_001": "09204", "P29_002": "A209310000199", "P29_003": "16013", "P29_004": "認定こども園育成館幼稚園", "P29_005": "栃木県佐野市大町2989", "P29_006": "4", "P29_007": "0", "P29_008": "00", "P29_009": null }, "geometry": { "type": "Point", "coordinates": [ 139.571820394491027, 36.314369994224307 ] } },
{ "type": "Feature", "properties": { "P29_001": "09204", "P29_002": "A209310000206", "P29_003": "16013", "P29_004": "認定こども園あかみ幼稚園", "P29_005": "栃木県佐野市赤見町2041", "P29_006": "4", "P29_007": "0", "P29_008": "00", "P29_009": null }, "geometry": { "type": "Point", "coordinates": [ 139.544979910073408, 36.350225771221282 ] } },
{ "type": "Feature", "properties": { "P29_001": "09204", "P29_002": "A209310000215", "P29_003": "16013", "P29_004": "認定こども園こばと", "P29_005": "栃木県佐野市田沼町38-3", "P29_006": "4", "P29_007": "0", "P29_008": "00", "P29_009": null }, "geometry": { "type": "Point", "coordinates": [ 139.573181222856078, 36.360577940921665 ] } },
{ "type": "Feature", "properties": { "P29_001": "09204", "P29_002": "A209310000224", "P29_003": "16013", "P29_004": "洗心幼稚園　認定こども園", "P29_005": "栃木県佐野市久保町38-1", "P29_006": "4", "P29_007": "0", "P29_008": "00", "P29_009": null }, "geometry": { "type": "Point", "coordinates": [ 139.585041760346314, 36.314793935651544 ] } },
{ "type": "Feature", "properties": { "P29_001": "09208", "P29_002": "A209310000233", "P29_003": "16013", "P29_004": "認定とまとこども園", "P29_005": "栃木県小山市下泉488-3", "P29_006": "4", "P29_007": "0", "P29_008": "00", "P29_009": null }, "geometry": { "type": "Point", "coordinates": [ 139.738421787535572, 36.304250368331154 ] } },
{ "type": "Feature", "properties": { "P29_001": "09209", "P29_002": "A209310000242", "P29_003": "16013", "P29_004": "認定こども園せんだん幼稚園", "P29_005": "栃木県真岡市久下田794", "P29_006": "4", "P29_007": "0", "P29_008": "00", "P29_009": null }, "geometry": { "type": "Point", "coordinates": [ 139.970166390718333, 36.373487990056574 ] } },
{ "type": "Feature", "properties": { "P29_001": "09209", "P29_002": "A209310000251", "P29_003": "16013", "P29_004": "にのみや認定こども園", "P29_005": "栃木県真岡市久下田1751", "P29_006": "4", "P29_007": "0", "P29_008": "00", "P29_009": null }, "geometry": { "type": "Point", "coordinates": [ 139.9591600243036, 36.38287317121685 ] } },
{ "type": "Feature", "properties": { "P29_001": "09209", "P29_002": "A209310000260", "P29_003": "16013", "P29_004": "認定こども園牧が丘幼稚園", "P29_005": "栃木県真岡市西高間木515", "P29_006": "4", "P29_007": "0", "P29_008": "00", "P29_009": null }, "geometry": { "type": "Point", "coordinates": [ 139.981793782764981, 36.443213046251756 ] } },
{ "type": "Feature", "properties": { "P29_001": "09209", "P29_002": "A209310000279", "P29_003": "16013", "P29_004": "認定こども園真岡ふたば幼稚園・いちごの杜保育園", "P29_005": "栃木県真岡市東大島1081", "P29_006": "4", "P29_007": "0", "P29_008": "00", "P29_009": null }, "geometry": { "type": "Point", "coordinates": [ 140.021221772642065, 36.404923437701171 ] } },
{ "type": "Feature", "properties": { "P29_001": "09210", "P29_002": "A209310000288", "P29_003": "16013", "P29_004": "認定こども園黒羽幼稚園", "P29_005": "栃木県大田原市蜂巣10-27", "P29_006": "4", "P29_007": "0", "P29_008": "00", "P29_009": null }, "geometry": { "type": "Point", "coordinates": [ 140.112696012564243, 36.87643915763541 ] } },
{ "type": "Feature", "properties": { "P29_001": "09213", "P29_002": "A209310000297", "P29_003": "16013", "P29_004": "すぎのこ幼稚園　認定こども園", "P29_005": "栃木県那須塩原市扇町3-30", "P29_006": "4", "P29_007": "0", "P29_008": "00", "P29_009": null }, "geometry": { "type": "Point", "coordinates": [ 139.984249680566052, 36.883321110971742 ] } },
{ "type": "Feature", "properties": { "P29_001": "09213", "P29_002": "A209310000304", "P29_003": "16013", "P29_004": "虹ヶ丘認定こども園", "P29_005": "栃木県那須塩原市黒磯6-38", "P29_006": "4", "P29_007": "0", "P29_008": "00", "P29_009": null }, "geometry": { "type": "Point", "coordinates": [ 140.067623643542902, 36.970691850290081 ] } },
{ "type": "Feature", "properties": { "P29_001": "09213", "P29_002": "A209310000313", "P29_003": "16013", "P29_004": "認定あけぼのこども園", "P29_005": "栃木県那須塩原市上厚崎523-3", "P29_006": "4", "P29_007": "0", "P29_008": "00", "P29_009": null }, "geometry": { "type": "Point", "coordinates": [ 140.035082084382339, 36.950153112560386 ] } },
{ "type": "Feature", "properties": { "P29_001": "09213", "P29_002": "A209310000322", "P29_003": "16013", "P29_004": "認定こども園マロニエ幼稚園", "P29_005": "栃木県那須塩原市埼玉8-478", "P29_006": "4", "P29_007": "0", "P29_008": "00", "P29_009": null }, "geometry": { "type": "Point", "coordinates": [ 140.027350143878095, 36.976139299829477 ] } },
{ "type": "Feature", "properties": { "P29_001": "09213", "P29_002": "A209310000331", "P29_003": "16013", "P29_004": "黒磯いずみ幼稚園　認定こども園", "P29_005": "栃木県那須塩原市島方451-33", "P29_006": "4", "P29_007": "0", "P29_008": "00", "P29_009": null }, "geometry": { "type": "Point", "coordinates": [ 140.009423550578703, 36.929193885911154 ] } },
{ "type": "Feature", "properties": { "P29_001": "09214", "P29_002": "A209310000340", "P29_003": "16013", "P29_004": "認定こども園きつれ川幼稚園", "P29_005": "栃木県さくら市下河戸1934-2", "P29_006": "4", "P29_007": "0", "P29_008": "00", "P29_009": null }, "geometry": { "type": "Point", "coordinates": [ 140.019738857199201, 36.769849895328584 ] } },
{ "type": "Feature", "properties": { "P29_001": "09215", "P29_002": "A209310000359", "P29_003": "16013", "P29_004": "認定こども園烏山みどり幼稚園", "P29_005": "栃木県那須烏山市金井1-5-16", "P29_006": "4", "P29_007": "0", "P29_008": "00", "P29_009": null }, "geometry": { "type": "Point", "coordinates": [ 140.152634724430243, 36.65477158368882 ] } },
{ "type": "Feature", "properties": { "P29_001": "09216", "P29_002": "A209310000368", "P29_003": "16013", "P29_004": "認定こども園　第二愛泉幼稚園", "P29_005": "栃木県下野市柴1403-12", "P29_006": "4", "P29_007": "0", "P29_008": "00", "P29_009": null }, "geometry": { "type": "Point", "coordinates": [ 139.853531649528662, 36.377691561775805 ] } },
{ "type": "Feature", "properties": { "P29_001": "09216", "P29_002": "A209310000377", "P29_003": "16013", "P29_004": "認定こども園むつみこども園", "P29_005": "栃木県下野市柴769-17", "P29_006": "4", "P29_007": "0", "P29_008": "00", "P29_009": null }, "geometry": { "type": "Point", "coordinates": [ 139.844919207678487, 36.367882275859756 ] } },
{ "type": "Feature", "properties": { "P29_001": "09342", "P29_002": "A209310000386", "P29_003": "16013", "P29_004": "認定こども園七井幼稚園", "P29_005": "栃木県芳賀郡益子町大沢1456-2", "P29_006": "4", "P29_007": "0", "P29_008": "00", "P29_009": null }, "geometry": { "type": "Point", "coordinates": [ 140.097214728626142, 36.492032845870298 ] } },
{ "type": "Feature", "properties": { "P29_001": "09343", "P29_002": "A209310000395", "P29_003": "16013", "P29_004": "認定こども園茂木愛泉幼稚園", "P29_005": "栃木県芳賀郡茂木町坂井653-1", "P29_006": "4", "P29_007": "0", "P29_008": "00", "P29_009": null }, "geometry": { "type": "Point", "coordinates": [ 140.167125403812349, 36.540465124758455 ] } },
{ "type": "Feature", "properties": { "P29_001": "09364", "P29_002": "A209310000402", "P29_003": "16013", "P29_004": "幼保連携型認定こども園野木幼稚園", "P29_005": "栃木県下都賀郡野木町友沼5883-2", "P29_006": "4", "P29_007": "0", "P29_008": "00", "P29_009": null }, "geometry": { "type": "Point", "coordinates": [ 139.727861838409297, 36.223461583691602 ] } },
{ "type": "Feature", "properties": { "P29_001": "09342", "P29_002": "A209310000411", "P29_003": "16013", "P29_004": "認定こども園たから幼稚園", "P29_005": "栃木県芳賀郡益子町益子2936-1", "P29_006": "4", "P29_007": "0", "P29_008": "00", "P29_009": null }, "geometry": { "type": "Point", "coordinates": [ 140.100836435386157, 36.464728426144411 ] } },
{ "type": "Feature", "properties": { "P29_001": "09344", "P29_002": "A209310000420", "P29_003": "16013", "P29_004": "認定こども園市貝たいよう幼稚園", "P29_005": "栃木県芳賀郡市貝町市塙1096", "P29_006": "4", "P29_007": "0", "P29_008": "00", "P29_009": null }, "geometry": { "type": "Point", "coordinates": [ 140.102718419236282, 36.546489804518757 ] } },
{ "type": "Feature", "properties": { "P29_001": "09201", "P29_002": "A209310000439", "P29_003": "16013", "P29_004": "認定こども園平出むつみ幼稚園", "P29_005": "栃木県宇都宮市平出町22-1", "P29_006": "4", "P29_007": "0", "P29_008": "00", "P29_009": null }, "geometry": { "type": "Point", "coordinates": [ 139.937353317014583, 36.556468402071907 ] } },
{ "type": "Feature", "properties": { "P29_001": "09202", "P29_002": "A209310000448", "P29_003": "16013", "P29_004": "認定こども園足利幼稚園", "P29_005": "栃木県足利市家富町2188", "P29_006": "4", "P29_007": "0", "P29_008": "00", "P29_009": null }, "geometry": { "type": "Point", "coordinates": [ 139.449946775709179, 36.33829315530047 ] } },
{ "type": "Feature", "properties": { "P29_001": "09203", "P29_002": "A209310000457", "P29_003": "16013", "P29_004": "認定こども園アルス幼稚園", "P29_005": "栃木県栃木市柳町1-20-1", "P29_006": "4", "P29_007": "0", "P29_008": "00", "P29_009": null }, "geometry": { "type": "Point", "coordinates": [ 139.724979927795516, 36.374519280663776 ] } },
{ "type": "Feature", "properties": { "P29_001": "09203", "P29_002": "A209310000466", "P29_003": "16013", "P29_004": "認定こども園おおみや幼児教育センター", "P29_005": "栃木県栃木市大宮町1647-3", "P29_006": "4", "P29_007": "0", "P29_008": "00", "P29_009": null }, "geometry": { "type": "Point", "coordinates": [ 139.757943319286227, 36.391870574085587 ] } },
{ "type": "Feature", "properties": { "P29_001": "09203", "P29_002": "A209310000475", "P29_003": "16013", "P29_004": "認定こども園大平みなみ幼稚園", "P29_005": "栃木県栃木市大平町西水代1742-1", "P29_006": "4", "P29_007": "0", "P29_008": "00", "P29_009": null }, "geometry": { "type": "Point", "coordinates": [ 139.713113554079712, 36.316046211005322 ] } },
{ "type": "Feature", "properties": { "P29_001": "09203", "P29_002": "A209310000484", "P29_003": "16013", "P29_004": "認定こども園いわふね幼稚園", "P29_005": "栃木県栃木市岩舟町静622", "P29_006": "4", "P29_007": "0", "P29_008": "00", "P29_009": null }, "geometry": { "type": "Point", "coordinates": [ 139.659725781623962, 36.320621130819227 ] } },
{ "type": "Feature", "properties": { "P29_001": "09203", "P29_002": "A209310000493", "P29_003": "16013", "P29_004": "認定こども園さくら", "P29_005": "栃木県栃木市泉川町651-1", "P29_006": "4", "P29_007": "0", "P29_008": "00", "P29_009": null }, "geometry": { "type": "Point", "coordinates": [ 139.712564015993109, 36.384502292646921 ] } },
{ "type": "Feature", "properties": { "P29_001": "09208", "P29_002": "A209310000509", "P29_003": "16013", "P29_004": "認定間々田こども園", "P29_005": "栃木県小山市乙女3-1-6", "P29_006": "4", "P29_007": "0", "P29_008": "00", "P29_009": null }, "geometry": { "type": "Point", "coordinates": [ 139.762904541787293, 36.262519723384663 ] } },
{ "type": "Feature", "properties": { "P29_001": "09208", "P29_002": "A209310000518", "P29_003": "16013", "P29_004": "認定こども園小山幼稚園", "P29_005": "栃木県小山市東城南5-23-7", "P29_006": "4", "P29_007": "0", "P29_008": "00", "P29_009": null }, "geometry": { "type": "Point", "coordinates": [ 139.807589450191216, 36.289085005824028 ] } },
{ "type": "Feature", "properties": { "P29_001": "09208", "P29_002": "A209310000536", "P29_003": "16013", "P29_004": "認定こども園のぶしま幼稚園", "P29_005": "栃木県小山市大字延島96", "P29_006": "4", "P29_007": "0", "P29_008": "00", "P29_009": null }, "geometry": { "type": "Point", "coordinates": [ 139.897486692270633, 36.348901147317356 ] } },
{ "type": "Feature", "properties": { "P29_001": "09208", "P29_002": "A209310000545", "P29_003": "16013", "P29_004": "認定おおやこども園", "P29_005": "栃木県小山市大字東野田2130-1", "P29_006": "4", "P29_007": "0", "P29_008": "00", "P29_009": null }, "geometry": { "type": "Point", "coordinates": [ 139.804320302557841, 36.256961687063921 ] } },
{ "type": "Feature", "properties": { "P29_001": "09208", "P29_002": "A209310000554", "P29_003": "16013", "P29_004": "認定こども園生井ゆりかご幼稚園", "P29_005": "栃木県小山市上生井679-3", "P29_006": "4", "P29_007": "0", "P29_008": "00", "P29_009": null }, "geometry": { "type": "Point", "coordinates": [ 139.712612878765839, 36.253439858182766 ] } },
{ "type": "Feature", "properties": { "P29_001": "09209", "P29_002": "A209310000563", "P29_003": "16013", "P29_004": "認定こども園高ノ台幼稚園", "P29_005": "栃木県真岡市台町2323-1", "P29_006": "4", "P29_007": "0", "P29_008": "00", "P29_009": null }, "geometry": { "type": "Point", "coordinates": [ 140.006352737001379, 36.440982429103606 ] } },
{ "type": "Feature", "properties": { "P29_001": "09209", "P29_002": "A209310000572", "P29_003": "16013", "P29_004": "認定こども園真岡ひかり幼稚園", "P29_005": "栃木県真岡市寺内75", "P29_006": "4", "P29_007": "0", "P29_008": "00", "P29_009": null }, "geometry": { "type": "Point", "coordinates": [ 139.959416660639704, 36.39957299853026 ] } },
{ "type": "Feature", "properties": { "P29_001": "09209", "P29_002": "A209310000581", "P29_003": "16013", "P29_004": "萌丘幼稚園認定こども園", "P29_005": "栃木県真岡市熊倉町4795-3", "P29_006": "4", "P29_007": "0", "P29_008": "00", "P29_009": null }, "geometry": { "type": "Point", "coordinates": [ 139.99644964597087, 36.448945453677595 ] } },
{ "type": "Feature", "properties": { "P29_001": "09213", "P29_002": "A209310000590", "P29_003": "16013", "P29_004": "認定こども園黒磯幼稚園", "P29_005": "栃木県那須塩原市住吉町2-8", "P29_006": "4", "P29_007": "0", "P29_008": "00", "P29_009": null }, "geometry": { "type": "Point", "coordinates": [ 140.050534405720839, 36.966720841089575 ] } },
{ "type": "Feature", "properties": { "P29_001": "09216", "P29_002": "A209310000607", "P29_003": "16013", "P29_004": "認定こども園第二薬師寺幼稚園", "P29_005": "栃木県下野市祇園4-6-3", "P29_006": "4", "P29_007": "0", "P29_008": "00", "P29_009": null }, "geometry": { "type": "Point", "coordinates": [ 139.860316456583973, 36.390932719676414 ] } },
{ "type": "Feature", "properties": { "P29_001": "09216", "P29_002": "A209310000616", "P29_003": "16013", "P29_004": "認定こども園愛泉幼稚園", "P29_005": "栃木県下野市小金井4-12-8", "P29_006": "4", "P29_007": "0", "P29_008": "00", "P29_009": null }, "geometry": { "type": "Point", "coordinates": [ 139.83905203549088, 36.37954108256735 ] } },
{ "type": "Feature", "properties": { "P29_001": "09213", "P29_002": "A209310000625", "P29_003": "16013", "P29_004": "塩原認定こども園", "P29_005": "栃木県那須塩原市塩原652-1", "P29_006": "4", "P29_007": "0", "P29_008": "00", "P29_009": null }, "geometry": { "type": "Point", "coordinates": [ 139.822577986580058, 36.970624045583989 ] } },
{ "type": "Feature", "properties": { "P29_001": "09201", "P29_002": "A209310000634", "P29_003": "16013", "P29_004": "認定こども園あつみ幼稚園", "P29_005": "栃木県宇都宮市幕田町749-3", "P29_006": "4", "P29_007": "0", "P29_008": "00", "P29_009": null }, "geometry": { "type": "Point", "coordinates": [ 139.841856262740805, 36.507243671305027 ] } },
{ "type": "Feature", "properties": { "P29_001": "09201", "P29_002": "A209310000643", "P29_003": "16013", "P29_004": "認定こども園さくらんぼ幼稚園", "P29_005": "栃木県宇都宮市松原2-7-42", "P29_006": "4", "P29_007": "0", "P29_008": "00", "P29_009": null }, "geometry": { "type": "Point", "coordinates": [ 139.871401554131126, 36.573611959428661 ] } },
{ "type": "Feature", "properties": { "P29_001": "09202", "P29_002": "A209310000652", "P29_003": "16013", "P29_004": "幼保連携型認定こども園足利いずみ幼稚園", "P29_005": "栃木県足利市五十部町155-5", "P29_006": "4", "P29_007": "0", "P29_008": "00", "P29_009": null }, "geometry": { "type": "Point", "coordinates": [ 139.415068247758313, 36.343022528529843 ] } },
{ "type": "Feature", "properties": { "P29_001": "09202", "P29_002": "A209310000661", "P29_003": "16013", "P29_004": "幼保連携型認定こども園花園幼稚園", "P29_005": "栃木県足利市大町2-6", "P29_006": "4", "P29_007": "0", "P29_008": "00", "P29_009": null }, "geometry": { "type": "Point", "coordinates": [ 139.454820704378932, 36.335905126686214 ] } },
{ "type": "Feature", "properties": { "P29_001": "09202", "P29_002": "A209310000670", "P29_003": "16013", "P29_004": "幼保連携型認定こども園足利こばと幼稚園", "P29_005": "栃木県足利市堀込町2973", "P29_006": "4", "P29_007": "0", "P29_008": "00", "P29_009": null }, "geometry": { "type": "Point", "coordinates": [ 139.438567195668753, 36.316057276719668 ] } },
{ "type": "Feature", "properties": { "P29_001": "09202", "P29_002": "A209310000689", "P29_003": "16013", "P29_004": "幼保連携型認定こども園旭幼稚園", "P29_005": "栃木県足利市大沼田町747", "P29_006": "4", "P29_007": "0", "P29_008": "00", "P29_009": null }, "geometry": { "type": "Point", "coordinates": [ 139.500768068204337, 36.329895675997406 ] } },
{ "type": "Feature", "properties": { "P29_001": "09204", "P29_002": "A209310000698", "P29_003": "16013", "P29_004": "認定こども園犬伏幼稚園", "P29_005": "栃木県佐野市犬伏下町1779-1", "P29_006": "4", "P29_007": "0", "P29_008": "00", "P29_009": null }, "geometry": { "type": "Point", "coordinates": [ 139.601065087495101, 36.321112968929341 ] } },
{ "type": "Feature", "properties": { "P29_001": "09206", "P29_002": "A209310000705", "P29_003": "16013", "P29_004": "認定こども園清滝幼稚園", "P29_005": "栃木県日光市清滝安良沢町1728-1", "P29_006": "4", "P29_007": "0", "P29_008": "00", "P29_009": null }, "geometry": { "type": "Point", "coordinates": [ 139.573161206736927, 36.749249605727002 ] } },
{ "type": "Feature", "properties": { "P29_001": "09208", "P29_002": "A209310000714", "P29_003": "16013", "P29_004": "認定こども園梅ヶ原幼稚園", "P29_005": "栃木県小山市城東5-11-20", "P29_006": "4", "P29_007": "0", "P29_008": "00", "P29_009": null }, "geometry": { "type": "Point", "coordinates": [ 139.820920419786489, 36.313114758637845 ] } },
{ "type": "Feature", "properties": { "P29_001": "09208", "P29_002": "A209310000723", "P29_003": "16013", "P29_004": "認定こども園みのり幼稚園", "P29_005": "栃木県小山市萩島56", "P29_006": "4", "P29_007": "0", "P29_008": "00", "P29_009": null }, "geometry": { "type": "Point", "coordinates": [ 139.772737442997368, 36.31286561738689 ] } },
{ "type": "Feature", "properties": { "P29_001": "09210", "P29_002": "A209310000732", "P29_003": "16013", "P29_004": "国際医療福祉大学金丸こども園", "P29_005": "栃木県大田原市北金丸1863-101", "P29_006": "4", "P29_007": "0", "P29_008": "00", "P29_009": null }, "geometry": { "type": "Point", "coordinates": [ 140.068277723725288, 36.872691617708952 ] } },
{ "type": "Feature", "properties": { "P29_001": "09215", "P29_002": "A209310000741", "P29_003": "16013", "P29_004": "認定こども園烏山聖マリア幼稚園", "P29_005": "栃木県那須烏山市南1-9-19", "P29_006": "4", "P29_007": "0", "P29_008": "00", "P29_009": null }, "geometry": { "type": "Point", "coordinates": [ 140.151210205719877, 36.649156580305863 ] } },
{ "type": "Feature", "properties": { "P29_001": "09345", "P29_002": "A209310000750", "P29_003": "16013", "P29_004": "認定こども園のぶ幼稚園", "P29_005": "栃木県芳賀郡芳賀町大字下延生495-1", "P29_006": "4", "P29_007": "0", "P29_008": "00", "P29_009": null }, "geometry": { "type": "Point", "coordinates": [ 140.046783764927113, 36.53037044179095 ] } },
{ "type": "Feature", "properties": { "P29_001": "09361", "P29_002": "A209310000769", "P29_003": "16013", "P29_004": "認定こども園くにや幼稚園", "P29_005": "栃木県下都賀郡壬生町国谷644-1", "P29_006": "4", "P29_007": "0", "P29_008": "00", "P29_009": null }, "geometry": { "type": "Point", "coordinates": [ 139.816881003103873, 36.459824998530927 ] } },
{ "type": "Feature", "properties": { "P29_001": "09361", "P29_002": "A209310000778", "P29_003": "16013", "P29_004": "認定こども園やすづか幼稚園", "P29_005": "栃木県下都賀郡壬生町安塚1641-1", "P29_006": "4", "P29_007": "0", "P29_008": "00", "P29_009": null }, "geometry": { "type": "Point", "coordinates": [ 139.83590725600888, 36.492097849164878 ] } },
{ "type": "Feature", "properties": { "P29_001": "09203", "P29_002": "A209310000787", "P29_003": "16013", "P29_004": "認定こども園栃木幼稚園", "P29_005": "栃木県栃木市旭町22-5", "P29_006": "4", "P29_007": "0", "P29_008": "00", "P29_009": null }, "geometry": { "type": "Point", "coordinates": [ 139.735536935761786, 36.379617435768118 ] } },
{ "type": "Feature", "properties": { "P29_001": "09203", "P29_002": "A209310000796", "P29_003": "16013", "P29_004": "認定こども園若葉幼稚園", "P29_005": "栃木県栃木市小平町9-3", "P29_006": "4", "P29_007": "0", "P29_008": "00", "P29_009": null }, "geometry": { "type": "Point", "coordinates": [ 139.729387984045161, 36.387244424007228 ] } },
{ "type": "Feature", "properties": { "P29_001": "09203", "P29_002": "A209310000803", "P29_003": "16013", "P29_004": "認定こども園都賀幼稚園", "P29_005": "栃木県栃木市都賀町家中1889-1", "P29_006": "4", "P29_007": "0", "P29_008": "00", "P29_009": null }, "geometry": { "type": "Point", "coordinates": [ 139.750789428903317, 36.421358393114673 ] } },
{ "type": "Feature", "properties": { "P29_001": "09203", "P29_002": "A209310000812", "P29_003": "16013", "P29_004": "認定こども園アルス南幼稚園", "P29_005": "栃木県栃木市沼和田町36-41", "P29_006": "4", "P29_007": "0", "P29_008": "00", "P29_009": null }, "geometry": { "type": "Point", "coordinates": [ 139.740760457545292, 36.364402309049105 ] } },
{ "type": "Feature", "properties": { "P29_001": "09204", "P29_002": "A209310000821", "P29_003": "16013", "P29_004": "認定こども園明星幼稚園", "P29_005": "栃木県佐野市田沼町1557-3", "P29_006": "4", "P29_007": "0", "P29_008": "00", "P29_009": null }, "geometry": { "type": "Point", "coordinates": [ 139.577953017270659, 36.377918015497549 ] } },
{ "type": "Feature", "properties": { "P29_001": "09204", "P29_002": "A209310000830", "P29_003": "16013", "P29_004": "認定こども園佐野たちばな幼稚園", "P29_005": "栃木県佐野市堀米町513", "P29_006": "4", "P29_007": "0", "P29_008": "00", "P29_009": null }, "geometry": { "type": "Point", "coordinates": [ 139.587463699520242, 36.327002519380258 ] } },
{ "type": "Feature", "properties": { "P29_001": "09205", "P29_002": "A209310000849", "P29_003": "16013", "P29_004": "認定こども園鹿沼ひかり幼稚園", "P29_005": "栃木県鹿沼市西鹿沼町84", "P29_006": "4", "P29_007": "0", "P29_008": "00", "P29_009": null }, "geometry": { "type": "Point", "coordinates": [ 139.741109635609831, 36.563378223633748 ] } },
{ "type": "Feature", "properties": { "P29_001": "09206", "P29_002": "A209310000858", "P29_003": "16013", "P29_004": "認定こども園長畑幼稚園", "P29_005": "栃木県日光市長畑3084", "P29_006": "4", "P29_007": "0", "P29_008": "00", "P29_009": null }, "geometry": { "type": "Point", "coordinates": [ 139.701815752957458, 36.67399600670327 ] } },
{ "type": "Feature", "properties": { "P29_001": "09206", "P29_002": "A209310000867", "P29_003": "16013", "P29_004": "認定こども園今市中央幼稚園", "P29_005": "栃木県日光市今市本町8-16", "P29_006": "4", "P29_007": "0", "P29_008": "00", "P29_009": null }, "geometry": { "type": "Point", "coordinates": [ 139.699510384424684, 36.718483416818017 ] } },
{ "type": "Feature", "properties": { "P29_001": "09208", "P29_002": "A209310000876", "P29_003": "16013", "P29_004": "認定こども園早蕨幼稚園", "P29_005": "栃木県小山市城山町2-4-21", "P29_006": "4", "P29_007": "0", "P29_008": "00", "P29_009": null }, "geometry": { "type": "Point", "coordinates": [ 139.802981087886906, 36.317223386009594 ] } },
{ "type": "Feature", "properties": { "P29_001": "09208", "P29_002": "A209310000885", "P29_003": "16013", "P29_004": "認定こども園乙女幼稚園", "P29_005": "栃木県小山市乙女2-30-22", "P29_006": "4", "P29_007": "0", "P29_008": "00", "P29_009": null }, "geometry": { "type": "Point", "coordinates": [ 139.75591316585286, 36.258910192866281 ] } },
{ "type": "Feature", "properties": { "P29_001": "09211", "P29_002": "A209310000894", "P29_003": "16013", "P29_004": "認定こども園かしわ幼稚園", "P29_005": "栃木県矢板市扇町2-1519", "P29_006": "4", "P29_007": "0", "P29_008": "00", "P29_009": null }, "geometry": { "type": "Point", "coordinates": [ 139.927564426148393, 36.816665616014909 ] } },
{ "type": "Feature", "properties": { "P29_001": "09213", "P29_002": "A209310000901", "P29_003": "16013", "P29_004": "国際医療福祉大学西那須野キッズハウス", "P29_005": "栃木県那須塩原市井口533-15", "P29_006": "4", "P29_007": "0", "P29_008": "00", "P29_009": null }, "geometry": { "type": "Point", "coordinates": [ 139.973583769440751, 36.911145936031623 ] } },
{ "type": "Feature", "properties": { "P29_001": "09201", "P29_002": "A209310000910", "P29_003": "16013", "P29_004": "認定こども園清愛幼稚園", "P29_005": "栃木県宇都宮市西3-5-11", "P29_006": "4", "P29_007": "0", "P29_008": "00", "P29_009": null }, "geometry": { "type": "Point", "coordinates": [ 139.875808749952824, 36.555802824754927 ] } },
{ "type": "Feature", "properties": { "P29_001": "09201", "P29_002": "A209310000929", "P29_003": "16013", "P29_004": "認定こども園釜井台幼稚園", "P29_005": "栃木県宇都宮市下岡本町4548-4", "P29_006": "4", "P29_007": "0", "P29_008": "00", "P29_009": null }, "geometry": { "type": "Point", "coordinates": [ 139.931724423116918, 36.5972183880343 ] } },
{ "type": "Feature", "properties": { "P29_001": "09201", "P29_002": "A209310000938", "P29_003": "16013", "P29_004": "ひじり認定こども園", "P29_005": "栃木県宇都宮市下反町町304", "P29_006": "4", "P29_007": "0", "P29_008": "00", "P29_009": null }, "geometry": { "type": "Point", "coordinates": [ 139.886817150435945, 36.486295125554676 ] } },
{ "type": "Feature", "properties": { "P29_001": "09202", "P29_002": "A209310000947", "P29_003": "16013", "P29_004": "幼保連携型認定こども園足利めぐみ幼稚園", "P29_005": "栃木県足利市小俣町660-4", "P29_006": "4", "P29_007": "0", "P29_008": "00", "P29_009": null }, "geometry": { "type": "Point", "coordinates": [ 139.376042769674626, 36.374497509205106 ] } },
{ "type": "Feature", "properties": { "P29_001": "09202", "P29_002": "A209310000956", "P29_003": "16013", "P29_004": "幼保連携型認定こども園矢場川幼稚園", "P29_005": "栃木県足利市里矢場町2261-1", "P29_006": "4", "P29_007": "0", "P29_008": "00", "P29_009": null }, "geometry": { "type": "Point", "coordinates": [ 139.423470957498949, 36.313483583326644 ] } },
{ "type": "Feature", "properties": { "P29_001": "09205", "P29_002": "A209310000965", "P29_003": "16013", "P29_004": "認定こども園鹿沼みどり幼稚園", "P29_005": "栃木県鹿沼市茂呂546-5", "P29_006": "4", "P29_007": "0", "P29_008": "00", "P29_009": null }, "geometry": { "type": "Point", "coordinates": [ 139.789802540841521, 36.540328233658769 ] } },
{ "type": "Feature", "properties": { "P29_001": "09206", "P29_002": "A209310000974", "P29_003": "16013", "P29_004": "認定こども園聖ヨゼフ幼稚園", "P29_005": "栃木県日光市瀬川199", "P29_006": "4", "P29_007": "0", "P29_008": "00", "P29_009": null }, "geometry": { "type": "Point", "coordinates": [ 139.683393568985707, 36.729169098949647 ] } },
{ "type": "Feature", "properties": { "P29_001": "09208", "P29_002": "A209310000983", "P29_003": "16013", "P29_004": "認定こども園栗の実", "P29_005": "栃木県小山市神鳥谷1-5-11", "P29_006": "4", "P29_007": "0", "P29_008": "00", "P29_009": null }, "geometry": { "type": "Point", "coordinates": [ 139.792693859760448, 36.302980029093085 ] } },
{ "type": "Feature", "properties": { "P29_001": "09209", "P29_002": "A209310000992", "P29_003": "16013", "P29_004": "認定こども園にしだ幼稚園", "P29_005": "栃木県真岡市飯貝178", "P29_006": "4", "P29_007": "0", "P29_008": "00", "P29_009": null }, "geometry": { "type": "Point", "coordinates": [ 140.027679489427697, 36.470215720978686 ] } },
{ "type": "Feature", "properties": { "P29_001": "09211", "P29_002": "A209310001009", "P29_003": "16013", "P29_004": "認定こども園すみれ幼稚園", "P29_005": "栃木県矢板市末広町2-1", "P29_006": "4", "P29_007": "0", "P29_008": "00", "P29_009": null }, "geometry": { "type": "Point", "coordinates": [ 139.934664965364362, 36.809978332999961 ] } },
{ "type": "Feature", "properties": { "P29_001": "09211", "P29_002": "A209310001018", "P29_003": "16013", "P29_004": "やいたこども園", "P29_005": "栃木県矢板市本町8-13", "P29_006": "4", "P29_007": "0", "P29_008": "00", "P29_009": null }, "geometry": { "type": "Point", "coordinates": [ 139.926409404712786, 36.80800275976619 ] } },
{ "type": "Feature", "properties": { "P29_001": "09216", "P29_002": "A209310001027", "P29_003": "16013", "P29_004": "認定こども園野ばら幼稚園", "P29_005": "栃木県下野市中大領386", "P29_006": "4", "P29_007": "0", "P29_008": "00", "P29_009": null }, "geometry": { "type": "Point", "coordinates": [ 139.850421081209788, 36.425948857143958 ] } },
{ "type": "Feature", "properties": { "P29_001": "09216", "P29_002": "A209310001036", "P29_003": "16013", "P29_004": "認定こども園薬師寺幼稚園", "P29_005": "栃木県下野市薬師寺1584-2", "P29_006": "4", "P29_007": "0", "P29_008": "00", "P29_009": null }, "geometry": { "type": "Point", "coordinates": [ 139.874464897698573, 36.398418499926798 ] } },
{ "type": "Feature", "properties": { "P29_001": "09201", "P29_002": "A209310001045", "P29_003": "16013", "P29_004": "認定こども園伊東文化幼稚園", "P29_005": "栃木県宇都宮市下砥上町1399", "P29_006": "4", "P29_007": "0", "P29_008": "00", "P29_009": null }, "geometry": { "type": "Point", "coordinates": [ 139.848819936798094, 36.537854747651245 ] } },
{ "type": "Feature", "properties": { "P29_001": "09208", "P29_002": "A209310001054", "P29_003": "16013", "P29_004": "認定こども園静林幼稚園", "P29_005": "栃木県小山市喜沢199", "P29_006": "4", "P29_007": "0", "P29_008": "00", "P29_009": null }, "geometry": { "type": "Point", "coordinates": [ 139.817771796409602, 36.335775931939082 ] } },
{ "type": "Feature", "properties": { "P29_001": "09208", "P29_002": "A209310001063", "P29_003": "16013", "P29_004": "認定こども園せいほう幼稚園", "P29_005": "栃木県小山市中久喜1221-1", "P29_006": "4", "P29_007": "0", "P29_008": "00", "P29_009": null }, "geometry": { "type": "Point", "coordinates": [ 139.83791580571085, 36.316898749210736 ] } },
{ "type": "Feature", "properties": { "P29_001": "09214", "P29_002": "A209310001072", "P29_003": "16013", "P29_004": "認定こども園氏家幼稚園", "P29_005": "栃木県さくら市櫻野1745", "P29_006": "4", "P29_007": "0", "P29_008": "00", "P29_009": null }, "geometry": { "type": "Point", "coordinates": [ 139.984275244338676, 36.693407892578335 ] } },
{ "type": "Feature", "properties": { "P29_001": "09343", "P29_002": "A209310001081", "P29_003": "16013", "P29_004": "茂木中央認定こども園", "P29_005": "栃木県芳賀郡茂木町増井24-1", "P29_006": "4", "P29_007": "0", "P29_008": "00", "P29_009": null }, "geometry": { "type": "Point", "coordinates": [ 140.195523107540623, 36.533658917683589 ] } },
{ "type": "Feature", "properties": { "P29_001": "09344", "P29_002": "A209310001090", "P29_003": "16013", "P29_004": "赤羽認定こども園", "P29_005": "栃木県芳賀郡市貝町赤羽2634-2", "P29_006": "4", "P29_007": "0", "P29_008": "00", "P29_009": null }, "geometry": { "type": "Point", "coordinates": [ 140.066946316783458, 36.516223951793563 ] } },
{ "type": "Feature", "properties": { "P29_001": "09344", "P29_002": "A209310001107", "P29_003": "16013", "P29_004": "かみねの森認定こども園", "P29_005": "栃木県芳賀郡市貝町上根449-7", "P29_006": "4", "P29_007": "0", "P29_008": "00", "P29_009": null }, "geometry": { "type": "Point", "coordinates": [ 140.077967834103049, 36.535315749559402 ] } },
{ "type": "Feature", "properties": { "P29_001": "09361", "P29_002": "A209310001116", "P29_003": "16013", "P29_004": "幼保連携型認定こども園メリーランド保育園", "P29_005": "栃木県下都賀郡壬生町大字下稲葉343-1", "P29_006": "4", "P29_007": "0", "P29_008": "00", "P29_009": null }, "geometry": { "type": "Point", "coordinates": [ 139.783977829944831, 36.43107072031237 ] } },
{ "type": "Feature", "properties": { "P29_001": "09201", "P29_002": "A209310001125", "P29_003": "16013", "P29_004": "認定こども園聖幼稚園", "P29_005": "栃木県宇都宮市末広1-2-8", "P29_006": "4", "P29_007": "0", "P29_008": "00", "P29_009": null }, "geometry": { "type": "Point", "coordinates": [ 139.872318659869762, 36.482939614090625 ] } },
{ "type": "Feature", "properties": { "P29_001": "09201", "P29_002": "A209310001134", "P29_003": "16013", "P29_004": "認定こども園陽南幼稚園", "P29_005": "栃木県宇都宮市江曽島町1258-6", "P29_006": "4", "P29_007": "0", "P29_008": "00", "P29_009": null }, "geometry": { "type": "Point", "coordinates": [ 139.875803000075734, 36.532852002180498 ] } },
{ "type": "Feature", "properties": { "P29_001": "09205", "P29_002": "A209310001143", "P29_003": "16013", "P29_004": "認定おおぞらこども園", "P29_005": "栃木県鹿沼市口粟野1397-1", "P29_006": "4", "P29_007": "0", "P29_008": "00", "P29_009": null }, "geometry": { "type": "Point", "coordinates": [ 139.66634543956215, 36.514706750435913 ] } },
{ "type": "Feature", "properties": { "P29_001": "09208", "P29_002": "A209310001152", "P29_003": "16013", "P29_004": "はねかわ太陽認定こども園", "P29_005": "栃木県小山市羽川190-7", "P29_006": "4", "P29_007": "0", "P29_008": "00", "P29_009": null }, "geometry": { "type": "Point", "coordinates": [ 139.825003879723283, 36.354988480578058 ] } },
{ "type": "Feature", "properties": { "P29_001": "09210", "P29_002": "A209310001161", "P29_003": "16013", "P29_004": "認定こども園ふたば幼稚園", "P29_005": "栃木県大田原市元町1-1-36", "P29_006": "4", "P29_007": "0", "P29_008": "00", "P29_009": null }, "geometry": { "type": "Point", "coordinates": [ 140.030092066277547, 36.862214424576237 ] } },
{ "type": "Feature", "properties": { "P29_001": "09201", "P29_002": "A209310001170", "P29_003": "16013", "P29_004": "認定こども園静和幼稚園", "P29_005": "栃木県宇都宮市簗瀬1-4-3", "P29_006": "4", "P29_007": "0", "P29_008": "00", "P29_009": null }, "geometry": { "type": "Point", "coordinates": [ 139.891403228255257, 36.553010125490829 ] } },
{ "type": "Feature", "properties": { "P29_001": "09208", "P29_002": "A209310001189", "P29_003": "16013", "P29_004": "認定こども園ひまわり幼稚園", "P29_005": "栃木県小山市横倉新田287-2", "P29_006": "4", "P29_007": "0", "P29_008": "00", "P29_009": null }, "geometry": { "type": "Point", "coordinates": [ 139.824919628823864, 36.28044687884227 ] } },
{ "type": "Feature", "properties": { "P29_001": "09208", "P29_002": "A209310001198", "P29_003": "16013", "P29_004": "認定こども園楠エンゼル幼稚園", "P29_005": "栃木県小山市犬塚3-14-2", "P29_006": "4", "P29_007": "0", "P29_008": "00", "P29_009": null }, "geometry": { "type": "Point", "coordinates": [ 139.831057329600014, 36.312889706229583 ] } },
{ "type": "Feature", "properties": { "P29_001": "09201", "P29_002": "A209310001205", "P29_003": "16013", "P29_004": "ほうとく認定こども園", "P29_005": "栃木県宇都宮市上戸祭町3130-5", "P29_006": "4", "P29_007": "0", "P29_008": "00", "P29_009": null }, "geometry": { "type": "Point", "coordinates": [ 139.862888883154767, 36.605210733794706 ] } },
{ "type": "Feature", "properties": { "P29_001": "09216", "P29_002": "A209310001214", "P29_003": "16013", "P29_004": "認定こども園薬師寺幼稚園分園", "P29_005": "栃木県下野市下古山3-12-28", "P29_006": "4", "P29_007": "0", "P29_008": "00", "P29_009": null }, "geometry": { "type": "Point", "coordinates": [ 139.861040786868756, 36.447907861532805 ] } },
{ "type": "Feature", "properties": { "P29_001": "09216", "P29_002": "A209310001223", "P29_003": "16013", "P29_004": "認定みらいこども園", "P29_005": "栃木県下野市緑2-3292-1", "P29_006": "4", "P29_007": "0", "P29_008": "00", "P29_009": null }, "geometry": { "type": "Point", "coordinates": [ 139.848836934196981, 36.383329154142174 ] } }
]
}
