{
"type": "FeatureCollection",
"name": "geo_09_看護小規模多機能型居宅介護（複合型サービス）",
"crs": { "type": "name", "properties": { "name": "urn:ogc:def:crs:OGC:1.3:CRS84" } },
"features": [
{ "type": "Feature", "properties": { "内容": "看護小規模多機能施設八州苑【看護小規模多機能型居宅介護（複合型サービス）】栃木県栃木市藤岡町太田1386番地1", "url2": "https://www.kaigokensaku.mhlw.go.jp/09/index.php?action_kouhyou_detail_004_kani=true&JigyosyoCd=0990300337-00&ServiceCd=&Type=search" }, "geometry": { "type": "Point", "coordinates": [ 139.6484374, 36.3083838 ] } },
{ "type": "Feature", "properties": { "内容": "看護小規模多機能型居宅介護きぼう【看護小規模多機能型居宅介護（複合型サービス）】栃木県佐野市葛生東1-15-6", "url2": "https://www.kaigokensaku.mhlw.go.jp/09/index.php?action_kouhyou_detail_004_kani=true&JigyosyoCd=0990400319-00&ServiceCd=&Type=search" }, "geometry": { "type": "Point", "coordinates": [ 139.614058500000027, 36.4014811 ] } },
{ "type": "Feature", "properties": { "内容": "かんたき鹿沼【看護小規模多機能型居宅介護（複合型サービス）】栃木県鹿沼市千渡1110-1看護介護総合施設Bluebird", "url2": "https://www.kaigokensaku.mhlw.go.jp/09/index.php?action_kouhyou_detail_004_kani=true&JigyosyoCd=0990500423-00&ServiceCd=&Type=search" }, "geometry": { "type": "Point", "coordinates": [ 139.782815878343939, 36.566789179001255 ] } },
{ "type": "Feature", "properties": { "内容": "クラシオテラス日光物語【看護小規模多機能型居宅介護（複合型サービス）】栃木県日光市今市本町21-10", "url2": "https://www.kaigokensaku.mhlw.go.jp/09/index.php?action_kouhyou_detail_004_kani=true&JigyosyoCd=0990600215-00&ServiceCd=&Type=search" }, "geometry": { "type": "Point", "coordinates": [ 139.6955168, 36.7168197 ] } },
{ "type": "Feature", "properties": { "内容": "看護小規模多機能型居宅介護施設　ぬくもり【看護小規模多機能型居宅介護（複合型サービス）】栃木県那須塩原市三島4丁目28番2", "url2": "https://www.kaigokensaku.mhlw.go.jp/09/index.php?action_kouhyou_detail_004_kani=true&JigyosyoCd=0991300377-00&ServiceCd=&Type=search" }, "geometry": { "type": "Point", "coordinates": [ 139.971379, 36.8979643 ] } },
{ "type": "Feature", "properties": { "内容": "看護小規模多機能型居宅介護　まるごとケアの家あいさん家【看護小規模多機能型居宅介護（複合型サービス）】栃木県那須烏山市神長422-1", "url2": "https://www.kaigokensaku.mhlw.go.jp/09/index.php?action_kouhyou_detail_004_kani=true&JigyosyoCd=0961590015-00&ServiceCd=&Type=search" }, "geometry": { "type": "Point", "coordinates": [ 140.1327861, 36.6659058 ] } }
]
}
