{
"type": "FeatureCollection",
"name": "geo_09_地域密着型介護老人福祉施設入所者生活介護",
"crs": { "type": "name", "properties": { "name": "urn:ogc:def:crs:OGC:1.3:CRS84" } },
"features": [
{ "type": "Feature", "properties": { "内容": "地域密着型小規模特養マイホームきよはら【地域密着型介護老人福祉施設入所者生活介護】栃木県宇都宮市鐺山町1983番地", "url2": "https://www.kaigokensaku.mhlw.go.jp/09/index.php?action_kouhyou_detail_004_kani=true&JigyosyoCd=0990100414-00&ServiceCd=540&Type=search" }, "geometry": { "type": "Point", "coordinates": [ 139.9759355, 36.5387033 ] } },
{ "type": "Feature", "properties": { "内容": "特別養護老人ホーム宮の里ふじおか【地域密着型介護老人福祉施設入所者生活介護】栃木県宇都宮市宝木本町2059-3", "url2": "https://www.kaigokensaku.mhlw.go.jp/09/index.php?action_kouhyou_detail_004_kani=true&JigyosyoCd=0990100372-00&ServiceCd=540&Type=search" }, "geometry": { "type": "Point", "coordinates": [ 139.852065300000049, 36.6188678 ] } },
{ "type": "Feature", "properties": { "内容": "地域密着型　特別養護老人ホーム元氣の家東館【地域密着型介護老人福祉施設入所者生活介護】栃木県宇都宮市幕田町1458-1", "url2": "https://www.kaigokensaku.mhlw.go.jp/09/index.php?action_kouhyou_detail_004_kani=true&JigyosyoCd=0990100422-00&ServiceCd=540&Type=search" }, "geometry": { "type": "Point", "coordinates": [ 139.8513924, 36.4961852 ] } },
{ "type": "Feature", "properties": { "内容": "特別養護老人ホーム緑の郷【地域密着型介護老人福祉施設入所者生活介護】栃木県宇都宮市西刑部町２５４４番地１７５", "url2": "https://www.kaigokensaku.mhlw.go.jp/09/index.php?action_kouhyou_detail_004_kani=true&JigyosyoCd=0990100208-00&ServiceCd=540&Type=search" }, "geometry": { "type": "Point", "coordinates": [ 139.926400310311919, 36.513180065531046 ] } },
{ "type": "Feature", "properties": { "内容": "特別養護老人ホームふくろうの杜【地域密着型介護老人福祉施設入所者生活介護】栃木県宇都宮市逆面町３８５－１", "url2": "https://www.kaigokensaku.mhlw.go.jp/09/index.php?action_kouhyou_detail_004_kani=true&JigyosyoCd=0990100323-00&ServiceCd=540&Type=search" }, "geometry": { "type": "Point", "coordinates": [ 139.902441661515809, 36.654578941700386 ] } },
{ "type": "Feature", "properties": { "内容": "特別養護老人ホームみどりの樹【地域密着型介護老人福祉施設入所者生活介護】栃木県宇都宮市緑５丁目１３番８号", "url2": "https://www.kaigokensaku.mhlw.go.jp/09/index.php?action_kouhyou_detail_004_kani=true&JigyosyoCd=0990100364-00&ServiceCd=540&Type=search" }, "geometry": { "type": "Point", "coordinates": [ 139.859972555433643, 36.513947062383934 ] } },
{ "type": "Feature", "properties": { "内容": "地域密着型特別養護老人ホーム　科の木【地域密着型介護老人福祉施設入所者生活介護】栃木県宇都宮市岩曽町1166番地1", "url2": "https://www.kaigokensaku.mhlw.go.jp/09/index.php?action_kouhyou_detail_004_kani=true&JigyosyoCd=0990100448-00&ServiceCd=540&Type=search" }, "geometry": { "type": "Point", "coordinates": [ 139.90945374719081, 36.583304566698082 ] } },
{ "type": "Feature", "properties": { "内容": "地域密着型特別養護老人ホーム元氣の部屋【地域密着型介護老人福祉施設入所者生活介護】幕田町1456-1", "url2": "https://www.kaigokensaku.mhlw.go.jp/09/index.php?action_kouhyou_detail_004_kani=true&JigyosyoCd=0990100471-00&ServiceCd=540&Type=search" }, "geometry": { "type": "Point", "coordinates": [ 139.851853500000061, 36.496699 ] } },
{ "type": "Feature", "properties": { "内容": "地域密着型特別養護老人ホームなつぼ【地域密着型介護老人福祉施設入所者生活介護】栃木県宇都宮市中岡本町3720-67", "url2": "https://www.kaigokensaku.mhlw.go.jp/09/index.php?action_kouhyou_detail_004_kani=true&JigyosyoCd=0990100687-00&ServiceCd=540&Type=search" }, "geometry": { "type": "Point", "coordinates": [ 139.934591, 36.6093139 ] } },
{ "type": "Feature", "properties": { "内容": "特別養護老人ホーム　美渉【地域密着型介護老人福祉施設入所者生活介護】栃木県宇都宮市砥上町54－1", "url2": "https://www.kaigokensaku.mhlw.go.jp/09/index.php?action_kouhyou_detail_004_kani=true&JigyosyoCd=0990100596-00&ServiceCd=540&Type=search" }, "geometry": { "type": "Point", "coordinates": [ 139.845296599999983, 36.544146 ] } },
{ "type": "Feature", "properties": { "内容": "特別養護老人ホームあしかが西の杜【地域密着型介護老人福祉施設入所者生活介護】栃木県足利市山下町2422番地１", "url2": "https://www.kaigokensaku.mhlw.go.jp/09/index.php?action_kouhyou_detail_004_kani=true&JigyosyoCd=0990200370-00&ServiceCd=540&Type=search" }, "geometry": { "type": "Point", "coordinates": [ 139.416116399999964, 36.3499282 ] } },
{ "type": "Feature", "properties": { "内容": "特別養護老人ホーム　みどりの丘・大月【地域密着型介護老人福祉施設入所者生活介護】栃木県足利市大月町545番地25", "url2": "https://www.kaigokensaku.mhlw.go.jp/09/index.php?action_kouhyou_detail_004_kani=true&JigyosyoCd=0990200206-00&ServiceCd=540&Type=search" }, "geometry": { "type": "Point", "coordinates": [ 139.4811654, 36.3469322 ] } },
{ "type": "Feature", "properties": { "内容": "高齢者複合施設　みのりの里・田島【地域密着型介護老人福祉施設入所者生活介護】栃木県足利市田島町１９５９番地１", "url2": "https://www.kaigokensaku.mhlw.go.jp/09/index.php?action_kouhyou_detail_004_kani=true&JigyosyoCd=0990200107-00&ServiceCd=540&Type=search" }, "geometry": { "type": "Point", "coordinates": [ 139.465283, 36.3647968 ] } },
{ "type": "Feature", "properties": { "内容": "特別養護老人ホームほほえみ【地域密着型介護老人福祉施設入所者生活介護】栃木県足利市小俣町１５６２特別養護老人ホームほほえみ", "url2": "https://www.kaigokensaku.mhlw.go.jp/09/index.php?action_kouhyou_detail_004_kani=true&JigyosyoCd=0990200297-00&ServiceCd=540&Type=search" }, "geometry": { "type": "Point", "coordinates": [ 139.373330399999986, 36.3748991 ] } },
{ "type": "Feature", "properties": { "内容": "特別養護老人ホーム四季舎【地域密着型介護老人福祉施設入所者生活介護】栃木県足利市伊勢町二丁目１０番地２３", "url2": "https://www.kaigokensaku.mhlw.go.jp/09/index.php?action_kouhyou_detail_004_kani=true&JigyosyoCd=0990200305-00&ServiceCd=540&Type=search" }, "geometry": { "type": "Point", "coordinates": [ 139.460304800000017, 36.3328999 ] } },
{ "type": "Feature", "properties": { "内容": "地域密着型特別養護老人ホーム　義明苑ふくとみ【地域密着型介護老人福祉施設入所者生活介護】栃木県足利市福富町1688", "url2": "https://www.kaigokensaku.mhlw.go.jp/09/index.php?action_kouhyou_detail_004_kani=true&JigyosyoCd=0990200339-00&ServiceCd=540&Type=search" }, "geometry": { "type": "Point", "coordinates": [ 139.47104666137696, 36.31386265486563 ] } },
{ "type": "Feature", "properties": { "内容": "特別養護老人ホーム四季の華【地域密着型介護老人福祉施設入所者生活介護】栃木県足利市新山町１－１", "url2": "https://www.kaigokensaku.mhlw.go.jp/09/index.php?action_kouhyou_detail_004_kani=true&JigyosyoCd=0990200362-00&ServiceCd=540&Type=search" }, "geometry": { "type": "Point", "coordinates": [ 139.4662443, 36.348048399999982 ] } },
{ "type": "Feature", "properties": { "内容": "特別養護老人ホーム　湯の里長寿苑【地域密着型介護老人福祉施設入所者生活介護】栃木県足利市大沼田町2163番地1", "url2": "https://www.kaigokensaku.mhlw.go.jp/09/index.php?action_kouhyou_detail_004_kani=true&JigyosyoCd=0990200289-00&ServiceCd=540&Type=search" }, "geometry": { "type": "Point", "coordinates": [ 139.492667500000039, 36.3352003 ] } },
{ "type": "Feature", "properties": { "内容": "特別養護老人ホームみつみねの郷【地域密着型介護老人福祉施設入所者生活介護】栃木県栃木市梅沢町９７０番地", "url2": "https://www.kaigokensaku.mhlw.go.jp/09/index.php?action_kouhyou_detail_004_kani=true&JigyosyoCd=0990300048-00&ServiceCd=540&Type=search" }, "geometry": { "type": "Point", "coordinates": [ 139.650783100000012, 36.4421321 ] } },
{ "type": "Feature", "properties": { "内容": "小規模特別養護老人ホーム　とちぎ泉川【地域密着型介護老人福祉施設入所者生活介護】栃木県栃木市泉川町73番地1", "url2": "https://www.kaigokensaku.mhlw.go.jp/09/index.php?action_kouhyou_detail_004_kani=true&JigyosyoCd=0990300162-00&ServiceCd=540&Type=search" }, "geometry": { "type": "Point", "coordinates": [ 139.712127499999951, 36.387568 ] } },
{ "type": "Feature", "properties": { "内容": "特別養護老人ホーム　レユーナ【地域密着型介護老人福祉施設入所者生活介護】栃木県栃木市箱森町1-14", "url2": "https://www.kaigokensaku.mhlw.go.jp/09/index.php?action_kouhyou_detail_004_kani=true&JigyosyoCd=0990300170-00&ServiceCd=540&Type=search" }, "geometry": { "type": "Point", "coordinates": [ 139.727494523942624, 36.384993157954739 ] } },
{ "type": "Feature", "properties": { "内容": "特別養護老人ホーム　幸寿苑【地域密着型介護老人福祉施設入所者生活介護】栃木県栃木市大平町上高島774", "url2": "https://www.kaigokensaku.mhlw.go.jp/09/index.php?action_kouhyou_detail_004_kani=true&JigyosyoCd=0990300188-00&ServiceCd=540&Type=search" }, "geometry": { "type": "Point", "coordinates": [ 139.73241059999998, 36.3474234 ] } },
{ "type": "Feature", "properties": { "内容": "社会福祉法人スイートホーム【地域密着型介護老人福祉施設入所者生活介護】栃木県栃木市都賀町原宿1424-1", "url2": "https://www.kaigokensaku.mhlw.go.jp/09/index.php?action_kouhyou_detail_004_kani=true&JigyosyoCd=0990300204-00&ServiceCd=540&Type=search" }, "geometry": { "type": "Point", "coordinates": [ 139.72912056256564, 36.437974067154443 ] } },
{ "type": "Feature", "properties": { "内容": "地域密着型特別養護老人ホーム蔵の街ひまわり【地域密着型介護老人福祉施設入所者生活介護】栃木県　栃木市　城内町　2丁目　17番　23号", "url2": "https://www.kaigokensaku.mhlw.go.jp/09/index.php?action_kouhyou_detail_004_kani=true&JigyosyoCd=0990300212-00&ServiceCd=540&Type=search" }, "geometry": { "type": "Point", "coordinates": [ 139.751902299999983, 36.3715211 ] } },
{ "type": "Feature", "properties": { "内容": "特別養護老人ホーム幸寿苑　たかしまの郷【地域密着型介護老人福祉施設入所者生活介護】大平町上高島777-2", "url2": "https://www.kaigokensaku.mhlw.go.jp/09/index.php?action_kouhyou_detail_004_kani=true&JigyosyoCd=0990300220-00&ServiceCd=540&Type=search" }, "geometry": { "type": "Point", "coordinates": [ 139.736771500000032, 36.343774 ] } },
{ "type": "Feature", "properties": { "内容": "みすぎの郷【地域密着型介護老人福祉施設入所者生活介護】栃木県栃木市岩舟町小野寺1500", "url2": "https://www.kaigokensaku.mhlw.go.jp/09/index.php?action_kouhyou_detail_004_kani=true&JigyosyoCd=0990300238-00&ServiceCd=540&Type=search" }, "geometry": { "type": "Point", "coordinates": [ 139.625618581089839, 36.360742594484968 ] } },
{ "type": "Feature", "properties": { "内容": "特別養護老人ホーム　たいようの家【地域密着型介護老人福祉施設入所者生活介護】栃木県栃木市平井町122番地8", "url2": "https://www.kaigokensaku.mhlw.go.jp/09/index.php?action_kouhyou_detail_004_kani=true&JigyosyoCd=0990300352-00&ServiceCd=540&Type=search" }, "geometry": { "type": "Point", "coordinates": [ 139.708676882469462, 36.370869418367676 ] } },
{ "type": "Feature", "properties": { "内容": "小規模特別養護老人ホーム　おおひら【地域密着型介護老人福祉施設入所者生活介護】栃木県栃木市大平町西水代1930-1", "url2": "https://www.kaigokensaku.mhlw.go.jp/09/index.php?action_kouhyou_detail_004_kani=true&JigyosyoCd=0990300113-00&ServiceCd=540&Type=search" }, "geometry": { "type": "Point", "coordinates": [ 139.707042199999933, 36.3149357 ] } },
{ "type": "Feature", "properties": { "内容": "常若の杜みながわ【地域密着型介護老人福祉施設入所者生活介護】栃木県栃木市皆川城内町1771-1", "url2": "https://www.kaigokensaku.mhlw.go.jp/09/index.php?action_kouhyou_detail_004_kani=true&JigyosyoCd=0990300287-00&ServiceCd=540&Type=search" }, "geometry": { "type": "Point", "coordinates": [ 139.682613437681539, 36.391510933628737 ] } },
{ "type": "Feature", "properties": { "内容": "地域密着型特別養護老人ホーム緑風苑【地域密着型介護老人福祉施設入所者生活介護】栃木県栃木市藤岡町中根355-2", "url2": "https://www.kaigokensaku.mhlw.go.jp/09/index.php?action_kouhyou_detail_004_kani=true&JigyosyoCd=0990300154-00&ServiceCd=540&Type=search" }, "geometry": { "type": "Point", "coordinates": [ 139.689067066270468, 36.284575626011033 ] } },
{ "type": "Feature", "properties": { "内容": "特別養護老人ホーム　明水の里【地域密着型介護老人福祉施設入所者生活介護】栃木県佐野市石塚町1018番地", "url2": "https://www.kaigokensaku.mhlw.go.jp/09/index.php?action_kouhyou_detail_004_kani=true&JigyosyoCd=0990400202-00&ServiceCd=540&Type=search" }, "geometry": { "type": "Point", "coordinates": [ 139.550955400000021, 36.3499503 ] } },
{ "type": "Feature", "properties": { "内容": "特別養護老人ホーム　きぼう【地域密着型介護老人福祉施設入所者生活介護】栃木県佐野市葛生東1-15-6", "url2": "https://www.kaigokensaku.mhlw.go.jp/09/index.php?action_kouhyou_detail_004_kani=true&JigyosyoCd=0990400228-00&ServiceCd=540&Type=search" }, "geometry": { "type": "Point", "coordinates": [ 139.614058500000027, 36.4014811 ] } },
{ "type": "Feature", "properties": { "内容": "特別養護老人ホーム万葉植野の里【地域密着型介護老人福祉施設入所者生活介護】栃木県佐野市植下町4010番地10", "url2": "https://www.kaigokensaku.mhlw.go.jp/09/index.php?action_kouhyou_detail_004_kani=true&JigyosyoCd=0990400061-00&ServiceCd=540&Type=search" }, "geometry": { "type": "Point", "coordinates": [ 139.585427200000026, 36.2942709 ] } },
{ "type": "Feature", "properties": { "内容": "介護老人福祉施設ゆずりは【地域密着型介護老人福祉施設入所者生活介護】栃木県佐野市山形町２５５－１", "url2": "https://www.kaigokensaku.mhlw.go.jp/09/index.php?action_kouhyou_detail_004_kani=true&JigyosyoCd=0990400087-00&ServiceCd=540&Type=search" }, "geometry": { "type": "Point", "coordinates": [ 139.546063199999907, 36.3829852 ] } },
{ "type": "Feature", "properties": { "内容": "特別養護老人ホーム　あかみの里【地域密着型介護老人福祉施設入所者生活介護】栃木県佐野市赤見町2740-1", "url2": "https://www.kaigokensaku.mhlw.go.jp/09/index.php?action_kouhyou_detail_004_kani=true&JigyosyoCd=0990400467-00&ServiceCd=540&Type=search" }, "geometry": { "type": "Point", "coordinates": [ 139.5463934, 36.3568671 ] } },
{ "type": "Feature", "properties": { "内容": "特別養護老人ホーム温寿苑【地域密着型介護老人福祉施設入所者生活介護】栃木県佐野市馬門町1470番地", "url2": "https://www.kaigokensaku.mhlw.go.jp/09/index.php?action_kouhyou_detail_004_kani=true&JigyosyoCd=0990400277-00&ServiceCd=540&Type=search" }, "geometry": { "type": "Point", "coordinates": [ 139.602949299999977, 36.2824204 ] } },
{ "type": "Feature", "properties": { "内容": "地域密着型特別養護老人ホームオレンジホーム【地域密着型介護老人福祉施設入所者生活介護】栃木県鹿沼市富岡492-2", "url2": "https://www.kaigokensaku.mhlw.go.jp/09/index.php?action_kouhyou_detail_004_kani=true&JigyosyoCd=0990500167-00&ServiceCd=540&Type=search" }, "geometry": { "type": "Point", "coordinates": [ 139.735069599999946, 36.6155575 ] } },
{ "type": "Feature", "properties": { "内容": "特別養護老人ホーム　ポプリ【地域密着型介護老人福祉施設入所者生活介護】栃木県鹿沼市下永野270-2特別養護老人ホーム　ポプリ", "url2": "https://www.kaigokensaku.mhlw.go.jp/09/index.php?action_kouhyou_detail_004_kani=true&JigyosyoCd=0990500159-00&ServiceCd=540&Type=search" }, "geometry": { "type": "Point", "coordinates": [ 139.619981300000063, 36.4780973 ] } },
{ "type": "Feature", "properties": { "内容": "特別養護老人ホーム　さかた園【地域密着型介護老人福祉施設入所者生活介護】栃木県鹿沼市日吉町937番地4", "url2": "https://www.kaigokensaku.mhlw.go.jp/09/index.php?action_kouhyou_detail_004_kani=true&JigyosyoCd=0990500225-00&ServiceCd=540&Type=search" }, "geometry": { "type": "Point", "coordinates": [ 139.734163699999954, 36.5678629 ] } },
{ "type": "Feature", "properties": { "内容": "地域密着型特別養護老人ホーム　チェルシー【地域密着型介護老人福祉施設入所者生活介護】栃木県鹿沼市上野町273-1", "url2": "https://www.kaigokensaku.mhlw.go.jp/09/index.php?action_kouhyou_detail_004_kani=true&JigyosyoCd=0990500274-00&ServiceCd=540&Type=search" }, "geometry": { "type": "Point", "coordinates": [ 139.761683400000038, 36.5701135 ] } },
{ "type": "Feature", "properties": { "内容": "特別養護老人ホームきわだの郷【地域密着型介護老人福祉施設入所者生活介護】栃木県日光市木和田島3008番地11", "url2": "https://www.kaigokensaku.mhlw.go.jp/09/index.php?action_kouhyou_detail_004_kani=true&JigyosyoCd=0990600041-00&ServiceCd=540&Type=search" }, "geometry": { "type": "Point", "coordinates": [ 139.753484, 36.6819276 ] } },
{ "type": "Feature", "properties": { "内容": "特別養護老人ホームさんらいず【地域密着型介護老人福祉施設入所者生活介護】塩野室町1504‐2", "url2": "https://www.kaigokensaku.mhlw.go.jp/09/index.php?action_kouhyou_detail_004_kani=true&JigyosyoCd=0990600090-00&ServiceCd=540&Type=search" }, "geometry": { "type": "Point", "coordinates": [ 139.7973633, 36.7353776 ] } },
{ "type": "Feature", "properties": { "内容": "特別養護老人ホームきぬ川苑【地域密着型介護老人福祉施設入所者生活介護】栃木県日光市高徳６１９番地３", "url2": "https://www.kaigokensaku.mhlw.go.jp/09/index.php?action_kouhyou_detail_004_kani=true&JigyosyoCd=0990600124-00&ServiceCd=540&Type=search" }, "geometry": { "type": "Point", "coordinates": [ 139.706646099999944, 36.7825262 ] } },
{ "type": "Feature", "properties": { "内容": "特別養護老人ホーム　初田郷富士見荘【地域密着型介護老人福祉施設入所者生活介護】小山市大字下初田537番地2", "url2": "https://www.kaigokensaku.mhlw.go.jp/09/index.php?action_kouhyou_detail_004_kani=true&JigyosyoCd=0990800096-00&ServiceCd=540&Type=search" }, "geometry": { "type": "Point", "coordinates": [ 139.7490186, 36.3282846 ] } },
{ "type": "Feature", "properties": { "内容": "サンフラワーグリーンホーム【地域密着型介護老人福祉施設入所者生活介護】栃木県小山市大字出井１９３９", "url2": "https://www.kaigokensaku.mhlw.go.jp/09/index.php?action_kouhyou_detail_004_kani=true&JigyosyoCd=0990800112-00&ServiceCd=540&Type=search" }, "geometry": { "type": "Point", "coordinates": [ 139.837111099999987, 36.3337764 ] } },
{ "type": "Feature", "properties": { "内容": "特別養護老人ホームひらわの郷【地域密着型介護老人福祉施設入所者生活介護】栃木県小山市平和256", "url2": "https://www.kaigokensaku.mhlw.go.jp/09/index.php?action_kouhyou_detail_004_kani=true&JigyosyoCd=0990800146-00&ServiceCd=540&Type=search" }, "geometry": { "type": "Point", "coordinates": [ 139.774010567758694, 36.25643338956197 ] } },
{ "type": "Feature", "properties": { "内容": "地域密着型特別養護老人ホーム　富士見荘【地域密着型介護老人福祉施設入所者生活介護】栃木県小山市大字上石塚15番地", "url2": "https://www.kaigokensaku.mhlw.go.jp/09/index.php?action_kouhyou_detail_004_kani=true&JigyosyoCd=0990800211-00&ServiceCd=540&Type=search" }, "geometry": { "type": "Point", "coordinates": [ 139.776344, 36.3326043 ] } },
{ "type": "Feature", "properties": { "内容": "特別養護老人ホームいいだの郷【地域密着型介護老人福祉施設入所者生活介護】栃木県小山市大字平和263番地1", "url2": "https://www.kaigokensaku.mhlw.go.jp/09/index.php?action_kouhyou_detail_004_kani=true&JigyosyoCd=0990800278-00&ServiceCd=540&Type=search" }, "geometry": { "type": "Point", "coordinates": [ 139.7726725930805, 36.256300366216273 ] } },
{ "type": "Feature", "properties": { "内容": "特別養護老人ホームソレイユ思川【地域密着型介護老人福祉施設入所者生活介護】栃木県小山市大字松沼５７９－１", "url2": "https://www.kaigokensaku.mhlw.go.jp/09/index.php?action_kouhyou_detail_004_kani=true&JigyosyoCd=0990800328-00&ServiceCd=540&Type=search" }, "geometry": { "type": "Point", "coordinates": [ 139.776686700000027, 36.3465045 ] } },
{ "type": "Feature", "properties": { "内容": "地域密着型特別養護老人ホーム　大沼の里【地域密着型介護老人福祉施設入所者生活介護】荒井6-2", "url2": "https://www.kaigokensaku.mhlw.go.jp/09/index.php?action_kouhyou_detail_004_kani=true&JigyosyoCd=0990800393-00&ServiceCd=540&Type=search" }, "geometry": { "type": "Point", "coordinates": [ 139.5114562, 36.0100668 ] } },
{ "type": "Feature", "properties": { "内容": "特別養護老人ホーム　田井の里【地域密着型介護老人福祉施設入所者生活介護】栃木県真岡市西田井７４８－２", "url2": "https://www.kaigokensaku.mhlw.go.jp/09/index.php?action_kouhyou_detail_004_kani=true&JigyosyoCd=0990900094-00&ServiceCd=540&Type=search" }, "geometry": { "type": "Point", "coordinates": [ 140.070492408503696, 36.453754062399405 ] } },
{ "type": "Feature", "properties": { "内容": "特別養護老人ホーム　三起の森【地域密着型介護老人福祉施設入所者生活介護】栃木県真岡市上大田和１３１３", "url2": "https://www.kaigokensaku.mhlw.go.jp/09/index.php?action_kouhyou_detail_004_kani=true&JigyosyoCd=0990900029-00&ServiceCd=540&Type=search" }, "geometry": { "type": "Point", "coordinates": [ 140.0059688, 36.4818219 ] } },
{ "type": "Feature", "properties": { "内容": "特別養護老人ホーム　かめやまの郷【地域密着型介護老人福祉施設入所者生活介護】栃木県真岡市亀山３５０番地２５", "url2": "https://www.kaigokensaku.mhlw.go.jp/09/index.php?action_kouhyou_detail_004_kani=true&JigyosyoCd=0990900052-00&ServiceCd=540&Type=search" }, "geometry": { "type": "Point", "coordinates": [ 139.988746, 36.4614684 ] } },
{ "type": "Feature", "properties": { "内容": "いきいき萌丘東ノ郷【地域密着型介護老人福祉施設入所者生活介護】栃木県真岡市東郷457-1", "url2": "https://www.kaigokensaku.mhlw.go.jp/09/index.php?action_kouhyou_detail_004_kani=true&JigyosyoCd=0990900102-00&ServiceCd=540&Type=search" }, "geometry": { "type": "Point", "coordinates": [ 140.028756104013041, 36.445269348051397 ] } },
{ "type": "Feature", "properties": { "内容": "特別養護老人ホーム三起の花【地域密着型介護老人福祉施設入所者生活介護】真岡市堀内1897-8", "url2": "https://www.kaigokensaku.mhlw.go.jp/09/index.php?action_kouhyou_detail_004_kani=true&JigyosyoCd=0990900136-00&ServiceCd=540&Type=search" }, "geometry": { "type": "Point", "coordinates": [ 140.002671099999986, 36.4827557 ] } },
{ "type": "Feature", "properties": { "内容": "特別養護老人ホーム　晴風園【地域密着型介護老人福祉施設入所者生活介護】栃木県大田原市下石上1258", "url2": "https://www.kaigokensaku.mhlw.go.jp/09/index.php?action_kouhyou_detail_004_kani=true&JigyosyoCd=0991000191-00&ServiceCd=540&Type=search" }, "geometry": { "type": "Point", "coordinates": [ 139.945960900000046, 36.8518786 ] } },
{ "type": "Feature", "properties": { "内容": "特別養護老人ホーム　四季の風【地域密着型介護老人福祉施設入所者生活介護】栃木県大田原市城山1丁目6-19", "url2": "https://www.kaigokensaku.mhlw.go.jp/09/index.php?action_kouhyou_detail_004_kani=true&JigyosyoCd=0991000217-00&ServiceCd=540&Type=search" }, "geometry": { "type": "Point", "coordinates": [ 140.031784600000037, 36.8643269 ] } },
{ "type": "Feature", "properties": { "内容": "特別養護老人ホーム晴風園みどりの郷【地域密着型介護老人福祉施設入所者生活介護】栃木県大田原市実取５４２－３", "url2": "https://www.kaigokensaku.mhlw.go.jp/09/index.php?action_kouhyou_detail_004_kani=true&JigyosyoCd=0991000134-00&ServiceCd=540&Type=search" }, "geometry": { "type": "Point", "coordinates": [ 139.993673700000045, 36.8315268 ] } },
{ "type": "Feature", "properties": { "内容": "特別養護老人ホーム　かねだの里【地域密着型介護老人福祉施設入所者生活介護】栃木県大田原市市野沢　1843-1", "url2": "https://www.kaigokensaku.mhlw.go.jp/09/index.php?action_kouhyou_detail_004_kani=true&JigyosyoCd=0991000167-00&ServiceCd=540&Type=search" }, "geometry": { "type": "Point", "coordinates": [ 140.051064600000018, 36.91715 ] } },
{ "type": "Feature", "properties": { "内容": "地域密着型特別養護老人ホーム山百合荘　うぐいすの郷【地域密着型介護老人福祉施設入所者生活介護】栃木県大田原市久野又８０８番地", "url2": "https://www.kaigokensaku.mhlw.go.jp/09/index.php?action_kouhyou_detail_004_kani=true&JigyosyoCd=0991000225-00&ServiceCd=540&Type=search" }, "geometry": { "type": "Point", "coordinates": [ 140.138423, 36.890171100000011 ] } },
{ "type": "Feature", "properties": { "内容": "特別養護老人ホームにちにちそう【地域密着型介護老人福祉施設入所者生活介護】栃木県大田原市加治屋83-81", "url2": "https://www.kaigokensaku.mhlw.go.jp/09/index.php?action_kouhyou_detail_004_kani=true&JigyosyoCd=0991000282-00&ServiceCd=540&Type=search" }, "geometry": { "type": "Point", "coordinates": [ 139.999156961844733, 36.856699696313896 ] } },
{ "type": "Feature", "properties": { "内容": "特別養護老人ホームつつじ苑【地域密着型介護老人福祉施設入所者生活介護】栃木県矢板市東町１２００番地１６", "url2": "https://www.kaigokensaku.mhlw.go.jp/09/index.php?action_kouhyou_detail_004_kani=true&JigyosyoCd=0991100116-00&ServiceCd=540&Type=search" }, "geometry": { "type": "Point", "coordinates": [ 139.943153139286778, 36.797630598663247 ] } },
{ "type": "Feature", "properties": { "内容": "地域密着型特別養護老人ホームたかくらの里【地域密着型介護老人福祉施設入所者生活介護】栃木県矢板市片岡2446-168", "url2": "https://www.kaigokensaku.mhlw.go.jp/09/index.php?action_kouhyou_detail_004_kani=true&JigyosyoCd=0991100157-00&ServiceCd=540&Type=search" }, "geometry": { "type": "Point", "coordinates": [ 139.9514451, 36.7597399 ] } },
{ "type": "Feature", "properties": { "内容": "特別養護老人ホーム　つばきハウス【地域密着型介護老人福祉施設入所者生活介護】栃木県那須塩原市木綿畑５２９番地２", "url2": "https://www.kaigokensaku.mhlw.go.jp/09/index.php?action_kouhyou_detail_004_kani=true&JigyosyoCd=0991300229-00&ServiceCd=540&Type=search" }, "geometry": { "type": "Point", "coordinates": [ 139.933419493254064, 36.990238430471635 ] } },
{ "type": "Feature", "properties": { "内容": "特別養護老人ホーム　那須友愛苑【地域密着型介護老人福祉施設入所者生活介護】栃木県那須塩原市西富山58-1", "url2": "https://www.kaigokensaku.mhlw.go.jp/09/index.php?action_kouhyou_detail_004_kani=true&JigyosyoCd=0991300237-00&ServiceCd=540&Type=search" }, "geometry": { "type": "Point", "coordinates": [ 139.985270600000035, 36.9025848 ] } },
{ "type": "Feature", "properties": { "内容": "特別養護老人ホームあじさい苑【地域密着型介護老人福祉施設入所者生活介護】栃木県那須塩原市東原字天蚕場１６６番地", "url2": "https://www.kaigokensaku.mhlw.go.jp/09/index.php?action_kouhyou_detail_004_kani=true&JigyosyoCd=0991000233-00&ServiceCd=540&Type=search" }, "geometry": { "type": "Point", "coordinates": [ 140.021142913833586, 37.001203807253262 ] } },
{ "type": "Feature", "properties": { "内容": "特別養護老人ホーム　寿山荘ブランチさきたま【地域密着型介護老人福祉施設入所者生活介護】栃木県那須塩原市埼玉3-17", "url2": "https://www.kaigokensaku.mhlw.go.jp/09/index.php?action_kouhyou_detail_004_kani=true&JigyosyoCd=0991300112-00&ServiceCd=540&Type=search" }, "geometry": { "type": "Point", "coordinates": [ 140.025126, 36.9834644 ] } },
{ "type": "Feature", "properties": { "内容": "特別養護老人ホーム　青葉の杜【地域密着型介護老人福祉施設入所者生活介護】栃木県那須塩原市大原間西1－19－6", "url2": "https://www.kaigokensaku.mhlw.go.jp/09/index.php?action_kouhyou_detail_004_kani=true&JigyosyoCd=0991300252-00&ServiceCd=540&Type=search" }, "geometry": { "type": "Point", "coordinates": [ 140.015498307934507, 36.929595079339286 ] } },
{ "type": "Feature", "properties": { "内容": "つきみの里【地域密着型介護老人福祉施設入所者生活介護】栃木県さくら市氏家3260-3", "url2": "https://www.kaigokensaku.mhlw.go.jp/09/index.php?action_kouhyou_detail_004_kani=true&JigyosyoCd=0991400052-00&ServiceCd=540&Type=search" }, "geometry": { "type": "Point", "coordinates": [ 139.967703500000027, 36.704843499999981 ] } },
{ "type": "Feature", "properties": { "内容": "地域密着型特別養護老人ホーム　而今桜【地域密着型介護老人福祉施設入所者生活介護】栃木県さくら市喜連川807-4", "url2": "https://www.kaigokensaku.mhlw.go.jp/09/index.php?action_kouhyou_detail_004_kani=true&JigyosyoCd=0992700179-00&ServiceCd=540&Type=search" }, "geometry": { "type": "Point", "coordinates": [ 140.030187276582296, 36.722722819592256 ] } },
{ "type": "Feature", "properties": { "内容": "特別養護老人ホームてんまりの杜【地域密着型介護老人福祉施設入所者生活介護】栃木県那須烏山市滝田1772-1", "url2": "https://www.kaigokensaku.mhlw.go.jp/09/index.php?action_kouhyou_detail_004_kani=true&JigyosyoCd=0991500042-00&ServiceCd=540&Type=search" }, "geometry": { "type": "Point", "coordinates": [ 140.144609044813507, 36.675737486168643 ] } },
{ "type": "Feature", "properties": { "内容": "特別養護老人ホームあいぜん【地域密着型介護老人福祉施設入所者生活介護】栃木県那須烏山市上境458", "url2": "https://www.kaigokensaku.mhlw.go.jp/09/index.php?action_kouhyou_detail_004_kani=true&JigyosyoCd=0991500026-00&ServiceCd=540&Type=search" }, "geometry": { "type": "Point", "coordinates": [ 140.170218864418075, 36.649729228801888 ] } },
{ "type": "Feature", "properties": { "内容": "特別養護老人ホームみのわ【地域密着型介護老人福祉施設入所者生活介護】栃木県下野市箕輪441-1", "url2": "https://www.kaigokensaku.mhlw.go.jp/09/index.php?action_kouhyou_detail_004_kani=true&JigyosyoCd=0991600081-00&ServiceCd=540&Type=search" }, "geometry": { "type": "Point", "coordinates": [ 139.8288867, 36.3966123 ] } },
{ "type": "Feature", "properties": { "内容": "特別養護老人ホームいしばし苑【地域密着型介護老人福祉施設入所者生活介護】栃木県下野市上古山５５８－８", "url2": "https://www.kaigokensaku.mhlw.go.jp/09/index.php?action_kouhyou_detail_004_kani=true&JigyosyoCd=0991600040-00&ServiceCd=540&Type=search" }, "geometry": { "type": "Point", "coordinates": [ 139.858449973927321, 36.466958373188227 ] } },
{ "type": "Feature", "properties": { "内容": "特別養護老人ホーム　ゆうがおの丘【地域密着型介護老人福祉施設入所者生活介護】栃木県下野市501番地1", "url2": "https://www.kaigokensaku.mhlw.go.jp/09/index.php?action_kouhyou_detail_004_kani=true&JigyosyoCd=0991600057-00&ServiceCd=540&Type=search" }, "geometry": { "type": "Point", "coordinates": [ 139.861272114849839, 36.422281848148451 ] } },
{ "type": "Feature", "properties": { "内容": "特別養護老人ホーム　ふじやま荘【地域密着型介護老人福祉施設入所者生活介護】栃木県河内郡上三川町大字上三川字冨士山３３７５番地１", "url2": "https://www.kaigokensaku.mhlw.go.jp/09/index.php?action_kouhyou_detail_004_kani=true&JigyosyoCd=0992100057-00&ServiceCd=540&Type=search" }, "geometry": { "type": "Point", "coordinates": [ 139.9213133, 36.4299009 ] } },
{ "type": "Feature", "properties": { "内容": "特別養護老人ホームましこの里星の宮【地域密着型介護老人福祉施設入所者生活介護】栃木県芳賀郡益子町大字塙3385番地", "url2": "https://www.kaigokensaku.mhlw.go.jp/09/index.php?action_kouhyou_detail_004_kani=true&JigyosyoCd=0992700120-00&ServiceCd=540&Type=search" }, "geometry": { "type": "Point", "coordinates": [ 140.074747947082528, 36.475655860478611 ] } },
{ "type": "Feature", "properties": { "内容": "特別養護老人ホームせんぼんの家【地域密着型介護老人福祉施設入所者生活介護】栃木県芳賀郡茂木町千本452-1", "url2": "https://www.kaigokensaku.mhlw.go.jp/09/index.php?action_kouhyou_detail_004_kani=true&JigyosyoCd=0992700096-00&ServiceCd=540&Type=search" }, "geometry": { "type": "Point", "coordinates": [ 140.145941200000038, 36.5696539 ] } },
{ "type": "Feature", "properties": { "内容": "特別養護老人ホーム杉の樹園【地域密着型介護老人福祉施設入所者生活介護】栃木県芳賀郡市貝町続谷736", "url2": "https://www.kaigokensaku.mhlw.go.jp/09/index.php?action_kouhyou_detail_004_kani=true&JigyosyoCd=0992700104-00&ServiceCd=540&Type=search" }, "geometry": { "type": "Point", "coordinates": [ 140.125922100000025, 36.5956009 ] } },
{ "type": "Feature", "properties": { "内容": "特別養護老人ホーム　はがの杜【地域密着型介護老人福祉施設入所者生活介護】栃木県芳賀郡芳賀町大字東水沼２９２８番地１", "url2": "https://www.kaigokensaku.mhlw.go.jp/09/index.php?action_kouhyou_detail_004_kani=true&JigyosyoCd=0992700088-00&ServiceCd=540&Type=search" }, "geometry": { "type": "Point", "coordinates": [ 139.999224199999958, 36.5573605 ] } },
{ "type": "Feature", "properties": { "内容": "地域密着型特別養護老人ホームしもつけ荘【地域密着型介護老人福祉施設入所者生活介護】栃木県下都賀郡壬生町北小林812番地", "url2": "https://www.kaigokensaku.mhlw.go.jp/09/index.php?action_kouhyou_detail_004_kani=true&JigyosyoCd=0992300095-00&ServiceCd=540&Type=search" }, "geometry": { "type": "Point", "coordinates": [ 139.820687499999963, 36.4751034 ] } },
{ "type": "Feature", "properties": { "内容": "小規模特別養護法人ホーム　みぶ例幣使【地域密着型介護老人福祉施設入所者生活介護】栃木県下都賀郡壬生町大字壬生甲2620番地", "url2": "https://www.kaigokensaku.mhlw.go.jp/09/index.php?action_kouhyou_detail_004_kani=true&JigyosyoCd=0992300103-00&ServiceCd=540&Type=search" }, "geometry": { "type": "Point", "coordinates": [ 139.787380170208706, 36.440682227844526 ] } },
{ "type": "Feature", "properties": { "内容": "特別養護老人ホーム　キラリの舎【地域密着型介護老人福祉施設入所者生活介護】栃木県下都賀郡野木町南赤塚1218-9", "url2": "https://www.kaigokensaku.mhlw.go.jp/09/index.php?action_kouhyou_detail_004_kani=true&JigyosyoCd=0992300087-00&ServiceCd=540&Type=search" }, "geometry": { "type": "Point", "coordinates": [ 139.747480900000028, 36.2190476 ] } },
{ "type": "Feature", "properties": { "内容": "特別養護老人ホーム　星の郷【地域密着型介護老人福祉施設入所者生活介護】栃木県塩谷郡塩谷町田所2191-19", "url2": "https://www.kaigokensaku.mhlw.go.jp/09/index.php?action_kouhyou_detail_004_kani=true&JigyosyoCd=0992600080-00&ServiceCd=540&Type=search" }, "geometry": { "type": "Point", "coordinates": [ 139.864491, 36.7811183 ] } },
{ "type": "Feature", "properties": { "内容": "地域密着型特別養護老人ホーム　高根沢のぞみ苑【地域密着型介護老人福祉施設入所者生活介護】栃木県塩谷郡高根沢町大字花岡2158番地10", "url2": "https://www.kaigokensaku.mhlw.go.jp/09/index.php?action_kouhyou_detail_004_kani=true&JigyosyoCd=0992600072-00&ServiceCd=540&Type=search" }, "geometry": { "type": "Point", "coordinates": [ 140.005675197570554, 36.640871909993727 ] } },
{ "type": "Feature", "properties": { "内容": "特別養護老人ホームゆたか苑【地域密着型介護老人福祉施設入所者生活介護】栃木県那須郡那須町大字豊原乙627-95", "url2": "https://www.kaigokensaku.mhlw.go.jp/09/index.php?action_kouhyou_detail_004_kani=true&JigyosyoCd=0992500116-00&ServiceCd=540&Type=search" }, "geometry": { "type": "Point", "coordinates": [ 140.131080500000053, 37.1013191 ] } },
{ "type": "Feature", "properties": { "内容": "地域密着型特別養護老人ホームあしの苑【地域密着型介護老人福祉施設入所者生活介護】栃木県那須町大字芦野2165あしの苑", "url2": "https://www.kaigokensaku.mhlw.go.jp/09/index.php?action_kouhyou_detail_004_kani=true&JigyosyoCd=0992500173-00&ServiceCd=540&Type=search" }, "geometry": { "type": "Point", "coordinates": [ 140.1575212, 36.9885064 ] } },
{ "type": "Feature", "properties": { "内容": "特別養護老人ホーム　和見の里山【地域密着型介護老人福祉施設入所者生活介護】栃木県那須郡那珂川町和見１９４０番地１", "url2": "https://www.kaigokensaku.mhlw.go.jp/09/index.php?action_kouhyou_detail_004_kani=true&JigyosyoCd=0992500157-00&ServiceCd=540&Type=search" }, "geometry": { "type": "Point", "coordinates": [ 140.163542499999949, 36.7612748 ] } }
]
}
