{
"type": "FeatureCollection",
"name": "geo_09_特定施設入居者生活介護（有料老人ホーム（サービス付き高齢者向け住宅））",
"crs": { "type": "name", "properties": { "name": "urn:ogc:def:crs:OGC:1.3:CRS84" } },
"features": [
{ "type": "Feature", "properties": { "内容": "ハーモネートハウス大平【特定施設入居者生活介護（有料老人ホーム（サービス付き高齢者向け住宅））】栃木県栃木市大平町富田5-230", "url2": "https://www.kaigokensaku.mhlw.go.jp/09/index.php?action_kouhyou_detail_004_kani=true&JigyosyoCd=0970301149-00&ServiceCd=&Type=search" }, "geometry": { "type": "Point", "coordinates": [ 139.704017468204967, 36.335851957304165 ] } },
{ "type": "Feature", "properties": { "内容": "株式会社　笑顔施【特定施設入居者生活介護（有料老人ホーム（サービス付き高齢者向け住宅））】栃木県栃木市岩舟町静4386サービス付き高齢者向け住宅　笑顔施　岩舟", "url2": "https://www.kaigokensaku.mhlw.go.jp/09/index.php?action_kouhyou_detail_004_kani=true&JigyosyoCd=0972301436-00&ServiceCd=&Type=search" }, "geometry": { "type": "Point", "coordinates": [ 139.665262664479059, 36.302575824387546 ] } },
{ "type": "Feature", "properties": { "内容": "ハーモネートハウス佐野【特定施設入居者生活介護（有料老人ホーム（サービス付き高齢者向け住宅））】栃木県佐野市堀米町1270-17", "url2": "https://www.kaigokensaku.mhlw.go.jp/09/index.php?action_kouhyou_detail_004_kani=true&JigyosyoCd=0970401451-00&ServiceCd=&Type=search" }, "geometry": { "type": "Point", "coordinates": [ 139.580612500000029, 36.3286785 ] } },
{ "type": "Feature", "properties": { "内容": "ハーモネートハウス佐野アネックス【特定施設入居者生活介護（有料老人ホーム（サービス付き高齢者向け住宅））】栃木県佐野市堀米町1270-17", "url2": "https://www.kaigokensaku.mhlw.go.jp/09/index.php?action_kouhyou_detail_004_kani=true&JigyosyoCd=0970401642-00&ServiceCd=&Type=search" }, "geometry": { "type": "Point", "coordinates": [ 139.580612500000029, 36.3286785 ] } },
{ "type": "Feature", "properties": { "内容": "特定施設　悠楓園【特定施設入居者生活介護（有料老人ホーム（サービス付き高齢者向け住宅））】高砂町2800-1", "url2": "https://www.kaigokensaku.mhlw.go.jp/09/index.php?action_kouhyou_detail_004_kani=true&JigyosyoCd=0970401949-00&ServiceCd=&Type=search" }, "geometry": { "type": "Point", "coordinates": [ 139.5792993, 36.3130548 ] } },
{ "type": "Feature", "properties": { "内容": "花咲さの【特定施設入居者生活介護（有料老人ホーム（サービス付き高齢者向け住宅））】栃木県佐野市富岡町1454番地", "url2": "https://www.kaigokensaku.mhlw.go.jp/09/index.php?action_kouhyou_detail_004_kani=true&JigyosyoCd=0970402723-00&ServiceCd=&Type=search" }, "geometry": { "type": "Point", "coordinates": [ 139.593016799999987, 36.3161614 ] } },
{ "type": "Feature", "properties": { "内容": "和笑衣【特定施設入居者生活介護（有料老人ホーム（サービス付き高齢者向け住宅））】栃木県佐野市植上町1659番地1", "url2": "https://www.kaigokensaku.mhlw.go.jp/09/index.php?action_kouhyou_detail_004_kani=true&JigyosyoCd=0970401717-00&ServiceCd=&Type=search" }, "geometry": { "type": "Point", "coordinates": [ 139.583104899999967, 36.3031531 ] } },
{ "type": "Feature", "properties": { "内容": "ラビット・コート【特定施設入居者生活介護（有料老人ホーム（サービス付き高齢者向け住宅））】栃木県日光市瀬尾３３７番地２", "url2": "https://www.kaigokensaku.mhlw.go.jp/09/index.php?action_kouhyou_detail_004_kani=true&JigyosyoCd=0970600623-00&ServiceCd=&Type=search" }, "geometry": { "type": "Point", "coordinates": [ 139.6903605, 36.7370451 ] } },
{ "type": "Feature", "properties": { "内容": "うり坊の郷【特定施設入居者生活介護（有料老人ホーム（サービス付き高齢者向け住宅））】栃木県さくら市氏家3498-223", "url2": "https://www.kaigokensaku.mhlw.go.jp/09/index.php?action_kouhyou_detail_004_kani=true&JigyosyoCd=0971400437-00&ServiceCd=&Type=search" }, "geometry": { "type": "Point", "coordinates": [ 139.968708799999973, 36.703755 ] } },
{ "type": "Feature", "properties": { "内容": "介護付高齢者住宅ぬくもり【特定施設入居者生活介護（有料老人ホーム（サービス付き高齢者向け住宅））】小金井1丁目14番地3", "url2": "https://www.kaigokensaku.mhlw.go.jp/09/index.php?action_kouhyou_detail_004_kani=true&JigyosyoCd=0971600770-00&ServiceCd=&Type=search" }, "geometry": { "type": "Point", "coordinates": [ 139.841232324541693, 36.385483820137843 ] } },
{ "type": "Feature", "properties": { "内容": "アットホームいちかい【特定施設入居者生活介護（有料老人ホーム（サービス付き高齢者向け住宅））】栃木県芳賀郡市貝町多田羅７４８－１", "url2": "https://www.kaigokensaku.mhlw.go.jp/09/index.php?action_kouhyou_detail_004_kani=true&JigyosyoCd=0972701106-00&ServiceCd=&Type=search" }, "geometry": { "type": "Point", "coordinates": [ 140.088264900000013, 36.5161889 ] } },
{ "type": "Feature", "properties": { "内容": "アクーユ芦野倶楽部【特定施設入居者生活介護（有料老人ホーム（サービス付き高齢者向け住宅））】栃木県那須郡那須町芦野1469-264", "url2": "https://www.kaigokensaku.mhlw.go.jp/09/index.php?action_kouhyou_detail_004_kani=true&JigyosyoCd=0972501639-00&ServiceCd=&Type=search" }, "geometry": { "type": "Point", "coordinates": [ 140.1501141, 36.9892795 ] } }
]
}
