{
"type": "FeatureCollection",
"name": "geo_09_福祉用具貸与",
"crs": { "type": "name", "properties": { "name": "urn:ogc:def:crs:OGC:1.3:CRS84" } },
"features": [
{ "type": "Feature", "properties": { "内容": "さんと【福祉用具貸与】栃木県宇都宮市徳次郎町47番地36", "url": "https://www.kaigokensaku.mhlw.go.jp/09/index.php?action_kouhyou_detail_004_kani=true&JigyosyoCd=0970106332-00&ServiceCd=170&Type=search", "url2": "http://www.santo-care.co.jp/" }, "geometry": { "type": "Point", "coordinates": [ 139.848511732540828, 36.640335934615251 ] } },
{ "type": "Feature", "properties": { "内容": "アイサポート【福祉用具貸与】栃木県宇都宮市大曽1-1-34", "url": "https://www.kaigokensaku.mhlw.go.jp/09/index.php?action_kouhyou_detail_004_kani=true&JigyosyoCd=0970102471-00&ServiceCd=170&Type=search", "url2": "http://www.ais-pal.jp" }, "geometry": { "type": "Point", "coordinates": [ 139.888409200000069, 36.5673472 ] } },
{ "type": "Feature", "properties": { "内容": "株式会社ヤマシタ　宇都宮営業所【福祉用具貸与】栃木県宇都宮市竹林町４２０", "url": "https://www.kaigokensaku.mhlw.go.jp/09/index.php?action_kouhyou_detail_004_kani=true&JigyosyoCd=0970100319-00&ServiceCd=170&Type=search", "url2": "http://www.yco.co.jp/" }, "geometry": { "type": "Point", "coordinates": [ 139.908979671469069, 36.579731957203634 ] } },
{ "type": "Feature", "properties": { "内容": "ひさご会【福祉用具貸与】栃木県宇都宮市大曽４丁目7番7号", "url": "https://www.kaigokensaku.mhlw.go.jp/09/index.php?action_kouhyou_detail_004_kani=true&JigyosyoCd=0970102760-00&ServiceCd=170&Type=search", "url2": "http://www2.ucatv.ne.jp/~hisago.sky/" }, "geometry": { "type": "Point", "coordinates": [ 139.890576220744805, 36.568836616180249 ] } },
{ "type": "Feature", "properties": { "内容": "エスケーワールド有限会社【福祉用具貸与】栃木県宇都宮市野沢町335番地", "url": "https://www.kaigokensaku.mhlw.go.jp/09/index.php?action_kouhyou_detail_004_kani=true&JigyosyoCd=0970100673-00&ServiceCd=170&Type=search", "url2": null }, "geometry": { "type": "Point", "coordinates": [ 139.855537599999934, 36.6112909 ] } },
{ "type": "Feature", "properties": { "内容": "企業組合　とちぎ労働福祉事業団【福祉用具貸与】栃木県宇都宮市西川田7-1-2", "url": "https://www.kaigokensaku.mhlw.go.jp/09/index.php?action_kouhyou_detail_004_kani=true&JigyosyoCd=0970104659-00&ServiceCd=170&Type=search", "url2": "http://www.kyoudou.net" }, "geometry": { "type": "Point", "coordinates": [ 139.862076419573981, 36.507745422021344 ] } },
{ "type": "Feature", "properties": { "内容": "福祉用具レンタルセンター（平成22年度新規指定事業所）【福祉用具貸与】栃木県宇都宮市下栗町764-4", "url": "https://www.kaigokensaku.mhlw.go.jp/09/index.php?action_kouhyou_detail_004_kani=true&JigyosyoCd=0970104998-00&ServiceCd=170&Type=search", "url2": "http://utsunomiya-fukushi.com" }, "geometry": { "type": "Point", "coordinates": [ 139.917268645184322, 36.527132707032671 ] } },
{ "type": "Feature", "properties": { "内容": "明和ケアサービス【福祉用具貸与】栃木県宇都宮市緑１－３－１", "url": "https://www.kaigokensaku.mhlw.go.jp/09/index.php?action_kouhyou_detail_004_kani=true&JigyosyoCd=0970106233-00&ServiceCd=170&Type=search", "url2": "http://meiwa1609.wixsite.com/lifesupport/blank-1" }, "geometry": { "type": "Point", "coordinates": [ 139.863647849598692, 36.523105519565121 ] } },
{ "type": "Feature", "properties": { "内容": "株式会社仁済【福祉用具貸与】栃木県宇都宮市鶴田2-23-1", "url": "https://www.kaigokensaku.mhlw.go.jp/09/index.php?action_kouhyou_detail_004_kani=true&JigyosyoCd=0970108528-00&ServiceCd=170&Type=search", "url2": "https://www.jinsai.co.jp/" }, "geometry": { "type": "Point", "coordinates": [ 139.850819760330182, 36.562847704632944 ] } },
{ "type": "Feature", "properties": { "内容": "バディーズ福祉用具サポートセンター【福祉用具貸与】栃木県宇都宮市下岡本町4060", "url": "https://www.kaigokensaku.mhlw.go.jp/09/index.php?action_kouhyou_detail_004_kani=true&JigyosyoCd=0970108692-00&ServiceCd=170&Type=search", "url2": "https://buddies-inc.com/company/" }, "geometry": { "type": "Point", "coordinates": [ 139.941909900000013, 36.5962839 ] } },
{ "type": "Feature", "properties": { "内容": "株式会社　ロイエル【福祉用具貸与】宇都宮市砥上町1140-1　ｻﾝﾊｲﾂ砥上108", "url": "https://www.kaigokensaku.mhlw.go.jp/09/index.php?action_kouhyou_detail_004_kani=true&JigyosyoCd=0970104089-00&ServiceCd=170&Type=search", "url2": null }, "geometry": { "type": "Point", "coordinates": [ 139.838447010410249, 36.560925899367263 ] } },
{ "type": "Feature", "properties": { "内容": "株式会社スペースケア宇都宮営業所【福祉用具貸与】栃木県宇都宮市弥生1-7-16", "url": "https://www.kaigokensaku.mhlw.go.jp/09/index.php?action_kouhyou_detail_004_kani=true&JigyosyoCd=0970106498-00&ServiceCd=170&Type=search", "url2": "https://www.spacecare.co.jp/" }, "geometry": { "type": "Point", "coordinates": [ 139.868700399999966, 36.5432967 ] } },
{ "type": "Feature", "properties": { "内容": "ユージンケアサービス【福祉用具貸与】栃木県宇都宮市駒生町792番地コートヴィアーレ202", "url": "https://www.kaigokensaku.mhlw.go.jp/09/index.php?action_kouhyou_detail_004_kani=true&JigyosyoCd=0970108155-00&ServiceCd=170&Type=search", "url2": "https://sites.google.com/view/yujin-care-service/" }, "geometry": { "type": "Point", "coordinates": [ 139.8490627, 36.5761765 ] } },
{ "type": "Feature", "properties": { "内容": "株式会社　セリオ　宇都宮営業所【福祉用具貸与】栃木県宇都宮市西原町558‐12", "url": "https://www.kaigokensaku.mhlw.go.jp/09/index.php?action_kouhyou_detail_004_kani=true&JigyosyoCd=0970102224-00&ServiceCd=170&Type=search", "url2": "https://serio888.net" }, "geometry": { "type": "Point", "coordinates": [ 139.880990698838389, 36.530438600052776 ] } },
{ "type": "Feature", "properties": { "内容": "株式会社キガ【福祉用具貸与】栃木県宇都宮市平出町1043－3", "url": "https://www.kaigokensaku.mhlw.go.jp/09/index.php?action_kouhyou_detail_004_kani=true&JigyosyoCd=0970100806-00&ServiceCd=170&Type=search", "url2": "http://www.kiga.co.jp" }, "geometry": { "type": "Point", "coordinates": [ 139.947324393917825, 36.568094628357798 ] } },
{ "type": "Feature", "properties": { "内容": "エフビー介護サービス株式会社宇都宮営業所【福祉用具貸与】栃木県宇都宮市横田新町4－19", "url": "https://www.kaigokensaku.mhlw.go.jp/09/index.php?action_kouhyou_detail_004_kani=true&JigyosyoCd=0970102422-00&ServiceCd=170&Type=search", "url2": "http://www.fb-kaigo.co.jp" }, "geometry": { "type": "Point", "coordinates": [ 139.876849602312063, 36.509309979282335 ] } },
{ "type": "Feature", "properties": { "内容": "パナソニック　エイジフリーショップ宇都宮東【福祉用具貸与】栃木県宇都宮市問屋町　３４１３－５１", "url": "https://www.kaigokensaku.mhlw.go.jp/09/index.php?action_kouhyou_detail_004_kani=true&JigyosyoCd=0970102638-00&ServiceCd=170&Type=search", "url2": null }, "geometry": { "type": "Point", "coordinates": [ 139.920420457672094, 36.532619656130606 ] } },
{ "type": "Feature", "properties": { "内容": "パナソニックエイジフリーショップ　宇都宮西店【福祉用具貸与】栃木県宇都宮市鶴田町３４９２－１２０", "url": "https://www.kaigokensaku.mhlw.go.jp/09/index.php?action_kouhyou_detail_004_kani=true&JigyosyoCd=0970102653-00&ServiceCd=170&Type=search", "url2": "http://www.kaigo-sagara.jp" }, "geometry": { "type": "Point", "coordinates": [ 139.850768600000038, 36.5423518 ] } },
{ "type": "Feature", "properties": { "内容": "じがみケアサポート【福祉用具貸与】栃木県宇都宮市東宿郷6丁目4番7号プラスパビル1F", "url": "https://www.kaigokensaku.mhlw.go.jp/09/index.php?action_kouhyou_detail_004_kani=true&JigyosyoCd=0970102984-00&ServiceCd=170&Type=search", "url2": null }, "geometry": { "type": "Point", "coordinates": [ 139.910462717746611, 36.557077382456335 ] } },
{ "type": "Feature", "properties": { "内容": "株式会社　栗原医療器械店　宇都宮オフィス【福祉用具貸与】栃木県宇都宮市岩曽町1307番地3", "url": "https://www.kaigokensaku.mhlw.go.jp/09/index.php?action_kouhyou_detail_004_kani=true&JigyosyoCd=0970104600-00&ServiceCd=170&Type=search", "url2": "http://www.kuribara.co.jp" }, "geometry": { "type": "Point", "coordinates": [ 139.909994500000039, 36.58383 ] } },
{ "type": "Feature", "properties": { "内容": "ソネット宇都宮【福祉用具貸与】栃木県宇都宮市下栗2291-4", "url": "https://www.kaigokensaku.mhlw.go.jp/09/index.php?action_kouhyou_detail_004_kani=true&JigyosyoCd=0970104824-00&ServiceCd=170&Type=search", "url2": "http://www.sonnette.biz" }, "geometry": { "type": "Point", "coordinates": [ 139.918705600000038, 36.525182099999967 ] } },
{ "type": "Feature", "properties": { "内容": "ケアレンタル向日葵【福祉用具貸与】栃木県宇都宮市天神2丁目9-7", "url": "https://www.kaigokensaku.mhlw.go.jp/09/index.php?action_kouhyou_detail_004_kani=true&JigyosyoCd=0970106258-00&ServiceCd=170&Type=search", "url2": "http://www.himawarikea.info/" }, "geometry": { "type": "Point", "coordinates": [ 139.887972782256981, 36.552223691391042 ] } },
{ "type": "Feature", "properties": { "内容": "リョーシン福祉用具事業所【福祉用具貸与】栃木県宇都宮市御幸ヶ原町62番地20", "url": "https://www.kaigokensaku.mhlw.go.jp/09/index.php?action_kouhyou_detail_004_kani=true&JigyosyoCd=0970106423-00&ServiceCd=170&Type=search", "url2": null }, "geometry": { "type": "Point", "coordinates": [ 139.926457819928828, 36.59395312589055 ] } },
{ "type": "Feature", "properties": { "内容": "東京インテリアＭＳ宇都宮【福祉用具貸与】宇都宮市鶴田町1420-2", "url": "https://www.kaigokensaku.mhlw.go.jp/09/index.php?action_kouhyou_detail_004_kani=true&JigyosyoCd=0970106746-00&ServiceCd=170&Type=search", "url2": "http://www.tokyointerior.co.jp" }, "geometry": { "type": "Point", "coordinates": [ 139.850857031877098, 36.549210909482206 ] } },
{ "type": "Feature", "properties": { "内容": "ひまわり館宇都宮営業所【福祉用具貸与】栃木県宇都宮市岩曽町644-4", "url": "https://www.kaigokensaku.mhlw.go.jp/09/index.php?action_kouhyou_detail_004_kani=true&JigyosyoCd=0970106894-00&ServiceCd=170&Type=search", "url2": "http://www.fujielectric.co.jp/fols/welfare/index.html" }, "geometry": { "type": "Point", "coordinates": [ 139.900754836961369, 36.586061832934078 ] } },
{ "type": "Feature", "properties": { "内容": "宇都宮福祉レンタルサービス【福祉用具貸与】栃木県宇都宮市鶴田町1627番地1", "url": "https://www.kaigokensaku.mhlw.go.jp/09/index.php?action_kouhyou_detail_004_kani=true&JigyosyoCd=0970107868-00&ServiceCd=170&Type=search", "url2": "nitto-rental.co.jp" }, "geometry": { "type": "Point", "coordinates": [ 139.849132433989723, 36.550241481489522 ] } },
{ "type": "Feature", "properties": { "内容": "うつのみや用具屋にこっと【福祉用具貸与】栃木県宇都宮市平出町1777-3", "url": "https://www.kaigokensaku.mhlw.go.jp/09/index.php?action_kouhyou_detail_004_kani=true&JigyosyoCd=0970108221-00&ServiceCd=170&Type=search", "url2": null }, "geometry": { "type": "Point", "coordinates": [ 139.9433383, 36.5595188 ] } },
{ "type": "Feature", "properties": { "内容": "株式会社フロンティア宇都宮営業所【福祉用具貸与】栃木県宇都宮市花房1丁目15-2アッサンブラージュ1階", "url": "https://www.kaigokensaku.mhlw.go.jp/09/index.php?action_kouhyou_detail_004_kani=true&JigyosyoCd=0970108726-00&ServiceCd=170&Type=search", "url2": null }, "geometry": { "type": "Point", "coordinates": [ 139.880876300000011, 36.5468333 ] } },
{ "type": "Feature", "properties": { "内容": "株式会社日成メディカル【福祉用具貸与】栃木県宇都宮市問屋町3426-39", "url": "https://www.kaigokensaku.mhlw.go.jp/09/index.php?action_kouhyou_detail_004_kani=true&JigyosyoCd=0970109005-00&ServiceCd=170&Type=search", "url2": "http://www.nissei-m.co.jp" }, "geometry": { "type": "Point", "coordinates": [ 139.920465980812111, 36.535106604945774 ] } },
{ "type": "Feature", "properties": { "内容": "株式会社ひびき【福祉用具貸与】栃木県宇都宮市御幸ヶ原町136-43", "url": "https://www.kaigokensaku.mhlw.go.jp/09/index.php?action_kouhyou_detail_004_kani=true&JigyosyoCd=0972100424-00&ServiceCd=170&Type=search", "url2": "http://www.t-hibiki.co.jp" }, "geometry": { "type": "Point", "coordinates": [ 139.925501841407993, 36.593862817958573 ] } },
{ "type": "Feature", "properties": { "内容": "株式会社　サンライフ【福祉用具貸与】栃木県足利市県町１１０６－２", "url": "https://www.kaigokensaku.mhlw.go.jp/09/index.php?action_kouhyou_detail_004_kani=true&JigyosyoCd=0970201687-00&ServiceCd=170&Type=search", "url2": "http://sunlife.chiharuya.com/" }, "geometry": { "type": "Point", "coordinates": [ 139.466898300000025, 36.2820383 ] } },
{ "type": "Feature", "properties": { "内容": "ケアサポートセンターすまいる【福祉用具貸与】栃木県足利市山下町1205-12", "url": "https://www.kaigokensaku.mhlw.go.jp/09/index.php?action_kouhyou_detail_004_kani=true&JigyosyoCd=0970202859-00&ServiceCd=170&Type=search", "url2": null }, "geometry": { "type": "Point", "coordinates": [ 139.407114299999989, 36.35422 ] } },
{ "type": "Feature", "properties": { "内容": "ＭＩＺＵＫＯ福祉サービス【福祉用具貸与】栃木県足利市小俣町２７４０－１", "url": "https://www.kaigokensaku.mhlw.go.jp/09/index.php?action_kouhyou_detail_004_kani=true&JigyosyoCd=0970203766-00&ServiceCd=170&Type=search", "url2": null }, "geometry": { "type": "Point", "coordinates": [ 139.3750847, 36.3891973 ] } },
{ "type": "Feature", "properties": { "内容": "楽笑福祉用具【福祉用具貸与】栃木県足利市利保町2-15-1", "url": "https://www.kaigokensaku.mhlw.go.jp/09/index.php?action_kouhyou_detail_004_kani=true&JigyosyoCd=0970203659-00&ServiceCd=170&Type=search", "url2": null }, "geometry": { "type": "Point", "coordinates": [ 139.472446644180309, 36.357366975906125 ] } },
{ "type": "Feature", "properties": { "内容": "足利ケアサービス【福祉用具貸与】栃木県足利市五十部町８０９－３", "url": "https://www.kaigokensaku.mhlw.go.jp/09/index.php?action_kouhyou_detail_004_kani=true&JigyosyoCd=0970200440-00&ServiceCd=170&Type=search", "url2": null }, "geometry": { "type": "Point", "coordinates": [ 139.423690399999941, 36.3463333 ] } },
{ "type": "Feature", "properties": { "内容": "中央ケアサポート【福祉用具貸与】栃木県足利市五十部町499-32F", "url": "https://www.kaigokensaku.mhlw.go.jp/09/index.php?action_kouhyou_detail_004_kani=true&JigyosyoCd=0970200549-00&ServiceCd=170&Type=search", "url2": "無し" }, "geometry": { "type": "Point", "coordinates": [ 139.421694838514668, 36.342690670641723 ] } },
{ "type": "Feature", "properties": { "内容": "株式会社ナガシマ【福祉用具貸与】栃木県足利市福居町１０４３－８", "url": "https://www.kaigokensaku.mhlw.go.jp/09/index.php?action_kouhyou_detail_004_kani=true&JigyosyoCd=0970200705-00&ServiceCd=170&Type=search", "url2": null }, "geometry": { "type": "Point", "coordinates": [ 139.451707199999987, 36.3088431 ] } },
{ "type": "Feature", "properties": { "内容": "倉林有限会社【福祉用具貸与】栃木県足利市借宿町1丁目5番1号", "url": "https://www.kaigokensaku.mhlw.go.jp/09/index.php?action_kouhyou_detail_004_kani=true&JigyosyoCd=0970200796-00&ServiceCd=170&Type=search", "url2": null }, "geometry": { "type": "Point", "coordinates": [ 139.428531499999963, 36.3293046 ] } },
{ "type": "Feature", "properties": { "内容": "カノンケアサービス【福祉用具貸与】栃木県足利市中川町３５６７－１", "url": "https://www.kaigokensaku.mhlw.go.jp/09/index.php?action_kouhyou_detail_004_kani=true&JigyosyoCd=0970201604-00&ServiceCd=170&Type=search", "url2": null }, "geometry": { "type": "Point", "coordinates": [ 139.424949079407696, 36.329384787412465 ] } },
{ "type": "Feature", "properties": { "内容": "株式会社エハラ　ライフメディカル【福祉用具貸与】栃木県足利市久松町128", "url": "https://www.kaigokensaku.mhlw.go.jp/09/index.php?action_kouhyou_detail_004_kani=true&JigyosyoCd=0970202388-00&ServiceCd=170&Type=search", "url2": null }, "geometry": { "type": "Point", "coordinates": [ 139.469464731132263, 36.33307102276693 ] } },
{ "type": "Feature", "properties": { "内容": "株式会社ヤマシタ　足利営業所【福祉用具貸与】栃木県足利市山川町777", "url": "https://www.kaigokensaku.mhlw.go.jp/09/index.php?action_kouhyou_detail_004_kani=true&JigyosyoCd=0970203402-00&ServiceCd=170&Type=search", "url2": "http://www.yco.jp" }, "geometry": { "type": "Point", "coordinates": [ 139.477468700000031, 36.3261675 ] } },
{ "type": "Feature", "properties": { "内容": "栃木県足利市五十部町565【福祉用具貸与】栃木県足利市五十部町565", "url": "https://www.kaigokensaku.mhlw.go.jp/09/index.php?action_kouhyou_detail_004_kani=true&JigyosyoCd=0970203774-00&ServiceCd=170&Type=search", "url2": null }, "geometry": { "type": "Point", "coordinates": [ 139.4161594, 36.3437182 ] } },
{ "type": "Feature", "properties": { "内容": "ケアフレンド三和【福祉用具貸与】栃木県足利市板倉町214-3", "url": "https://www.kaigokensaku.mhlw.go.jp/09/index.php?action_kouhyou_detail_004_kani=true&JigyosyoCd=0970200788-00&ServiceCd=170&Type=search", "url2": null }, "geometry": { "type": "Point", "coordinates": [ 139.399430045893808, 36.373723591868696 ] } },
{ "type": "Feature", "properties": { "内容": "石川商事株式会社【福祉用具貸与】栃木県栃木市沼和田町１２－１５平和ハイツ１階", "url": "https://www.kaigokensaku.mhlw.go.jp/09/index.php?action_kouhyou_detail_004_kani=true&JigyosyoCd=0970301644-00&ServiceCd=170&Type=search", "url2": null }, "geometry": { "type": "Point", "coordinates": [ 139.732779100000016, 36.3688931 ] } },
{ "type": "Feature", "properties": { "内容": "栃木ケアサポートひまわり【福祉用具貸与】栃木県栃木市祝町12-9", "url": "https://www.kaigokensaku.mhlw.go.jp/09/index.php?action_kouhyou_detail_004_kani=true&JigyosyoCd=0970300463-00&ServiceCd=170&Type=search", "url2": null }, "geometry": { "type": "Point", "coordinates": [ 139.7274205, 36.3818969 ] } },
{ "type": "Feature", "properties": { "内容": "有限会社　栃木ケアーズ【福祉用具貸与】栃木県栃木市箱森町19-34", "url": "https://www.kaigokensaku.mhlw.go.jp/09/index.php?action_kouhyou_detail_004_kani=true&JigyosyoCd=0970300414-00&ServiceCd=170&Type=search", "url2": "http://www.t-cares.co.jp" }, "geometry": { "type": "Point", "coordinates": [ 139.7205596, 36.3899985 ] } },
{ "type": "Feature", "properties": { "内容": "廣田商事株式会社【福祉用具貸与】栃木県栃木市箱森町51-41", "url": "https://www.kaigokensaku.mhlw.go.jp/09/index.php?action_kouhyou_detail_004_kani=true&JigyosyoCd=0970300026-00&ServiceCd=170&Type=search", "url2": null }, "geometry": { "type": "Point", "coordinates": [ 139.730922, 36.3976757 ] } },
{ "type": "Feature", "properties": { "内容": "丸光ケアレンタル・住宅改修・販売【福祉用具貸与】栃木県栃木市箱森町50番15号", "url": "https://www.kaigokensaku.mhlw.go.jp/09/index.php?action_kouhyou_detail_004_kani=true&JigyosyoCd=0970300315-00&ServiceCd=170&Type=search", "url2": "https://marumitsu-care.jp/" }, "geometry": { "type": "Point", "coordinates": [ 139.727214099999969, 36.3972173 ] } },
{ "type": "Feature", "properties": { "内容": "テクノエイド総合センター　アビリティーズとちぎ【福祉用具貸与】栃木県栃木市今泉町１－５－１１", "url": "https://www.kaigokensaku.mhlw.go.jp/09/index.php?action_kouhyou_detail_004_kani=true&JigyosyoCd=0970300653-00&ServiceCd=170&Type=search", "url2": "http://abilities.jp" }, "geometry": { "type": "Point", "coordinates": [ 139.74801279999997, 36.3869969 ] } },
{ "type": "Feature", "properties": { "内容": "ダスキンヘルスレント栃木ステ－ション【福祉用具貸与】栃木県栃木市大平町牛久28-2", "url": "https://www.kaigokensaku.mhlw.go.jp/09/index.php?action_kouhyou_detail_004_kani=true&JigyosyoCd=0970300687-00&ServiceCd=170&Type=search", "url2": "http://www.healthrent.duskin.jp" }, "geometry": { "type": "Point", "coordinates": [ 139.734641013450982, 36.358569939074229 ] } },
{ "type": "Feature", "properties": { "内容": "株式会社トラスト・ケア【福祉用具貸与】栃木県栃木市大町19-10", "url": "https://www.kaigokensaku.mhlw.go.jp/09/index.php?action_kouhyou_detail_004_kani=true&JigyosyoCd=0970301347-00&ServiceCd=170&Type=search", "url2": "http://trust-care.webnode.jp/" }, "geometry": { "type": "Point", "coordinates": [ 139.734950114155595, 36.394748707137119 ] } },
{ "type": "Feature", "properties": { "内容": "あいケアステーション【福祉用具貸与】栃木県栃木市薗部町2丁目5番9号", "url": "https://www.kaigokensaku.mhlw.go.jp/09/index.php?action_kouhyou_detail_004_kani=true&JigyosyoCd=0970301693-00&ServiceCd=170&Type=search", "url2": "https://i-care.co.jp/" }, "geometry": { "type": "Point", "coordinates": [ 139.716287210311862, 36.374616853708922 ] } },
{ "type": "Feature", "properties": { "内容": "東京インテリアＭＳ栃木【福祉用具貸与】栃木県栃木市平柳町1-35-31", "url": "https://www.kaigokensaku.mhlw.go.jp/09/index.php?action_kouhyou_detail_004_kani=true&JigyosyoCd=0970302139-00&ServiceCd=170&Type=search", "url2": "http://www.tokyointerior.co.jp/service/nursingcare/" }, "geometry": { "type": "Point", "coordinates": [ 139.737540399999943, 36.3947536 ] } },
{ "type": "Feature", "properties": { "内容": "有限会社大前設備【福祉用具貸与】藤岡町大前39-1", "url": "https://www.kaigokensaku.mhlw.go.jp/09/index.php?action_kouhyou_detail_004_kani=true&JigyosyoCd=0970302501-00&ServiceCd=170&Type=search", "url2": "https://www.ohmaesetzbi.co.jp/" }, "geometry": { "type": "Point", "coordinates": [ 139.651685599999979, 36.2704775 ] } },
{ "type": "Feature", "properties": { "内容": "株式会社ハルプ・エンタープライズ【福祉用具貸与】栃木県佐野市堀米町１３４８－５", "url": "https://www.kaigokensaku.mhlw.go.jp/09/index.php?action_kouhyou_detail_004_kani=true&JigyosyoCd=0970401006-00&ServiceCd=170&Type=search", "url2": "http://halp.co.jp/" }, "geometry": { "type": "Point", "coordinates": [ 139.579415400000016, 36.3292923 ] } },
{ "type": "Feature", "properties": { "内容": "エフビー介護サービス株式会社佐野営業所【福祉用具貸与】栃木県佐野市富岡町1509-1", "url": "https://www.kaigokensaku.mhlw.go.jp/09/index.php?action_kouhyou_detail_004_kani=true&JigyosyoCd=0970402228-00&ServiceCd=170&Type=search", "url2": "https://fb-kaigo.co.jp" }, "geometry": { "type": "Point", "coordinates": [ 139.595939006745908, 36.314825587431514 ] } },
{ "type": "Feature", "properties": { "内容": "あんさ補聴器介護サービス【福祉用具貸与】栃木県佐野市富岡町72-7", "url": "https://www.kaigokensaku.mhlw.go.jp/09/index.php?action_kouhyou_detail_004_kani=true&JigyosyoCd=0970402392-00&ServiceCd=170&Type=search", "url2": "https://ansa9077.com/" }, "geometry": { "type": "Point", "coordinates": [ 139.589088366888689, 36.321406678253446 ] } },
{ "type": "Feature", "properties": { "内容": "野澤産業株式会社介護事業おりづる【福祉用具貸与】栃木県鹿沼市茂呂923-32", "url": "https://www.kaigokensaku.mhlw.go.jp/09/index.php?action_kouhyou_detail_004_kani=true&JigyosyoCd=0970501219-00&ServiceCd=170&Type=search", "url2": null }, "geometry": { "type": "Point", "coordinates": [ 139.790645300000051, 36.5489418 ] } },
{ "type": "Feature", "properties": { "内容": "ピュアぶらんち【福祉用具貸与】栃木県鹿沼市西茂呂2-3-20", "url": "https://www.kaigokensaku.mhlw.go.jp/09/index.php?action_kouhyou_detail_004_kani=true&JigyosyoCd=0970501276-00&ServiceCd=170&Type=search", "url2": "http://www.pureblanch.com/" }, "geometry": { "type": "Point", "coordinates": [ 139.7701664, 36.5559043 ] } },
{ "type": "Feature", "properties": { "内容": "介護ショップいせも【福祉用具貸与】栃木県鹿沼市久保町1285", "url": "https://www.kaigokensaku.mhlw.go.jp/09/index.php?action_kouhyou_detail_004_kani=true&JigyosyoCd=0970500104-00&ServiceCd=170&Type=search", "url2": null }, "geometry": { "type": "Point", "coordinates": [ 139.7470793, 36.5650636 ] } },
{ "type": "Feature", "properties": { "内容": "介護用品　さんて【福祉用具貸与】栃木県鹿沼市上野55-2", "url": "https://www.kaigokensaku.mhlw.go.jp/09/index.php?action_kouhyou_detail_004_kani=true&JigyosyoCd=0970500831-00&ServiceCd=170&Type=search", "url2": null }, "geometry": { "type": "Point", "coordinates": [ 139.7658523, 36.5727494 ] } },
{ "type": "Feature", "properties": { "内容": "関東メディカル株式会社　栃木営業所【福祉用具貸与】栃木県鹿沼市松原3丁目119番1", "url": "https://www.kaigokensaku.mhlw.go.jp/09/index.php?action_kouhyou_detail_004_kani=true&JigyosyoCd=0970500922-00&ServiceCd=170&Type=search", "url2": "http://kmc-tochigi.jimdo.com" }, "geometry": { "type": "Point", "coordinates": [ 139.816204708644364, 36.550326087889403 ] } },
{ "type": "Feature", "properties": { "内容": "ダスキンヘルスレントかぬまステーション【福祉用具貸与】貝島町796-25", "url": "https://www.kaigokensaku.mhlw.go.jp/09/index.php?action_kouhyou_detail_004_kani=true&JigyosyoCd=0970501284-00&ServiceCd=170&Type=search", "url2": "http://www.healthrent.duskin.jp" }, "geometry": { "type": "Point", "coordinates": [ 139.755517599999962, 36.5599117 ] } },
{ "type": "Feature", "properties": { "内容": "ひまわり館栃木西営業所【福祉用具貸与】栃木県日光市並木町3-3", "url": "https://www.kaigokensaku.mhlw.go.jp/09/index.php?action_kouhyou_detail_004_kani=true&JigyosyoCd=0970600656-00&ServiceCd=170&Type=search", "url2": "http://www.fujielectric.co.jp/fols/welfare/index.html" }, "geometry": { "type": "Point", "coordinates": [ 139.696755199999984, 36.7197609 ] } },
{ "type": "Feature", "properties": { "内容": "ニチイケアセンター小山城東【福祉用具貸与】栃木県小山市城東1丁目6番42号第３高岩ビル１階", "url": "https://www.kaigokensaku.mhlw.go.jp/09/index.php?action_kouhyou_detail_004_kani=true&JigyosyoCd=0970800884-00&ServiceCd=170&Type=search", "url2": "http://www.nichiigakkan.co.jp" }, "geometry": { "type": "Point", "coordinates": [ 139.813007800000037, 36.3099303 ] } },
{ "type": "Feature", "properties": { "内容": "パナソニックエイジフリーショップ小山店【福祉用具貸与】小山市神鳥谷１０８１－１", "url": "https://www.kaigokensaku.mhlw.go.jp/09/index.php?action_kouhyou_detail_004_kani=true&JigyosyoCd=0970800876-00&ServiceCd=170&Type=search", "url2": "http://www.kaigo-sagara.jp/" }, "geometry": { "type": "Point", "coordinates": [ 139.798270561823983, 36.303202266714393 ] } },
{ "type": "Feature", "properties": { "内容": "福祉レンタルたいよう【福祉用具貸与】栃木県小山市犬塚6-17-1", "url": "https://www.kaigokensaku.mhlw.go.jp/09/index.php?action_kouhyou_detail_004_kani=true&JigyosyoCd=0970801585-00&ServiceCd=170&Type=search", "url2": "https://taiyougroup.jp/" }, "geometry": { "type": "Point", "coordinates": [ 139.834044063346823, 36.300360370906063 ] } },
{ "type": "Feature", "properties": { "内容": "東京インテリア　ＭＳ　小山【福祉用具貸与】栃木県小山市神鳥谷２７３－４", "url": "https://www.kaigokensaku.mhlw.go.jp/09/index.php?action_kouhyou_detail_004_kani=true&JigyosyoCd=0970802112-00&ServiceCd=170&Type=search", "url2": null }, "geometry": { "type": "Point", "coordinates": [ 100.329455, 25.233099 ] } },
{ "type": "Feature", "properties": { "内容": "エミアスレント株式会社【福祉用具貸与】栃木県小山市城東5丁目5-3", "url": "https://www.kaigokensaku.mhlw.go.jp/09/index.php?action_kouhyou_detail_004_kani=true&JigyosyoCd=0970802187-00&ServiceCd=170&Type=search", "url2": null }, "geometry": { "type": "Point", "coordinates": [ 139.818949613389094, 36.314287068279683 ] } },
{ "type": "Feature", "properties": { "内容": "ライフプラン株式会社【福祉用具貸与】栃木県小山市駅東通り２丁目３５番１０号", "url": "https://www.kaigokensaku.mhlw.go.jp/09/index.php?action_kouhyou_detail_004_kani=true&JigyosyoCd=0970802260-00&ServiceCd=170&Type=search", "url2": "www.life-p.biz" }, "geometry": { "type": "Point", "coordinates": [ 139.8118409, 36.3129446 ] } },
{ "type": "Feature", "properties": { "内容": "小山福祉レンタルサービス【福祉用具貸与】栃木県小山市駅東通り二丁目40番6号", "url": "https://www.kaigokensaku.mhlw.go.jp/09/index.php?action_kouhyou_detail_004_kani=true&JigyosyoCd=0970802765-00&ServiceCd=170&Type=search", "url2": "nitto-rental.co.jp" }, "geometry": { "type": "Point", "coordinates": [ 139.811454799999979, 36.3104532 ] } },
{ "type": "Feature", "properties": { "内容": "ｴﾌﾋﾞｰｶｲｺﾞｻｰﾋﾞｽｶﾌﾞｼｷｶﾞｲｼｬｵﾔﾏｴｲｷﾞｮｳｼｮ【福祉用具貸与】栃木県小山市城北1-18-9", "url": "https://www.kaigokensaku.mhlw.go.jp/09/index.php?action_kouhyou_detail_004_kani=true&JigyosyoCd=0970803094-00&ServiceCd=170&Type=search", "url2": "https://www.fb-kaigo.co.jp" }, "geometry": { "type": "Point", "coordinates": [ 139.816190400000011, 36.322965 ] } },
{ "type": "Feature", "properties": { "内容": "福祉用具レンタルこのじ【福祉用具貸与】栃木県小山市東城南４丁目２０番８号パークサイドアパートメント2101", "url": "https://www.kaigokensaku.mhlw.go.jp/09/index.php?action_kouhyou_detail_004_kani=true&JigyosyoCd=0970803284-00&ServiceCd=170&Type=search", "url2": null }, "geometry": { "type": "Point", "coordinates": [ 139.807892399999986, 36.291125 ] } },
{ "type": "Feature", "properties": { "内容": "JAはが野福祉レンタル【福祉用具貸与】栃木県真岡市飯貝559番地2", "url": "https://www.kaigokensaku.mhlw.go.jp/09/index.php?action_kouhyou_detail_004_kani=true&JigyosyoCd=0970900288-00&ServiceCd=170&Type=search", "url2": "http://www.ja-hagano.or.jp/" }, "geometry": { "type": "Point", "coordinates": [ 140.018665, 36.4775674 ] } },
{ "type": "Feature", "properties": { "内容": "有限会社　大瀧ホームメディカル【福祉用具貸与】栃木県真岡市寺久保1丁目6-2", "url": "https://www.kaigokensaku.mhlw.go.jp/09/index.php?action_kouhyou_detail_004_kani=true&JigyosyoCd=0970900437-00&ServiceCd=170&Type=search", "url2": "http://ootaki-medical.com/" }, "geometry": { "type": "Point", "coordinates": [ 140.001435484794683, 36.447934436820326 ] } },
{ "type": "Feature", "properties": { "内容": "有限会社えびはら【福祉用具貸与】栃木県真岡市久下田８４７", "url": "https://www.kaigokensaku.mhlw.go.jp/09/index.php?action_kouhyou_detail_004_kani=true&JigyosyoCd=0972700173-00&ServiceCd=170&Type=search", "url2": null }, "geometry": { "type": "Point", "coordinates": [ 139.9697787, 36.376224 ] } },
{ "type": "Feature", "properties": { "内容": "株式会社厚木商会　福祉事業部　にこにこラボ【福祉用具貸与】栃木県真岡市石島941", "url": "https://www.kaigokensaku.mhlw.go.jp/09/index.php?action_kouhyou_detail_004_kani=true&JigyosyoCd=0970900643-00&ServiceCd=170&Type=search", "url2": null }, "geometry": { "type": "Point", "coordinates": [ 139.9701784, 36.3914751 ] } },
{ "type": "Feature", "properties": { "内容": "生活らくらく本舗　匠フィッティング【福祉用具貸与】栃木県真岡市並木町３－２９－１エコノプラザ並木１０３号室", "url": "https://www.kaigokensaku.mhlw.go.jp/09/index.php?action_kouhyou_detail_004_kani=true&JigyosyoCd=0970900916-00&ServiceCd=170&Type=search", "url2": "https://www.rakuraku-updraft.com" }, "geometry": { "type": "Point", "coordinates": [ 139.999298399999986, 36.4456673 ] } },
{ "type": "Feature", "properties": { "内容": "株式会社まつや薬局卸部【福祉用具貸与】栃木県大田原市新富町１－２４５－７", "url": "https://www.kaigokensaku.mhlw.go.jp/09/index.php?action_kouhyou_detail_004_kani=true&JigyosyoCd=0971000062-00&ServiceCd=170&Type=search", "url2": null }, "geometry": { "type": "Point", "coordinates": [ 140.028582, 36.8652434 ] } },
{ "type": "Feature", "properties": { "内容": "東京インテリアMS大田原【福祉用具貸与】栃木県大田原市浅香３丁目３５９９番地８", "url": "https://www.kaigokensaku.mhlw.go.jp/09/index.php?action_kouhyou_detail_004_kani=true&JigyosyoCd=0971000930-00&ServiceCd=170&Type=search", "url2": "http://www.tokyointerior.co.jp/" }, "geometry": { "type": "Point", "coordinates": [ 140.01789801267239, 36.855911102811135 ] } },
{ "type": "Feature", "properties": { "内容": "ダスキンヘルスレント大田原ステーション【福祉用具貸与】本町1-2703-129", "url": "https://www.kaigokensaku.mhlw.go.jp/09/index.php?action_kouhyou_detail_004_kani=true&JigyosyoCd=0971001417-00&ServiceCd=170&Type=search", "url2": "https://healthrent.duskin.jp/station/tochigi/ohtawara.html" }, "geometry": { "type": "Point", "coordinates": [ 140.01025, 36.870928 ] } },
{ "type": "Feature", "properties": { "内容": "ワールドサテライト【福祉用具貸与】栃木県大田原市紫塚３丁目２６４１番地３０ノースアベニュー紫塚Ⅱ１０５号", "url": "https://www.kaigokensaku.mhlw.go.jp/09/index.php?action_kouhyou_detail_004_kani=true&JigyosyoCd=0971100698-00&ServiceCd=170&Type=search", "url2": null }, "geometry": { "type": "Point", "coordinates": [ 140.021023431032944, 36.877384703386603 ] } },
{ "type": "Feature", "properties": { "内容": "株式会社ライフパートナーズ【福祉用具貸与】栃木県大田原市野崎1-5-2", "url": "https://www.kaigokensaku.mhlw.go.jp/09/index.php?action_kouhyou_detail_004_kani=true&JigyosyoCd=0971001524-00&ServiceCd=170&Type=search", "url2": null }, "geometry": { "type": "Point", "coordinates": [ 139.9552453, 36.8427672 ] } },
{ "type": "Feature", "properties": { "内容": "ひまわり館大田原営業所【福祉用具貸与】栃木県大田原市美原2-3228-31", "url": "https://www.kaigokensaku.mhlw.go.jp/09/index.php?action_kouhyou_detail_004_kani=true&JigyosyoCd=0971001110-00&ServiceCd=170&Type=search", "url2": "http://www.fujielectric.co.jp/fols/welfare/index.html" }, "geometry": { "type": "Point", "coordinates": [ 140.005552149569127, 36.866276058692335 ] } },
{ "type": "Feature", "properties": { "内容": "くらしのリフォーム快適屋【福祉用具貸与】栃木県大田原市中央1丁目13-10那須土木株式会社本社1階", "url": "https://www.kaigokensaku.mhlw.go.jp/09/index.php?action_kouhyou_detail_004_kani=true&JigyosyoCd=0971001052-00&ServiceCd=170&Type=search", "url2": "http://www.kaitekiya-net.com/" }, "geometry": { "type": "Point", "coordinates": [ 140.02542649999998, 36.8670542 ] } },
{ "type": "Feature", "properties": { "内容": "エポックケア【福祉用具貸与】栃木県矢板市末広町11-6", "url": "https://www.kaigokensaku.mhlw.go.jp/09/index.php?action_kouhyou_detail_004_kani=true&JigyosyoCd=0971100425-00&ServiceCd=170&Type=search", "url2": "http://www.epoch-kaigo.com" }, "geometry": { "type": "Point", "coordinates": [ 139.935619967459161, 36.807383393505937 ] } },
{ "type": "Feature", "properties": { "内容": "エポック【福祉用具貸与】栃木県矢板市末広町11-6", "url": "https://www.kaigokensaku.mhlw.go.jp/09/index.php?action_kouhyou_detail_004_kani=true&JigyosyoCd=0971100730-00&ServiceCd=170&Type=search", "url2": "https://www.ioukai-group.com/" }, "geometry": { "type": "Point", "coordinates": [ 139.9355764, 36.8073826 ] } },
{ "type": "Feature", "properties": { "内容": "株式会社　キガ　那須営業所【福祉用具貸与】栃木県那須塩原市三島4丁目25番地6", "url": "https://www.kaigokensaku.mhlw.go.jp/09/index.php?action_kouhyou_detail_004_kani=true&JigyosyoCd=0971300348-00&ServiceCd=170&Type=search", "url2": "http://www.kiga.co.jp" }, "geometry": { "type": "Point", "coordinates": [ 139.958449412089522, 36.876264274837936 ] } },
{ "type": "Feature", "properties": { "内容": "株式会社　開窓【福祉用具貸与】栃木県那須塩原市上中野52番地", "url": "https://www.kaigokensaku.mhlw.go.jp/09/index.php?action_kouhyou_detail_004_kani=true&JigyosyoCd=0971300819-00&ServiceCd=170&Type=search", "url2": "https://www.kaisoh.co.jp" }, "geometry": { "type": "Point", "coordinates": [ 140.001051800000027, 36.9240419 ] } },
{ "type": "Feature", "properties": { "内容": "トーモク株式会社ホームケア事業部ケアショップなす【福祉用具貸与】四区町680-4", "url": "https://www.kaigokensaku.mhlw.go.jp/09/index.php?action_kouhyou_detail_004_kani=true&JigyosyoCd=0971301577-00&ServiceCd=170&Type=search", "url2": "http://tomoku-inc.jp/business/care.html" }, "geometry": { "type": "Point", "coordinates": [ 139.948185, 36.8990095 ] } },
{ "type": "Feature", "properties": { "内容": "ありんこケアサービス【福祉用具貸与】栃木県那須塩原市緑2-1293-5", "url": "https://www.kaigokensaku.mhlw.go.jp/09/index.php?action_kouhyou_detail_004_kani=true&JigyosyoCd=0971301692-00&ServiceCd=170&Type=search", "url2": null }, "geometry": { "type": "Point", "coordinates": [ 139.993540177219444, 36.870992066850121 ] } },
{ "type": "Feature", "properties": { "内容": "福祉用具　エルサ【福祉用具貸与】栃木県那須塩原市東赤田321番地1221", "url": "https://www.kaigokensaku.mhlw.go.jp/09/index.php?action_kouhyou_detail_004_kani=true&JigyosyoCd=0971301874-00&ServiceCd=170&Type=search", "url2": "https://w-life.org/" }, "geometry": { "type": "Point", "coordinates": [ 139.966603600000013, 36.903252755262763 ] } },
{ "type": "Feature", "properties": { "内容": "株式会社　デル・コラソン【福祉用具貸与】栃木県那須塩原市大黒町２－５", "url": "https://www.kaigokensaku.mhlw.go.jp/09/index.php?action_kouhyou_detail_004_kani=true&JigyosyoCd=0971200167-00&ServiceCd=170&Type=search", "url2": null }, "geometry": { "type": "Point", "coordinates": [ 140.049061212828065, 36.971164834401002 ] } },
{ "type": "Feature", "properties": { "内容": "福祉用具サポート　たすき【福祉用具貸与】栃木県さくら市氏家1817-11", "url": "https://www.kaigokensaku.mhlw.go.jp/09/index.php?action_kouhyou_detail_004_kani=true&JigyosyoCd=0971400189-00&ServiceCd=170&Type=search", "url2": "http://care-mamoru.jp/" }, "geometry": { "type": "Point", "coordinates": [ 139.966557898811288, 36.678748616969919 ] } },
{ "type": "Feature", "properties": { "内容": "有限会社だるま薬局【福祉用具貸与】さくら市氏家3205-1", "url": "https://www.kaigokensaku.mhlw.go.jp/09/index.php?action_kouhyou_detail_004_kani=true&JigyosyoCd=0972600290-00&ServiceCd=170&Type=search", "url2": "https://daruma-sakura.jp/" }, "geometry": { "type": "Point", "coordinates": [ 139.964511, 36.6804243 ] } },
{ "type": "Feature", "properties": { "内容": "至誠福祉サービス【福祉用具貸与】栃木県那須烏山市小河原36番地1", "url": "https://www.kaigokensaku.mhlw.go.jp/09/index.php?action_kouhyou_detail_004_kani=true&JigyosyoCd=0971500236-00&ServiceCd=170&Type=search", "url2": null }, "geometry": { "type": "Point", "coordinates": [ 140.1059433, 36.6569015 ] } },
{ "type": "Feature", "properties": { "内容": "ケアライフじん【福祉用具貸与】栃木県那須烏山市旭1-17-31F", "url": "https://www.kaigokensaku.mhlw.go.jp/09/index.php?action_kouhyou_detail_004_kani=true&JigyosyoCd=0971500145-00&ServiceCd=170&Type=search", "url2": null }, "geometry": { "type": "Point", "coordinates": [ 140.163374299999958, 36.6534286 ] } },
{ "type": "Feature", "properties": { "内容": "株式会社　フレンド【福祉用具貸与】栃木県下野市祇園1-10-3", "url": "https://www.kaigokensaku.mhlw.go.jp/09/index.php?action_kouhyou_detail_004_kani=true&JigyosyoCd=0970800231-00&ServiceCd=170&Type=search", "url2": "http://www.f-pw.jp" }, "geometry": { "type": "Point", "coordinates": [ 139.858892331693312, 36.397394453355759 ] } },
{ "type": "Feature", "properties": { "内容": "下野福祉レンタルサービス【福祉用具貸与】栃木県下野市上大領284-5", "url": "https://www.kaigokensaku.mhlw.go.jp/09/index.php?action_kouhyou_detail_004_kani=true&JigyosyoCd=0971600846-00&ServiceCd=170&Type=search", "url2": "nitto-rental.co.jp" }, "geometry": { "type": "Point", "coordinates": [ 139.852597800000012, 36.436733 ] } },
{ "type": "Feature", "properties": { "内容": "ケアサービスサンクス石橋【福祉用具貸与】石橋２７番地リビングサンクス石橋", "url": "https://www.kaigokensaku.mhlw.go.jp/09/index.php?action_kouhyou_detail_004_kani=true&JigyosyoCd=0971600788-00&ServiceCd=170&Type=search", "url2": "http://www.living-thanks.co.jp/" }, "geometry": { "type": "Point", "coordinates": [ 139.864002699999986, 36.4295842 ] } },
{ "type": "Feature", "properties": { "内容": "福祉用具　やじま【福祉用具貸与】栃木県芳賀郡益子町益子1350", "url": "https://www.kaigokensaku.mhlw.go.jp/09/index.php?action_kouhyou_detail_004_kani=true&JigyosyoCd=0972701072-00&ServiceCd=170&Type=search", "url2": "http://www.fukushiyajima.com" }, "geometry": { "type": "Point", "coordinates": [ 140.088453599999951, 36.464167040097159 ] } },
{ "type": "Feature", "properties": { "内容": "ひばり福祉サービス【福祉用具貸与】栃木県芳賀郡芳賀町祖母井南1-11-1", "url": "https://www.kaigokensaku.mhlw.go.jp/09/index.php?action_kouhyou_detail_004_kani=true&JigyosyoCd=0972700900-00&ServiceCd=170&Type=search", "url2": null }, "geometry": { "type": "Point", "coordinates": [ 140.059928891401682, 36.546138391216765 ] } },
{ "type": "Feature", "properties": { "内容": "グランセーロ恵喜【福祉用具貸与】栃木県下都賀郡壬生町本丸2-22-5グランセーロ恵喜", "url": "https://www.kaigokensaku.mhlw.go.jp/09/index.php?action_kouhyou_detail_004_kani=true&JigyosyoCd=0972301410-00&ServiceCd=170&Type=search", "url2": "ｈｔｔｐ：//www.gransero.com" }, "geometry": { "type": "Point", "coordinates": [ 139.797769271163929, 36.421609796397455 ] } },
{ "type": "Feature", "properties": { "内容": "ヘルパーステーション　菜の花【福祉用具貸与】栃木県下都賀郡野木町南赤塚1200-10", "url": "https://www.kaigokensaku.mhlw.go.jp/09/index.php?action_kouhyou_detail_004_kani=true&JigyosyoCd=0972300834-00&ServiceCd=170&Type=search", "url2": "http://www.nogihosp.or.jp" }, "geometry": { "type": "Point", "coordinates": [ 139.748461499999962, 36.2173979 ] } },
{ "type": "Feature", "properties": { "内容": "三鈴堂　那須事業所【福祉用具貸与】栃木県那須郡那須町寺子乙2562-24", "url": "https://www.kaigokensaku.mhlw.go.jp/09/index.php?action_kouhyou_detail_004_kani=true&JigyosyoCd=0972501381-00&ServiceCd=170&Type=search", "url2": null }, "geometry": { "type": "Point", "coordinates": [ 140.107682100000034, 37.0168371 ] } },
{ "type": "Feature", "properties": { "内容": "なす福祉用具サービス【福祉用具貸与】栃木県那須郡那須町寺子丙2-65", "url": "https://www.kaigokensaku.mhlw.go.jp/09/index.php?action_kouhyou_detail_004_kani=true&JigyosyoCd=0972501621-00&ServiceCd=170&Type=search", "url2": null }, "geometry": { "type": "Point", "coordinates": [ 140.118503244065323, 37.022374289521757 ] } }
]
}
