{
"type": "FeatureCollection",
"name": "geo_09_義務教育学校",
"crs": { "type": "name", "properties": { "name": "urn:ogc:def:crs:EPSG::6668" } },
"features": [
{ "type": "Feature", "properties": { "P29_001": "09208", "P29_002": "C209210000017", "P29_003": "16014", "P29_004": "小山市立絹義務教育学校", "P29_005": "栃木県小山市大字福良2240-1", "P29_006": "3", "P29_007": "1", "P29_008": "00", "P29_009": null }, "geometry": { "type": "Point", "coordinates": [ 139.895336708266854, 36.329541595735122 ] } },
{ "type": "Feature", "properties": { "P29_001": "09213", "P29_002": "C209210000026", "P29_003": "16014", "P29_004": "那須塩原市立塩原小中学校", "P29_005": "栃木県那須塩原市中塩原364", "P29_006": "3", "P29_007": "1", "P29_008": "00", "P29_009": null }, "geometry": { "type": "Point", "coordinates": [ 139.80539994806395, 36.979680114378404 ] } },
{ "type": "Feature", "properties": { "P29_001": "09204", "P29_002": "C209210000035", "P29_003": "16014", "P29_004": "佐野市立あそ野学園義務教育学校", "P29_005": "栃木県佐野市戸室町156", "P29_006": "3", "P29_007": "1", "P29_008": "00", "P29_009": null }, "geometry": { "type": "Point", "coordinates": [ 139.571144477721106, 36.380180804833003 ] } },
{ "type": "Feature", "properties": { "P29_001": "09216", "P29_002": "C209210000044", "P29_003": "16014", "P29_004": "下野市立南河内小中学校", "P29_005": "栃木県下野市薬師寺986", "P29_006": "3", "P29_007": "1", "P29_008": "00", "P29_009": null }, "geometry": { "type": "Point", "coordinates": [ 139.876399980440652, 36.386777280272206 ] } },
{ "type": "Feature", "properties": { "P29_001": "09204", "P29_002": "C209210000053", "P29_003": "16014", "P29_004": "佐野市立葛生義務教育学校", "P29_005": "栃木県佐野市葛生西3-4-1", "P29_006": "3", "P29_007": "1", "P29_008": "00", "P29_009": null }, "geometry": { "type": "Point", "coordinates": [ 139.610793681596675, 36.410734244599396 ] } },
{ "type": "Feature", "properties": { "P29_001": "09213", "P29_002": "C209210000062", "P29_003": "16014", "P29_004": "那須塩原市立箒根学園", "P29_005": "栃木県那須塩原市関谷2018-1", "P29_006": "3", "P29_007": "1", "P29_008": "00", "P29_009": null }, "geometry": { "type": "Point", "coordinates": [ 139.902562642657472, 36.952323701665719 ] } }
]
}
