{
"type": "FeatureCollection",
"name": "geo_9_1",
"crs": { "type": "name", "properties": { "name": "urn:ogc:def:crs:OGC:1.3:CRS84" } },
"features": [
{ "type": "Feature", "properties": { "ID": 910090100715, "正式名称": "小山市保健センター", "機関区分": 1, "都道府県コード": 9, "市区町村コード": 208, "所在地": "栃木県小山市中央町１－１－１", "緯度": 36.314591, "経度": 139.80068, "url": "https://www.iryou.teikyouseido.mhlw.go.jp/znk-web/juminkanja/S2430/initialize?prefCd=09&kikanCd=0090100715&kikanKbn=1", "url2": null, "内容": "小山市保健センター【1:病院】【診療科目:内科_小児科_歯科_小児歯科】【一般病床数:0療養病床数:0精神病床数:0感染症病床数:0合計病床数:0】栃木県小山市中央町１－１－１" }, "geometry": { "type": "Point", "coordinates": [ 139.80068, 36.314591 ] } },
{ "type": "Feature", "properties": { "ID": 910502030313, "正式名称": "ＡＮＤ美容外科宇都宮院", "機関区分": 1, "都道府県コード": 9, "市区町村コード": 201, "所在地": "栃木県宇都宮市池上町４－２３外山ビル４階", "緯度": 36.5612447, "経度": 139.8806995, "url": "https://www.iryou.teikyouseido.mhlw.go.jp/znk-web/juminkanja/S2430/initialize?prefCd=09&kikanCd=0502030313&kikanKbn=1", "url2": "https://and-bg.com/", "内容": "ＡＮＤ美容外科宇都宮院【1:病院】【診療科目:美容外科_美容皮膚科_泌尿器科】【一般病床数:0療養病床数:0精神病床数:0感染症病床数:0合計病床数:0】栃木県宇都宮市池上町４－２３外山ビル４階" }, "geometry": { "type": "Point", "coordinates": [ 139.8806995, 36.5612447 ] } },
{ "type": "Feature", "properties": { "ID": 910910210103, "正式名称": "医療法人根岸会足利富士見台病院", "機関区分": 1, "都道府県コード": 9, "市区町村コード": 202, "所在地": "栃木県足利市大前町１２７２", "緯度": 36.359599, "経度": 139.401663, "url": "https://www.iryou.teikyouseido.mhlw.go.jp/znk-web/juminkanja/S2430/initialize?prefCd=09&kikanCd=0910210103&kikanKbn=1", "url2": "https://www.negishikai.com/", "内容": "医療法人根岸会足利富士見台病院【1:病院】【診療科目:精神科】【一般病床数:0療養病床数:0精神病床数:139感染症病床数:0合計病床数:139】栃木県足利市大前町１２７２" }, "geometry": { "type": "Point", "coordinates": [ 139.401663, 36.359599 ] } },
{ "type": "Feature", "properties": { "ID": 910910610401, "正式名称": "日光・ふじの原病院", "機関区分": 1, "都道府県コード": 9, "市区町村コード": 206, "所在地": "栃木県日光市高徳６３２番地", "緯度": 36.783669, "経度": 139.705979, "url": "https://www.iryou.teikyouseido.mhlw.go.jp/znk-web/juminkanja/S2430/initialize?prefCd=09&kikanCd=0910610401&kikanKbn=1", "url2": null, "内容": "日光・ふじの原病院【1:病院】【診療科目:内科_人工透析内科_整形外科】【一般病床数:60療養病床数:0精神病床数:0感染症病床数:0合計病床数:60】栃木県日光市高徳６３２番地" }, "geometry": { "type": "Point", "coordinates": [ 139.705979, 36.783669 ] } },
{ "type": "Feature", "properties": { "ID": 910911310316, "正式名称": "医療法人社団萌彰会　那須北病院", "機関区分": 1, "都道府県コード": 9, "市区町村コード": 213, "所在地": "栃木県那須塩原市野間字神沼４５３－１４", "緯度": 36.930839, "経度": 140.079236, "url": "https://www.iryou.teikyouseido.mhlw.go.jp/znk-web/juminkanja/S2430/initialize?prefCd=09&kikanCd=0911310316&kikanKbn=1", "url2": "https://houshoukai.or.jp/", "内容": "医療法人社団萌彰会　那須北病院【1:病院】【診療科目:内科_脳神経内科_循環器内科_消化器内科_脳神経外科_消化器外科_整形外科_リハビリテーション科】【一般病床数:50療養病床数:50精神病床数:0感染症病床数:0合計病床数:100】栃木県那須塩原市野間字神沼４５３－１４" }, "geometry": { "type": "Point", "coordinates": [ 140.079236, 36.930839 ] } },
{ "type": "Feature", "properties": { "ID": 910912310158, "正式名称": "小山富士見台病院", "機関区分": 1, "都道府県コード": 9, "市区町村コード": 216, "所在地": "栃木県下野市柴１１２３", "緯度": 36.362965, "経度": 139.84521, "url": "https://www.iryou.teikyouseido.mhlw.go.jp/znk-web/juminkanja/S2430/initialize?prefCd=09&kikanCd=0912310158&kikanKbn=1", "url2": "https://www.oyama-fujimidai.or.jp/index.html", "内容": "小山富士見台病院【1:病院】【診療科目:内科_精神科_神経科_心療内科】【一般病床数:0療養病床数:0精神病床数:0感染症病床数:0合計病床数:0】栃木県下野市柴１１２３" }, "geometry": { "type": "Point", "coordinates": [ 139.84521, 36.362965 ] } },
{ "type": "Feature", "properties": { "ID": 911090000002, "正式名称": "リハビリテーション翼の舎病院", "機関区分": 1, "都道府県コード": 9, "市区町村コード": 208, "所在地": "栃木県小山市若木町１－１－２", "緯度": 36.322717, "経度": 139.800503, "url": "https://www.iryou.teikyouseido.mhlw.go.jp/znk-web/juminkanja/S2430/initialize?prefCd=09&kikanCd=1090000002&kikanKbn=1", "url2": "https://www.nogihosp.or.jp/facility/tsubasanoiehosp", "内容": "リハビリテーション翼の舎病院【1:病院】【診療科目:リハビリテーション科】【一般病床数:100療養病床数:0精神病床数:0感染症病床数:0合計病床数:100】栃木県小山市若木町１－１－２" }, "geometry": { "type": "Point", "coordinates": [ 139.800503, 36.322717 ] } },
{ "type": "Feature", "properties": { "ID": 911090000003, "正式名称": "大平下病院", "機関区分": 1, "都道府県コード": 9, "市区町村コード": 203, "所在地": "栃木県栃木市大平町富田５００２－１", "緯度": 36.343125, "経度": 139.697981, "url": "https://www.iryou.teikyouseido.mhlw.go.jp/znk-web/juminkanja/S2430/initialize?prefCd=09&kikanCd=1090000003&kikanKbn=1", "url2": "https://ohirashita.tyk.or.jp", "内容": "大平下病院【1:病院】【診療科目:内科_精神科_心療内科】【一般病床数:0療養病床数:0精神病床数:144感染症病床数:0合計病床数:94】栃木県栃木市大平町富田５００２－１" }, "geometry": { "type": "Point", "coordinates": [ 139.697981, 36.343125 ] } },
{ "type": "Feature", "properties": { "ID": 911090000005, "正式名称": "宇都宮脳脊髄センター・シンフォニー病院", "機関区分": 1, "都道府県コード": 9, "市区町村コード": 201, "所在地": "栃木県宇都宮市宮みらい１－３５", "緯度": 36.558859, "経度": 139.900457, "url": "https://www.iryou.teikyouseido.mhlw.go.jp/znk-web/juminkanja/S2430/initialize?prefCd=09&kikanCd=1090000005&kikanKbn=1", "url2": "https://symphony-clinic.com/", "内容": "宇都宮脳脊髄センター・シンフォニー病院【1:病院】【診療科目:内科_糖尿病内科_脳神経内科_循環器内科_脳神経外科_整形外科_小児科_泌尿器科_リハビリテーション科_放射線診断科_放射線治療科_麻酔科】【一般病床数:100療養病床数:0精神病床数:0感染症病床数:0合計病床数:100】栃木県宇都宮市宮みらい１－３５" }, "geometry": { "type": "Point", "coordinates": [ 139.900457, 36.558859 ] } },
{ "type": "Feature", "properties": { "ID": 911090001053, "正式名称": "宇都宮東病院", "機関区分": 1, "都道府県コード": 9, "市区町村コード": 201, "所在地": "栃木県宇都宮市平出町３６８－８", "緯度": 36.570966, "経度": 139.947005, "url": "https://www.iryou.teikyouseido.mhlw.go.jp/znk-web/juminkanja/S2430/initialize?prefCd=09&kikanCd=1090001053&kikanKbn=1", "url2": "https://www.hokutokai.or.jp/", "内容": "宇都宮東病院【1:病院】【診療科目:内科_糖尿病内科_整形外科_皮膚科_精神科_放射線科】【一般病床数:39療養病床数:0精神病床数:0感染症病床数:0合計病床数:39】栃木県宇都宮市平出町３６８－８" }, "geometry": { "type": "Point", "coordinates": [ 139.947005, 36.570966 ] } },
{ "type": "Feature", "properties": { "ID": 911090001056, "正式名称": "医療法人　親仁会　佐藤病院", "機関区分": 1, "都道府県コード": 9, "市区町村コード": 201, "所在地": "栃木県宇都宮市西３－１－１１", "緯度": 36.555793, "経度": 139.879087, "url": "https://www.iryou.teikyouseido.mhlw.go.jp/znk-web/juminkanja/S2430/initialize?prefCd=09&kikanCd=1090001056&kikanKbn=1", "url2": "http://www.sato-hosp.jp/", "内容": "医療法人　親仁会　佐藤病院【1:病院】【診療科目:内科_整形外科_リハビリテーション科_麻酔科】【一般病床数:43療養病床数:0精神病床数:0感染症病床数:0合計病床数:43】栃木県宇都宮市西３－１－１１" }, "geometry": { "type": "Point", "coordinates": [ 139.879087, 36.555793 ] } },
{ "type": "Feature", "properties": { "ID": 911090001057, "正式名称": "柴病院", "機関区分": 1, "都道府県コード": 9, "市区町村コード": 201, "所在地": "栃木県宇都宮市竹林町５０４", "緯度": 36.581375, "経度": 139.909139, "url": "https://www.iryou.teikyouseido.mhlw.go.jp/znk-web/juminkanja/S2430/initialize?prefCd=09&kikanCd=1090001057&kikanKbn=1", "url2": null, "内容": "柴病院【1:病院】【診療科目:内科_血液内科_呼吸器内科_循環器内科_消化器内科_外科_気管食道外科_消化器外科_整形外科_皮膚科_アレルギー科_リウマチ科_麻酔科】【一般病床数:50療養病床数:60精神病床数:0感染症病床数:0合計病床数:110】栃木県宇都宮市竹林町５０４" }, "geometry": { "type": "Point", "coordinates": [ 139.909139, 36.581375 ] } },
{ "type": "Feature", "properties": { "ID": 911090001059, "正式名称": "沼尾病院", "機関区分": 1, "都道府県コード": 9, "市区町村コード": 201, "所在地": "栃木県宇都宮市星が丘１－７－３８", "緯度": 36.567989, "経度": 139.875154, "url": "https://www.iryou.teikyouseido.mhlw.go.jp/znk-web/juminkanja/S2430/initialize?prefCd=09&kikanCd=1090001059&kikanKbn=1", "url2": "http://www.numaog.or.jp/", "内容": "沼尾病院【1:病院】【診療科目:内科_循環器内科_消化器内科_神経内科_外科_肛門外科_整形外科_小児皮膚科】【一般病床数:0療養病床数:100精神病床数:0感染症病床数:0合計病床数:100】栃木県宇都宮市星が丘１－７－３８" }, "geometry": { "type": "Point", "coordinates": [ 139.875154, 36.567989 ] } },
{ "type": "Feature", "properties": { "ID": 911090001063, "正式名称": "藤井脳神経外科病院", "機関区分": 1, "都道府県コード": 9, "市区町村コード": 201, "所在地": "栃木県宇都宮市中岡本町４６１－１", "緯度": 36.60564, "経度": 139.961122, "url": "https://www.iryou.teikyouseido.mhlw.go.jp/znk-web/juminkanja/S2430/initialize?prefCd=09&kikanCd=1090001063&kikanKbn=1", "url2": "http://www.fujiihp.or.jp", "内容": "藤井脳神経外科病院【1:病院】【診療科目:神経内科_脳神経外科_リハビリテーション科_麻酔科】【一般病床数:56療養病床数:57精神病床数:0感染症病床数:0合計病床数:113】栃木県宇都宮市中岡本町４６１－１" }, "geometry": { "type": "Point", "coordinates": [ 139.961122, 36.60564 ] } },
{ "type": "Feature", "properties": { "ID": 911090001500, "正式名称": "医療法人社団　高砂会", "機関区分": 1, "都道府県コード": 9, "市区町村コード": 201, "所在地": "栃木県宇都宮市塙田３－５－１７", "緯度": 36.56327, "経度": 139.887514, "url": "https://www.iryou.teikyouseido.mhlw.go.jp/znk-web/juminkanja/S2430/initialize?prefCd=09&kikanCd=1090001500&kikanKbn=1", "url2": "http://www.iida-hp.or.jp/", "内容": "医療法人社団　高砂会【1:病院】【診療科目:内科_神経内科_整形外科_リハビリテーション科_放射線科】【一般病床数:0療養病床数:120精神病床数:0感染症病床数:0合計病床数:120】栃木県宇都宮市塙田３－５－１７" }, "geometry": { "type": "Point", "coordinates": [ 139.887514, 36.56327 ] } },
{ "type": "Feature", "properties": { "ID": 911090001504, "正式名称": "医療法人社団全仁会　宇都宮中央病院", "機関区分": 1, "都道府県コード": 9, "市区町村コード": 201, "所在地": "栃木県宇都宮市東宿郷２－１－１", "緯度": 36.557802, "経度": 139.89993, "url": "https://www.iryou.teikyouseido.mhlw.go.jp/znk-web/juminkanja/S2430/initialize?prefCd=09&kikanCd=1090001504&kikanKbn=1", "url2": "https://www.zenjinkai-utsunomiya-chp.com/", "内容": "医療法人社団全仁会　宇都宮中央病院【1:病院】【診療科目:内科_糖尿病・代謝内科_循環器内科_消化器内科_腎臓内科_神経内科_外科_整形外科_皮膚科_泌尿器科_リハビリテーション科】【一般病床数:138療養病床数:60精神病床数:0感染症病床数:0合計病床数:198】栃木県宇都宮市東宿郷２－１－１" }, "geometry": { "type": "Point", "coordinates": [ 139.89993, 36.557802 ] } },
{ "type": "Feature", "properties": { "ID": 911090001505, "正式名称": "医療法人社団松栄会　宇都宮内科病院", "機関区分": 1, "都道府県コード": 9, "市区町村コード": 201, "所在地": "栃木県宇都宮市鶴田２丁目７番２９号", "緯度": 36.563458, "経度": 139.854356, "url": "https://www.iryou.teikyouseido.mhlw.go.jp/znk-web/juminkanja/S2430/initialize?prefCd=09&kikanCd=1090001505&kikanKbn=1", "url2": "http://www.u-naika.com/", "内容": "医療法人社団松栄会　宇都宮内科病院【1:病院】【診療科目:内科_循環器内科_消化器内科_神経内科】【一般病床数:0療養病床数:89精神病床数:0感染症病床数:0合計病床数:89】栃木県宇都宮市鶴田２丁目７番２９号" }, "geometry": { "type": "Point", "coordinates": [ 139.854356, 36.563458 ] } },
{ "type": "Feature", "properties": { "ID": 911090001506, "正式名称": "宇都宮西ヶ丘病院", "機関区分": 1, "都道府県コード": 9, "市区町村コード": 201, "所在地": "栃木県宇都宮市長岡町８４２", "緯度": 36.593431, "経度": 139.878938, "url": "https://www.iryou.teikyouseido.mhlw.go.jp/znk-web/juminkanja/S2430/initialize?prefCd=09&kikanCd=1090001506&kikanKbn=1", "url2": "http://www.nishigaoka-hosp.or.jp", "内容": "宇都宮西ヶ丘病院【1:病院】【診療科目:内科_神経内科_泌尿器科_精神科】【一般病床数:0療養病床数:0精神病床数:0感染症病床数:0合計病床数:200】栃木県宇都宮市長岡町８４２" }, "geometry": { "type": "Point", "coordinates": [ 139.878938, 36.593431 ] } },
{ "type": "Feature", "properties": { "ID": 911090001507, "正式名称": "医療法人恵会皆藤病院", "機関区分": 1, "都道府県コード": 9, "市区町村コード": 201, "所在地": "栃木県宇都宮市東町２２番地", "緯度": 36.575049, "経度": 139.917009, "url": "https://www.iryou.teikyouseido.mhlw.go.jp/znk-web/juminkanja/S2430/initialize?prefCd=09&kikanCd=1090001507&kikanKbn=1", "url2": null, "内容": "医療法人恵会皆藤病院【1:病院】【診療科目:内科_神経内科_精神科_神経科_歯科】【一般病床数:0療養病床数:79精神病床数:0感染症病床数:0合計病床数:397】栃木県宇都宮市東町２２番地" }, "geometry": { "type": "Point", "coordinates": [ 139.917009, 36.575049 ] } },
{ "type": "Feature", "properties": { "ID": 911090001513, "正式名称": "社団医療法人　至誠会　滝澤病院", "機関区分": 1, "都道府県コード": 9, "市区町村コード": 201, "所在地": "栃木県宇都宮市花房本町２－２９", "緯度": 36.550252, "経度": 139.880285, "url": "https://www.iryou.teikyouseido.mhlw.go.jp/znk-web/juminkanja/S2430/initialize?prefCd=09&kikanCd=1090001513&kikanKbn=1", "url2": "https://www.takizawa-hospital.com/", "内容": "社団医療法人　至誠会　滝澤病院【1:病院】【診療科目:精神科_神経科】【一般病床数:0療養病床数:0精神病床数:237感染症病床数:0合計病床数:237】栃木県宇都宮市花房本町２－２９" }, "geometry": { "type": "Point", "coordinates": [ 139.880285, 36.550252 ] } },
{ "type": "Feature", "properties": { "ID": 911090001514, "正式名称": "栃木県立がんセンター", "機関区分": 1, "都道府県コード": 9, "市区町村コード": 201, "所在地": "栃木県宇都宮市陽南４－９－１３", "緯度": 36.534095, "経度": 139.869467, "url": "https://www.iryou.teikyouseido.mhlw.go.jp/znk-web/juminkanja/S2430/initialize?prefCd=09&kikanCd=1090001514&kikanKbn=1", "url2": "https://www.tochigi-cc.jp/", "内容": "栃木県立がんセンター【1:病院】【診療科目:内科_血液内科_内分泌内科_呼吸器内科_循環器内科_消化器内科_腫瘍内科_内視鏡内科_ペインクリニック内科_緩和ケア内科_外科_脳神経外科_呼吸器外科_消化器外科_乳腺外科_内視鏡外科_整形外科_形成外科_婦人科_眼科_頭頸部・耳鼻いんこう科_皮膚科_泌尿器科_精神科_歯科_歯科口腔外科_リハビリテーション科_放射線診断科_放射線治療科_病理診断科_臨床検査科_麻酔科】【一般病床数:291療養病床数:0精神病床数:0感染症病床数:0合計病床数:291】栃木県宇都宮市陽南４－９－１３" }, "geometry": { "type": "Point", "coordinates": [ 139.869467, 36.534095 ] } },
{ "type": "Feature", "properties": { "ID": 911090001519, "正式名称": "森病院", "機関区分": 1, "都道府県コード": 9, "市区町村コード": 201, "所在地": "栃木県宇都宮市飯田町４１９", "緯度": 36.564149, "経度": 139.814189, "url": "https://www.iryou.teikyouseido.mhlw.go.jp/znk-web/juminkanja/S2430/initialize?prefCd=09&kikanCd=1090001519&kikanKbn=1", "url2": "http://www.morihosp.com", "内容": "森病院【1:病院】【診療科目:精神科_心療内科】【一般病床数:0療養病床数:0精神病床数:0感染症病床数:0合計病床数:165】栃木県宇都宮市飯田町４１９" }, "geometry": { "type": "Point", "coordinates": [ 139.814189, 36.564149 ] } },
{ "type": "Feature", "properties": { "ID": 911090001522, "正式名称": "地方独立行政法人栃木県立岡本台病院", "機関区分": 1, "都道府県コード": 9, "市区町村コード": 201, "所在地": "栃木県宇都宮市下岡本町２１６２", "緯度": 36.600715, "経度": 139.939021, "url": "https://www.iryou.teikyouseido.mhlw.go.jp/znk-web/juminkanja/S2430/initialize?prefCd=09&kikanCd=1090001522&kikanKbn=1", "url2": "https://okamotodai.jp", "内容": "地方独立行政法人栃木県立岡本台病院【1:病院】【診療科目:内科_精神科_放射線科】【一般病床数:0療養病床数:0精神病床数:221感染症病床数:0合計病床数:221】栃木県宇都宮市下岡本町２１６２" }, "geometry": { "type": "Point", "coordinates": [ 139.939021, 36.600715 ] } },
{ "type": "Feature", "properties": { "ID": 911090001639, "正式名称": "独立行政法人国立病院機構　栃木医療センター", "機関区分": 1, "都道府県コード": 9, "市区町村コード": 201, "所在地": "栃木県宇都宮市中戸祭１－１０－３７", "緯度": 36.579931, "経度": 139.866187, "url": "https://www.iryou.teikyouseido.mhlw.go.jp/znk-web/juminkanja/S2430/initialize?prefCd=09&kikanCd=1090001639&kikanKbn=1", "url2": "https://tochigi.hosp.go.jp/", "内容": "独立行政法人国立病院機構　栃木医療センター【1:病院】【診療科目:内科_呼吸器内科_循環器内科_消化器内科_神経内科_外科_脳神経外科_呼吸器外科_消化器外科_整形外科_形成外科_小児科_小児外科_小児泌尿器科_産婦人科_眼科_耳鼻いんこう科_皮膚科_泌尿器科_精神科_歯科_歯科口腔外科_小児歯科_アレルギー科_リウマチ科_リハビリテーション科_放射線科_病理診断科_臨床検査科_救急科_麻酔科】【一般病床数:344療養病床数:0精神病床数:0感染症病床数:0合計病床数:350】栃木県宇都宮市中戸祭１－１０－３７" }, "geometry": { "type": "Point", "coordinates": [ 139.866187, 36.579931 ] } },
{ "type": "Feature", "properties": { "ID": 911090001875, "正式名称": "独立行政法人国立病院機構　宇都宮病院", "機関区分": 1, "都道府県コード": 9, "市区町村コード": 201, "所在地": "栃木県宇都宮市下岡本町２１６０", "緯度": 36.597048, "経度": 139.93628, "url": "https://www.iryou.teikyouseido.mhlw.go.jp/znk-web/juminkanja/S2430/initialize?prefCd=09&kikanCd=1090001875&kikanKbn=1", "url2": "https://utsunomiya.hosp.go.jp/", "内容": "独立行政法人国立病院機構　宇都宮病院【1:病院】【診療科目:内科_糖尿病・代謝内科_呼吸器内科_循環器内科_消化器内科_神経内科_外科_呼吸器外科_整形外科_小児科_眼科_耳鼻いんこう科_泌尿器科_歯科_リハビリテーション科_放射線科_麻酔科】【一般病床数:350療養病床数:0精神病床数:0感染症病床数:0合計病床数:380】栃木県宇都宮市下岡本町２１６０" }, "geometry": { "type": "Point", "coordinates": [ 139.93628, 36.597048 ] } },
{ "type": "Feature", "properties": { "ID": 911090001901, "正式名称": "栃木県立リハビリテーションセンター", "機関区分": 1, "都道府県コード": 9, "市区町村コード": 201, "所在地": "栃木県宇都宮市駒生町３３３７－１", "緯度": 36.584842, "経度": 139.844325, "url": "https://www.iryou.teikyouseido.mhlw.go.jp/znk-web/juminkanja/S2430/initialize?prefCd=09&kikanCd=1090001901&kikanKbn=1", "url2": "https://tochigi-riha.jp/", "内容": "栃木県立リハビリテーションセンター【1:病院】【診療科目:神経内科_整形外科_小児科_リハビリテーション科】【一般病床数:153療養病床数:0精神病床数:0感染症病床数:0合計病床数:153】栃木県宇都宮市駒生町３３３７－１" }, "geometry": { "type": "Point", "coordinates": [ 139.844325, 36.584842 ] } },
{ "type": "Feature", "properties": { "ID": 911090002000, "正式名称": "日本赤十字社栃木県支部足利赤十字病院", "機関区分": 1, "都道府県コード": 9, "市区町村コード": 202, "所在地": "栃木県足利市五十部町", "緯度": 36.339798, "経度": 139.421377, "url": "https://www.iryou.teikyouseido.mhlw.go.jp/znk-web/juminkanja/S2430/initialize?prefCd=09&kikanCd=1090002000&kikanKbn=1", "url2": "https://www.ashikaga.jrc.or.jp", "内容": "日本赤十字社栃木県支部足利赤十字病院【1:病院】【診療科目:内科_脳神経内科_呼吸器内科_循環器内科_消化器内科_腎臓内科_神経内科_緩和ケア内科_総合診療科_外科_脳神経外科_呼吸器外科_心臓血管外科_消化器外科_整形外科_形成外科_小児科_産婦人科_眼科_頭頸部・耳鼻いんこう科_皮膚科_泌尿器科_神経精神科_歯科口腔外科_リハビリテーション科_放射線診断科_病理診断科_救急科_麻酔科_放射線治療科】【一般病床数:500療養病床数:0精神病床数:40感染症病床数:0合計病床数:540】栃木県足利市五十部町" }, "geometry": { "type": "Point", "coordinates": [ 139.421377, 36.339798 ] } },
{ "type": "Feature", "properties": { "ID": 911090002055, "正式名称": "本庄記念病院", "機関区分": 1, "都道府県コード": 9, "市区町村コード": 202, "所在地": "栃木県足利市堀込町２８５９", "緯度": 36.319983, "経度": 139.434909, "url": "https://www.iryou.teikyouseido.mhlw.go.jp/znk-web/juminkanja/S2430/initialize?prefCd=09&kikanCd=1090002055&kikanKbn=1", "url2": "http://www.honhp.or.jp", "内容": "本庄記念病院【1:病院】【診療科目:内科_循環器内科_消化器内科_外科_消化器外科_乳腺外科_肛門外科_整形外科_小児科_婦人科_皮膚科_アレルギー科_リウマチ科_リハビリテーション科】【一般病床数:54療養病床数:38精神病床数:0感染症病床数:0合計病床数:92】栃木県足利市堀込町２８５９" }, "geometry": { "type": "Point", "coordinates": [ 139.434909, 36.319983 ] } },
{ "type": "Feature", "properties": { "ID": 911090002505, "正式名称": "医療法人孝栄会　前沢病院", "機関区分": 1, "都道府県コード": 9, "市区町村コード": 202, "所在地": "栃木県足利市福居町１２１０", "緯度": 36.306722, "経度": 139.460339, "url": "https://www.iryou.teikyouseido.mhlw.go.jp/znk-web/juminkanja/S2430/initialize?prefCd=09&kikanCd=1090002505&kikanKbn=1", "url2": "http://www.koueikai.com", "内容": "医療法人孝栄会　前沢病院【1:病院】【診療科目:内科_精神科_心療内科_老年精神科】【一般病床数:0療養病床数:0精神病床数:105感染症病床数:0合計病床数:105】栃木県足利市福居町１２１０" }, "geometry": { "type": "Point", "coordinates": [ 139.460339, 36.306722 ] } },
{ "type": "Feature", "properties": { "ID": 911090002552, "正式名称": "あしかがの森足利病院", "機関区分": 1, "都道府県コード": 9, "市区町村コード": 202, "所在地": "栃木県足利市大沼田町", "緯度": 36.337234, "経度": 139.504452, "url": "https://www.iryou.teikyouseido.mhlw.go.jp/znk-web/juminkanja/S2430/initialize?prefCd=09&kikanCd=1090002552&kikanKbn=1", "url2": "http://www.ashikaganomori-hospital.jp/", "内容": "あしかがの森足利病院【1:病院】【診療科目:内科_呼吸器内科_外科_整形外科_小児科_小児皮膚科_障害児（者）の診療_皮膚科_主に障害児（者）を診察_主に障害児（者）を診察_リハビリテーション科】【一般病床数:195療養病床数:0精神病床数:0感染症病床数:0合計病床数:195】栃木県足利市大沼田町" }, "geometry": { "type": "Point", "coordinates": [ 139.504452, 36.337234 ] } },
{ "type": "Feature", "properties": { "ID": 911090003051, "正式名称": "社団医療法人　栄仁会　かわかみクリニック", "機関区分": 1, "都道府県コード": 9, "市区町村コード": 206, "所在地": "栃木県日光市土沢１３５２－１", "緯度": 36.704568, "経度": 139.723392, "url": "https://www.iryou.teikyouseido.mhlw.go.jp/znk-web/juminkanja/S2430/initialize?prefCd=09&kikanCd=1090003051&kikanKbn=1", "url2": "https://www.nikko-breeze.com", "内容": "社団医療法人　栄仁会　かわかみクリニック【1:病院】【診療科目:内科_整形外科_リウマチ科】【一般病床数:0療養病床数:0精神病床数:0感染症病床数:0合計病床数:0】栃木県日光市土沢１３５２－１" }, "geometry": { "type": "Point", "coordinates": [ 139.723392, 36.704568 ] } },
{ "type": "Feature", "properties": { "ID": 911090003053, "正式名称": "社団医療法人英静会森クリニック", "機関区分": 1, "都道府県コード": 9, "市区町村コード": 206, "所在地": "栃木県日光市今市６７４", "緯度": 36.72646, "経度": 139.686896, "url": "https://www.iryou.teikyouseido.mhlw.go.jp/znk-web/juminkanja/S2430/initialize?prefCd=09&kikanCd=1090003053&kikanKbn=1", "url2": "https://eiseikai.or.jp/", "内容": "社団医療法人英静会森クリニック【1:病院】【診療科目:内科_呼吸器内科_循環器内科_神経内科_外科_整形外科_婦人科_泌尿器科】【一般病床数:19療養病床数:0精神病床数:0感染症病床数:0合計病床数:19】栃木県日光市今市６７４" }, "geometry": { "type": "Point", "coordinates": [ 139.686896, 36.72646 ] } },
{ "type": "Feature", "properties": { "ID": 911090003500, "正式名称": "医療法人秀明会大澤台病院", "機関区分": 1, "都道府県コード": 9, "市区町村コード": 206, "所在地": "栃木県日光市山口８６７－３", "緯度": 36.693869, "経度": 139.769928, "url": "https://www.iryou.teikyouseido.mhlw.go.jp/znk-web/juminkanja/S2430/initialize?prefCd=09&kikanCd=1090003500&kikanKbn=1", "url2": null, "内容": "医療法人秀明会大澤台病院【1:病院】【診療科目:精神科】【一般病床数:0療養病床数:0精神病床数:120感染症病床数:0合計病床数:120】栃木県日光市山口８６７－３" }, "geometry": { "type": "Point", "coordinates": [ 139.769928, 36.693869 ] } },
{ "type": "Feature", "properties": { "ID": 911090004050, "正式名称": "医療法人敬愛会　小山厚生病院", "機関区分": 1, "都道府県コード": 9, "市区町村コード": 208, "所在地": "栃木県小山市八幡町", "緯度": 36.307697, "経度": 139.797705, "url": "https://www.iryou.teikyouseido.mhlw.go.jp/znk-web/juminkanja/S2430/initialize?prefCd=09&kikanCd=1090004050&kikanKbn=1", "url2": null, "内容": "医療法人敬愛会　小山厚生病院【1:病院】【診療科目:内科_呼吸器内科_循環器内科_消化器内科_整形外科_小児科_皮膚泌尿器科_リウマチ科_リハビリテーション科】【一般病床数:23療養病床数:30精神病床数:0感染症病床数:0合計病床数:53】栃木県小山市八幡町" }, "geometry": { "type": "Point", "coordinates": [ 139.797705, 36.307697 ] } },
{ "type": "Feature", "properties": { "ID": 911090004051, "正式名称": "新小山市民病院", "機関区分": 1, "都道府県コード": 9, "市区町村コード": 208, "所在地": "栃木県小山市大字神鳥谷２２５１番地１", "緯度": 36.275496, "経度": 139.800064, "url": "https://www.iryou.teikyouseido.mhlw.go.jp/znk-web/juminkanja/S2430/initialize?prefCd=09&kikanCd=1090004051&kikanKbn=1", "url2": "http://hospital-shinoyama.jp/", "内容": "新小山市民病院【1:病院】【診療科目:内科_血液内科_糖尿病・代謝内科_脳神経内科_呼吸器内科_循環器内科_消化器内科_腎臓内科_アレルギー・リウマチ科_外科_脳神経外科_心臓血管外科_消化器外科_整形外科_形成外科_皮膚科_小児科_婦人科_眼科_耳鼻いんこう科_皮膚科_泌尿器科_リハビリテーション科_放射線科_病理診断科_救急科_麻酔科_呼吸器外科】【一般病床数:300療養病床数:0精神病床数:0感染症病床数:0合計病床数:300】栃木県小山市大字神鳥谷２２５１番地１" }, "geometry": { "type": "Point", "coordinates": [ 139.800064, 36.275496 ] } },
{ "type": "Feature", "properties": { "ID": 911090004055, "正式名称": "光南病院", "機関区分": 1, "都道府県コード": 9, "市区町村コード": 208, "所在地": "栃木県小山市乙女７９５", "緯度": 36.251775, "経度": 139.745612, "url": "https://www.iryou.teikyouseido.mhlw.go.jp/znk-web/juminkanja/S2430/initialize?prefCd=09&kikanCd=1090004055&kikanKbn=1", "url2": "http://www.kohnan-hp.jp/", "内容": "光南病院【1:病院】【診療科目:内科_糖尿病・内分泌内科_呼吸器内科_循環器内科_消化器内科_外科_消化器外科_肛門外科_整形外科_形成外科_小児科_眼科_皮膚科_泌尿器科_アレルギー科_リウマチ科_リハビリテーション科_放射線科】【一般病床数:95療養病床数:60精神病床数:0感染症病床数:0合計病床数:155】栃木県小山市乙女７９５" }, "geometry": { "type": "Point", "coordinates": [ 139.745612, 36.251775 ] } },
{ "type": "Feature", "properties": { "ID": 911090004056, "正式名称": "野木病院", "機関区分": 1, "都道府県コード": 9, "市区町村コード": 364, "所在地": "栃木県下都賀郡野木町友沼５３２０－２", "緯度": 36.228701, "経度": 139.728276, "url": "https://www.iryou.teikyouseido.mhlw.go.jp/znk-web/juminkanja/S2430/initialize?prefCd=09&kikanCd=1090004056&kikanKbn=1", "url2": "http://www.nogihosp.or.jp", "内容": "野木病院【1:病院】【診療科目:内科_神経内科_外科_整形外科_小児科_眼科_リハビリテーション科】【一般病床数:52療養病床数:0精神病床数:0感染症病床数:0合計病床数:52】栃木県下都賀郡野木町友沼５３２０－２" }, "geometry": { "type": "Point", "coordinates": [ 139.728276, 36.228701 ] } },
{ "type": "Feature", "properties": { "ID": 911090004500, "正式名称": "朝日病院", "機関区分": 1, "都道府県コード": 9, "市区町村コード": 208, "所在地": "栃木県小山市喜沢６６０", "緯度": 36.346442, "経度": 139.822482, "url": "https://www.iryou.teikyouseido.mhlw.go.jp/znk-web/juminkanja/S2430/initialize?prefCd=09&kikanCd=1090004500&kikanKbn=1", "url2": "http://www.asahi-hp.or.jp", "内容": "朝日病院【1:病院】【診療科目:内科_精神科_心療内科】【一般病床数:0療養病床数:0精神病床数:0感染症病床数:0合計病床数:221】栃木県小山市喜沢６６０" }, "geometry": { "type": "Point", "coordinates": [ 139.822482, 36.346442 ] } },
{ "type": "Feature", "properties": { "ID": 911090004621, "正式名称": "南栃木病院", "機関区分": 1, "都道府県コード": 9, "市区町村コード": 208, "所在地": "栃木県小山市北飯田７４－２", "緯度": 36.336303, "経度": 139.8655, "url": "https://www.iryou.teikyouseido.mhlw.go.jp/znk-web/juminkanja/S2430/initialize?prefCd=09&kikanCd=1090004621&kikanKbn=1", "url2": "http://www.minamith.or.jp/", "内容": "南栃木病院【1:病院】【診療科目:内科_呼吸器内科_消化器内科_整形外科_皮膚科_アレルギー科_リウマチ科_リハビリテーション科】【一般病床数:0療養病床数:158精神病床数:0感染症病床数:0合計病床数:158】栃木県小山市北飯田７４－２" }, "geometry": { "type": "Point", "coordinates": [ 139.8655, 36.336303 ] } },
{ "type": "Feature", "properties": { "ID": 911090006000, "正式名称": "那須赤十字病院", "機関区分": 1, "都道府県コード": 9, "市区町村コード": 210, "所在地": "栃木県大田原市中田原１０８１－４", "緯度": 36.881687, "経度": 140.037441, "url": "https://www.iryou.teikyouseido.mhlw.go.jp/znk-web/juminkanja/S2430/initialize?prefCd=09&kikanCd=1090006000&kikanKbn=1", "url2": "https://www.nasu.jrc.or.jp", "内容": "那須赤十字病院【1:病院】【診療科目:内科_血液内科_糖尿病・内分泌内科_脳神経内科_循環器内科_消化器内科_腎臓内科_呼吸器・アレルギー内科、リウマチ・膠原病内科_外科_脳神経外科_呼吸器外科_心臓血管外科_消化器外科_整形外科_形成外科_小児科_産婦人科_眼科_耳鼻いんこう科_皮膚科_腎泌尿器外科_歯科口腔外科_リハビリテーション科_放射線診断科_放射線治療科_病理診断科_救急科_麻酔科_検査科、研修医】【一般病床数:444療養病床数:0精神病床数:0感染症病床数:6合計病床数:450】栃木県大田原市中田原１０８１－４" }, "geometry": { "type": "Point", "coordinates": [ 140.037441, 36.881687 ] } },
{ "type": "Feature", "properties": { "ID": 911090006050, "正式名称": "那須中央病院", "機関区分": 1, "都道府県コード": 9, "市区町村コード": 210, "所在地": "栃木県大田原市下石上１４５３", "緯度": 36.855867, "経度": 139.94861, "url": "https://www.iryou.teikyouseido.mhlw.go.jp/znk-web/juminkanja/S2430/initialize?prefCd=09&kikanCd=1090006050&kikanKbn=1", "url2": "https://www.nasuchuoh-hospital.jp", "内容": "那須中央病院【1:病院】【診療科目:内科_糖尿病内科_循環器内科_消化器内科_腎臓内科_人工透析内科_肝臓内科_外科_消化器外科_大腸外科_乳腺外科_肛門外科_整形外科_皮膚科_泌尿器科_歯科_矯正歯科_歯科口腔外科_リハビリテーション科_放射線診断科_麻酔科】【一般病床数:96療養病床数:73精神病床数:0感染症病床数:0合計病床数:169】栃木県大田原市下石上１４５３" }, "geometry": { "type": "Point", "coordinates": [ 139.94861, 36.855867 ] } },
{ "type": "Feature", "properties": { "ID": 911090006051, "正式名称": "国際医療福祉大学病院", "機関区分": 1, "都道府県コード": 9, "市区町村コード": 213, "所在地": "栃木県那須塩原市井口", "緯度": 36.912186, "経度": 139.971296, "url": "https://www.iryou.teikyouseido.mhlw.go.jp/znk-web/juminkanja/S2430/initialize?prefCd=09&kikanCd=1090006051&kikanKbn=1", "url2": "https://hospital.iuhw.ac.jp", "内容": "国際医療福祉大学病院【1:病院】【診療科目:内科_血液内科_糖尿病・代謝内科_脳神経内科_呼吸器内科_循環器内科_消化器内科_腎臓内科_腫瘍内科_外科_脳神経外科_呼吸器外科_気管食道外科_血管外科_循環器外科_心臓外科_消化器外科_乳腺外科_肛門外科_整形外科_形成外科_小児科_小児皮膚科_小児外科_産婦人科_眼科_耳鼻いんこう科_皮膚科_泌尿器科_精神科_心療内科_歯科口腔外科_アレルギー科_リハビリテーション科_放射線科_放射線治療科_病理診断科_臨床検査科_救急科_麻酔科】【一般病床数:449療養病床数:0精神病床数:0感染症病床数:0合計病床数:449】栃木県那須塩原市井口" }, "geometry": { "type": "Point", "coordinates": [ 139.971296, 36.912186 ] } },
{ "type": "Feature", "properties": { "ID": 911090006052, "正式名称": "栃木県医師会塩原温泉病院", "機関区分": 1, "都道府県コード": 9, "市区町村コード": 213, "所在地": "栃木県那須塩原市塩原１３３３", "緯度": 36.963038, "経度": 139.83194, "url": "https://www.iryou.teikyouseido.mhlw.go.jp/znk-web/juminkanja/S2430/initialize?prefCd=09&kikanCd=1090006052&kikanKbn=1", "url2": "https://www.shiobara-hp.jp", "内容": "栃木県医師会塩原温泉病院【1:病院】【診療科目:内科_糖尿病・代謝内科_脳神経内科_消化器内科_整形外科_リウマチ科_リハビリテーション科】【一般病床数:99療養病床数:100精神病床数:0感染症病床数:0合計病床数:199】栃木県那須塩原市塩原１３３３" }, "geometry": { "type": "Point", "coordinates": [ 139.83194, 36.963038 ] } },
{ "type": "Feature", "properties": { "ID": 911090006581, "正式名称": "なす療育園", "機関区分": 1, "都道府県コード": 9, "市区町村コード": 210, "所在地": "栃木県大田原市北金丸２６００－７", "緯度": 36.871694, "経度": 140.07122, "url": "https://www.iryou.teikyouseido.mhlw.go.jp/znk-web/juminkanja/S2430/initialize?prefCd=09&kikanCd=1090006581&kikanKbn=1", "url2": "http://hoyukai.iuhw.ac.jp/", "内容": "なす療育園【1:病院】【診療科目:内科_整形外科_小児科_児童精神科_小児外科_精神科_歯科】【一般病床数:55療養病床数:0精神病床数:0感染症病床数:0合計病床数:55】栃木県大田原市北金丸２６００－７" }, "geometry": { "type": "Point", "coordinates": [ 140.07122, 36.871694 ] } },
{ "type": "Feature", "properties": { "ID": 911090007050, "正式名称": "新上三川病院", "機関区分": 1, "都道府県コード": 9, "市区町村コード": 301, "所在地": "栃木県河内郡上三川町上三川", "緯度": 36.435594, "経度": 139.920539, "url": "https://www.iryou.teikyouseido.mhlw.go.jp/znk-web/juminkanja/S2430/initialize?prefCd=09&kikanCd=1090007050&kikanKbn=1", "url2": "http://www.kaminokawa-hp.jp/", "内容": "新上三川病院【1:病院】【診療科目:内科_整形外科_形成外科_泌尿器科_リハビリテーション科_放射線科_麻酔科】【一般病床数:38療養病床数:171精神病床数:0感染症病床数:0合計病床数:209】栃木県河内郡上三川町上三川" }, "geometry": { "type": "Point", "coordinates": [ 139.920539, 36.435594 ] } },
{ "type": "Feature", "properties": { "ID": 911090007051, "正式名称": "自治医科大学附属病院", "機関区分": 1, "都道府県コード": 9, "市区町村コード": 216, "所在地": "栃木県下野市薬師寺３３１１－１", "緯度": 36.399269, "経度": 139.860384, "url": "https://www.iryou.teikyouseido.mhlw.go.jp/znk-web/juminkanja/S2430/initialize?prefCd=09&kikanCd=1090007051&kikanKbn=1", "url2": "https://www.jichi.ac.jp/hospital/top/index.html", "内容": "自治医科大学附属病院【1:病院】【診療科目:内科_脳神経内科_呼吸器内科_循環器内科_消化器内科_外科_脳神経外科_呼吸器外科_心臓血管外科_整形外科_形成外科_美容外科_小児科_小児外科_産科_婦人科_眼科_耳鼻いんこう科_皮膚科_泌尿器科_精神科_矯正歯科_歯科口腔外科_アレルギー科_リウマチ科_リハビリテーション科_放射線診断科_放射線治療科_病理診断科_救急科_麻酔科】【一般病床数:1075療養病床数:0精神病床数:56感染症病床数:1合計病床数:1132】栃木県下野市薬師寺３３１１－１" }, "geometry": { "type": "Point", "coordinates": [ 139.860384, 36.399269 ] } },
{ "type": "Feature", "properties": { "ID": 911090007052, "正式名称": "獨協医科大学病院", "機関区分": 1, "都道府県コード": 9, "市区町村コード": 361, "所在地": "栃木県下都賀郡壬生町大字北小林８８０", "緯度": 36.472431, "経度": 139.825359, "url": "https://www.iryou.teikyouseido.mhlw.go.jp/znk-web/juminkanja/S2430/initialize?prefCd=09&kikanCd=1090007052&kikanKbn=1", "url2": "http://www.dokkyomed.ac.jp/hosp-m/", "内容": "獨協医科大学病院【1:病院】【診療科目:内科_血液・腫瘍内科_脳神経内科_循環器内科_心臓血管内科_消化器内科_腎臓内科_内分泌代謝内科_外科_脳神経外科_呼吸器外科_心臓血管外科_乳腺外科_整形外科_形成外科・美容外科_小児科_小児外科_産婦人科_眼科_頭頸部・耳鼻いんこう科_皮膚科_泌尿器科_精神科_歯科口腔外科_リウマチ科_リハビリテーション科_放射線科_病理診断科_救急科_麻酔科_呼吸器・アレルギー内科】【一般病床数:1153療養病床数:0精神病床数:42感染症病床数:0合計病床数:1195】栃木県下都賀郡壬生町大字北小林８８０" }, "geometry": { "type": "Point", "coordinates": [ 139.825359, 36.472431 ] } },
{ "type": "Feature", "properties": { "ID": 911090007053, "正式名称": "社会医療法人友志会　石橋総合病院", "機関区分": 1, "都道府県コード": 9, "市区町村コード": 216, "所在地": "栃木県下野市下古山１丁目１５番４", "緯度": 36.441894, "経度": 139.854841, "url": "https://www.iryou.teikyouseido.mhlw.go.jp/znk-web/juminkanja/S2430/initialize?prefCd=09&kikanCd=1090007053&kikanKbn=1", "url2": "http://ishibashi-hp.jp/", "内容": "社会医療法人友志会　石橋総合病院【1:病院】【診療科目:内科_消化器内科_神経内科_外科_脳神経外科_整形外科_形成外科_小児科_婦人科_眼科_耳鼻いんこう科_皮膚科_泌尿器科_リハビリテーション科_放射線科_麻酔科】【一般病床数:136療養病床数:49精神病床数:0感染症病床数:0合計病床数:185】栃木県下野市下古山１丁目１５番４" }, "geometry": { "type": "Point", "coordinates": [ 139.854841, 36.441894 ] } },
{ "type": "Feature", "properties": { "ID": 911090007054, "正式名称": "小金井中央病院", "機関区分": 1, "都道府県コード": 9, "市区町村コード": 216, "所在地": "栃木県下野市小金井２丁目４番地３", "緯度": 36.385671, "経度": 139.840861, "url": "https://www.iryou.teikyouseido.mhlw.go.jp/znk-web/juminkanja/S2430/initialize?prefCd=09&kikanCd=1090007054&kikanKbn=1", "url2": "https://www.koganei-chuo-hp.com", "内容": "小金井中央病院【1:病院】【診療科目:内科_血液内科_代謝内科_内分泌内科_糖尿病・代謝内科_呼吸器内科_循環器内科_消化器内科_腎臓内科_外科_消化器外科_大腸外科_乳腺外科_肛門外科_内視鏡外科_整形外科_皮膚科_泌尿器科_リハビリテーション科_放射線科_救急科】【一般病床数:85療養病床数:50精神病床数:0感染症病床数:0合計病床数:135】栃木県下野市小金井２丁目４番地３" }, "geometry": { "type": "Point", "coordinates": [ 139.840861, 36.385671 ] } },
{ "type": "Feature", "properties": { "ID": 911090008050, "正式名称": "黒磯病院", "機関区分": 1, "都道府県コード": 9, "市区町村コード": 213, "所在地": "栃木県那須塩原市高砂町３－５", "緯度": 36.973861, "経度": 140.053501, "url": "https://www.iryou.teikyouseido.mhlw.go.jp/znk-web/juminkanja/S2430/initialize?prefCd=09&kikanCd=1090008050&kikanKbn=1", "url2": "https://www.kuroiso-hp.jp/", "内容": "黒磯病院【1:病院】【診療科目:内科_消化器内科_神経内科_リウマチ科】【一般病床数:22療養病床数:0精神病床数:0感染症病床数:0合計病床数:22】栃木県那須塩原市高砂町３－５" }, "geometry": { "type": "Point", "coordinates": [ 140.053501, 36.973861 ] } },
{ "type": "Feature", "properties": { "ID": 911090009050, "正式名称": "芳賀赤十字病院", "機関区分": 1, "都道府県コード": 9, "市区町村コード": 209, "所在地": "栃木県真岡市中萩二丁目１０番地１", "緯度": 36.451561, "経度": 140.011868, "url": "https://www.iryou.teikyouseido.mhlw.go.jp/znk-web/juminkanja/S2430/initialize?prefCd=09&kikanCd=1090009050&kikanKbn=1", "url2": "http://www.haga.jrc.or.jp/", "内容": "芳賀赤十字病院【1:病院】【診療科目:内科_血液内科_脳神経内科_呼吸器内科_循環器内科_消化器内科_腎臓内科_外科_脳神経外科_呼吸器外科_循環器外科_心臓血管外科_消化器外科_乳腺外科_整形外科_形成外科_小児科_小児外科_産婦人科_眼科_耳鼻いんこう科_皮膚科_泌尿器科_精神科_歯科_歯科口腔外科_アレルギー科_リウマチ科_リハビリテーション科_放射線科_救急科_麻酔科】【一般病床数:360療養病床数:0精神病床数:0感染症病床数:4合計病床数:364】栃木県真岡市中萩二丁目１０番地１" }, "geometry": { "type": "Point", "coordinates": [ 140.011868, 36.451561 ] } },
{ "type": "Feature", "properties": { "ID": 911090009051, "正式名称": "医療法人社団福田会　福田記念病院", "機関区分": 1, "都道府県コード": 9, "市区町村コード": 209, "所在地": "栃木県真岡市並木町３－１０－６", "緯度": 36.443068, "経度": 139.995482, "url": "https://www.iryou.teikyouseido.mhlw.go.jp/znk-web/juminkanja/S2430/initialize?prefCd=09&kikanCd=1090009051&kikanKbn=1", "url2": "http://www.fukudakai.sms.gr.jp/", "内容": "医療法人社団福田会　福田記念病院【1:病院】【診療科目:内科_呼吸器内科_循環器内科_消化器内科_腎臓内科_神経内科_外科_整形外科_泌尿器科_リウマチ科_リハビリテーション科_放射線科_麻酔科】【一般病床数:128療養病床数:48精神病床数:0感染症病床数:0合計病床数:176】栃木県真岡市並木町３－１０－６" }, "geometry": { "type": "Point", "coordinates": [ 139.995482, 36.443068 ] } },
{ "type": "Feature", "properties": { "ID": 911090009052, "正式名称": "真岡病院", "機関区分": 1, "都道府県コード": 9, "市区町村コード": 209, "所在地": "栃木県真岡市荒町３－４５－１６", "緯度": 36.446065, "経度": 140.017407, "url": "https://www.iryou.teikyouseido.mhlw.go.jp/znk-web/juminkanja/S2430/initialize?prefCd=09&kikanCd=1090009052&kikanKbn=1", "url2": "http://moka-hp.jp/", "内容": "真岡病院【1:病院】【診療科目:内科_循環器内科_消化器内科_腎臓内科_人工透析内科_神経内科_外科_泌尿器科_放射線科】【一般病床数:60療養病床数:60精神病床数:0感染症病床数:0合計病床数:120】栃木県真岡市荒町３－４５－１６" }, "geometry": { "type": "Point", "coordinates": [ 140.017407, 36.446065 ] } },
{ "type": "Feature", "properties": { "ID": 911090009501, "正式名称": "社団医療法人弘全会　芳賀中央病院", "機関区分": 1, "都道府県コード": 9, "市区町村コード": 344, "所在地": "栃木県芳賀郡市貝町上根１４４０", "緯度": 36.538052, "経度": 140.08489, "url": "https://www.iryou.teikyouseido.mhlw.go.jp/znk-web/juminkanja/S2430/initialize?prefCd=09&kikanCd=1090009501&kikanKbn=1", "url2": "http://www.kouzen-kai.jp/", "内容": "社団医療法人弘全会　芳賀中央病院【1:病院】【診療科目:内科_循環器内科_消化器内科_外科_消化器外科_肛門外科_整形外科_皮膚科_泌尿器科_リハビリテーション科_放射線科】【一般病床数:34療養病床数:40精神病床数:0感染症病床数:0合計病床数:74】栃木県芳賀郡市貝町上根１４４０" }, "geometry": { "type": "Point", "coordinates": [ 140.08489, 36.538052 ] } },
{ "type": "Feature", "properties": { "ID": 911090010050, "正式名称": "西方病院", "機関区分": 1, "都道府県コード": 9, "市区町村コード": 203, "所在地": "栃木県栃木市西方町金崎２７３－３", "緯度": 36.468791, "経度": 139.746644, "url": "https://www.iryou.teikyouseido.mhlw.go.jp/znk-web/juminkanja/S2430/initialize?prefCd=09&kikanCd=1090010050&kikanKbn=1", "url2": "http://nishikata-hp.or.jp/", "内容": "西方病院【1:病院】【診療科目:内科_糖尿病・内分泌内科_糖尿病・代謝内科_脳神経内科_呼吸器内科_循環器内科_消化器内科_腎臓内科_神経内科_アレルギー疾患内科_外科_脳神経外科_脳外科_消化器外科_整形外科_小児科_小児皮膚科_小児アレルギー科_皮膚科_泌尿器科_アレルギー科_リハビリテーション科_麻酔科】【一般病床数:93療養病床数:0精神病床数:0感染症病床数:0合計病床数:93】栃木県栃木市西方町金崎２７３－３" }, "geometry": { "type": "Point", "coordinates": [ 139.746644, 36.468791 ] } },
{ "type": "Feature", "properties": { "ID": 911090010052, "正式名称": "医療法人社団　徳仁会　中野病院", "機関区分": 1, "都道府県コード": 9, "市区町村コード": 203, "所在地": "栃木県栃木市祝町８－１", "緯度": 36.380178, "経度": 139.730723, "url": "https://www.iryou.teikyouseido.mhlw.go.jp/znk-web/juminkanja/S2430/initialize?prefCd=09&kikanCd=1090010052&kikanKbn=1", "url2": "https://www.nakanohosp.or.jp", "内容": "医療法人社団　徳仁会　中野病院【1:病院】【診療科目:内科_循環器内科_消化器内科_神経内科_外科_肛門外科_整形外科_泌尿器科_リハビリテーション科_放射線科】【一般病床数:0療養病床数:55精神病床数:0感染症病床数:0合計病床数:55】栃木県栃木市祝町８－１" }, "geometry": { "type": "Point", "coordinates": [ 139.730723, 36.380178 ] } },
{ "type": "Feature", "properties": { "ID": 911090011051, "正式名称": "医療法人社団あかね会　矢板南病院", "機関区分": 1, "都道府県コード": 9, "市区町村コード": 211, "所在地": "栃木県矢板市乙畑１７３５―９", "緯度": 36.75424, "経度": 139.952323, "url": "https://www.iryou.teikyouseido.mhlw.go.jp/znk-web/juminkanja/S2430/initialize?prefCd=09&kikanCd=1090011051&kikanKbn=1", "url2": "https://yaitaminami-hp.jp/", "内容": "医療法人社団あかね会　矢板南病院【1:病院】【診療科目:内科_脳神経内科_皮膚科_人工透析科】【一般病床数:0療養病床数:128精神病床数:0感染症病床数:0合計病床数:128】栃木県矢板市乙畑１７３５―９" }, "geometry": { "type": "Point", "coordinates": [ 139.952323, 36.75424 ] } },
{ "type": "Feature", "properties": { "ID": 911090011054, "正式名称": "高根沢中央病院", "機関区分": 1, "都道府県コード": 9, "市区町村コード": 386, "所在地": "栃木県塩谷郡高根沢町光陽台３－１６－１", "緯度": 36.618403, "経度": 139.989888, "url": "https://www.iryou.teikyouseido.mhlw.go.jp/znk-web/juminkanja/S2430/initialize?prefCd=09&kikanCd=1090011054&kikanKbn=1", "url2": "http://www.takanezawa-chuo.jp/", "内容": "高根沢中央病院【1:病院】【診療科目:内科_呼吸器内科_循環器内科_消化器内科_外科_肛門外科_整形外科_アレルギー科_リハビリテーション科_放射線科】【一般病床数:0療養病床数:53精神病床数:0感染症病床数:0合計病床数:53】栃木県塩谷郡高根沢町光陽台３－１６－１" }, "geometry": { "type": "Point", "coordinates": [ 139.989888, 36.618403 ] } },
{ "type": "Feature", "properties": { "ID": 911090011501, "正式名称": "医療法人　誠之会　氏家病院", "機関区分": 1, "都道府県コード": 9, "市区町村コード": 214, "所在地": "栃木県さくら市向河原４０９５", "緯度": 36.695763, "経度": 139.939576, "url": "https://www.iryou.teikyouseido.mhlw.go.jp/znk-web/juminkanja/S2430/initialize?prefCd=09&kikanCd=1090011501&kikanKbn=1", "url2": "https://www.seishikai-hp.or.jp/", "内容": "医療法人　誠之会　氏家病院【1:病院】【診療科目:内科_消化器内科_神経内科_精神科_歯科_麻酔科】【一般病床数:0療養病床数:0精神病床数:0感染症病床数:0合計病床数:171】栃木県さくら市向河原４０９５" }, "geometry": { "type": "Point", "coordinates": [ 139.939576, 36.695763 ] } },
{ "type": "Feature", "properties": { "ID": 911090013050, "正式名称": "南那須地区広域行政事務組合立　那須南病院", "機関区分": 1, "都道府県コード": 9, "市区町村コード": 215, "所在地": "栃木県那須烏山市中央３－２－１３", "緯度": 36.660705, "経度": 140.152722, "url": "https://www.iryou.teikyouseido.mhlw.go.jp/znk-web/juminkanja/S2430/initialize?prefCd=09&kikanCd=1090013050&kikanKbn=1", "url2": "https://nasuminami-hosp.jp/", "内容": "南那須地区広域行政事務組合立　那須南病院【1:病院】【診療科目:内科_脳神経内科_循環器内科_消化器内科_外科_整形外科_眼科_耳鼻いんこう科_皮膚科_泌尿器科】【一般病床数:96療養病床数:34精神病床数:0感染症病床数:0合計病床数:130】栃木県那須烏山市中央３－２－１３" }, "geometry": { "type": "Point", "coordinates": [ 140.152722, 36.660705 ] } },
{ "type": "Feature", "properties": { "ID": 911090013051, "正式名称": "高野病院", "機関区分": 1, "都道府県コード": 9, "市区町村コード": 411, "所在地": "栃木県那須郡那珂川町馬頭２０６８", "緯度": 36.734073, "経度": 140.160738, "url": "https://www.iryou.teikyouseido.mhlw.go.jp/znk-web/juminkanja/S2430/initialize?prefCd=09&kikanCd=1090013051&kikanKbn=1", "url2": null, "内容": "高野病院【1:病院】【診療科目:内科_心臓血管内科_消化器内科_外科_小児科_眼科_耳鼻いんこう科_皮膚科_リハビリテーション科_放射線科】【一般病床数:0療養病床数:47精神病床数:0感染症病床数:0合計病床数:47】栃木県那須郡那珂川町馬頭２０６８" }, "geometry": { "type": "Point", "coordinates": [ 140.160738, 36.734073 ] } },
{ "type": "Feature", "properties": { "ID": 911090013500, "正式名称": "烏山台病院", "機関区分": 1, "都道府県コード": 9, "市区町村コード": 215, "所在地": "栃木県那須烏山市滝田１８６８－１８", "緯度": 36.676358, "経度": 140.146744, "url": "https://www.iryou.teikyouseido.mhlw.go.jp/znk-web/juminkanja/S2430/initialize?prefCd=09&kikanCd=1090013500&kikanKbn=1", "url2": "http://karadai-hp.jp/", "内容": "烏山台病院【1:病院】【診療科目:内科_精神科_心療内科】【一般病床数:0療養病床数:0精神病床数:122感染症病床数:0合計病床数:122】栃木県那須烏山市滝田１８６８－１８" }, "geometry": { "type": "Point", "coordinates": [ 140.146744, 36.676358 ] } },
{ "type": "Feature", "properties": { "ID": 911090014051, "正式名称": "佐野厚生総合病院", "機関区分": 1, "都道府県コード": 9, "市区町村コード": 204, "所在地": "栃木県佐野市堀米町１７２８", "緯度": 36.325201, "経度": 139.57343, "url": "https://www.iryou.teikyouseido.mhlw.go.jp/znk-web/juminkanja/S2430/initialize?prefCd=09&kikanCd=1090014051&kikanKbn=1", "url2": "https://jasanoko.or.jp/", "内容": "佐野厚生総合病院【1:病院】【診療科目:内科_血液内科_代謝・内分泌内科_循環器内科_消化器内科_神経内科_なし_外科_脳神経外科_呼吸器外科_心臓血管外科_乳腺外科_整形外科_形成外科_小児科_産婦人科_眼科_耳鼻いんこう科_皮膚科_泌尿器科_精神科_歯科口腔外科_アレルギー科_リハビリテーション科_放射線科_放射線診断科_放射線治療科_病理診断科_麻酔科】【一般病床数:410療養病床数:32精神病床数:38感染症病床数:4合計病床数:510】栃木県佐野市堀米町１７２８" }, "geometry": { "type": "Point", "coordinates": [ 139.57343, 36.325201 ] } },
{ "type": "Feature", "properties": { "ID": 911090014500, "正式名称": "佐野医師会病院", "機関区分": 1, "都道府県コード": 9, "市区町村コード": 204, "所在地": "栃木県佐野市植上町１６７７", "緯度": 36.303817, "経度": 139.58205, "url": "https://www.iryou.teikyouseido.mhlw.go.jp/znk-web/juminkanja/S2430/initialize?prefCd=09&kikanCd=1090014500&kikanKbn=1", "url2": "http://sanoishikai.or.jp", "内容": "佐野医師会病院【1:病院】【診療科目:内科_外科_整形外科_眼科_皮膚科_放射線科_麻酔科】【一般病床数:78療養病床数:34精神病床数:0感染症病床数:0合計病床数:119】栃木県佐野市植上町１６７７" }, "geometry": { "type": "Point", "coordinates": [ 139.58205, 36.303817 ] } },
{ "type": "Feature", "properties": { "ID": 911090014502, "正式名称": "両毛病院", "機関区分": 1, "都道府県コード": 9, "市区町村コード": 204, "所在地": "栃木県佐野市堀米町", "緯度": 36.323524, "経度": 139.573528, "url": "https://www.iryou.teikyouseido.mhlw.go.jp/znk-web/juminkanja/S2430/initialize?prefCd=09&kikanCd=1090014502&kikanKbn=1", "url2": "https://ryoumoubyouin.jp/", "内容": "両毛病院【1:病院】【診療科目:内科_精神科_心療内科】【一般病床数:0療養病床数:0精神病床数:182感染症病床数:0合計病床数:182】栃木県佐野市堀米町" }, "geometry": { "type": "Point", "coordinates": [ 139.573528, 36.323524 ] } },
{ "type": "Feature", "properties": { "ID": 911090015051, "正式名称": "公益社団法人　地域医療振興協会　日光市民病院", "機関区分": 1, "都道府県コード": 9, "市区町村コード": 206, "所在地": "栃木県日光市清滝安良沢町１７５２－１０", "緯度": 36.74971, "経度": 139.576329, "url": "https://www.iryou.teikyouseido.mhlw.go.jp/znk-web/juminkanja/S2430/initialize?prefCd=09&kikanCd=1090015051&kikanKbn=1", "url2": "https://www.nikko-jadecom.jp", "内容": "公益社団法人　地域医療振興協会　日光市民病院【1:病院】【診療科目:内科_神経内科_外科_整形外科_小児科_眼科_耳鼻いんこう科_皮膚科_泌尿器科】【一般病床数:53療養病床数:43精神病床数:0感染症病床数:4合計病床数:100】栃木県日光市清滝安良沢町１７５２－１０" }, "geometry": { "type": "Point", "coordinates": [ 139.576329, 36.74971 ] } },
{ "type": "Feature", "properties": { "ID": 911090015052, "正式名称": "日光野口病院", "機関区分": 1, "都道府県コード": 9, "市区町村コード": 206, "所在地": "栃木県日光市野口４４５", "緯度": 36.738157, "経度": 139.647922, "url": "https://www.iryou.teikyouseido.mhlw.go.jp/znk-web/juminkanja/S2430/initialize?prefCd=09&kikanCd=1090015052&kikanKbn=1", "url2": "http://www.meirinkai.jp/noguchi/", "内容": "日光野口病院【1:病院】【診療科目:内科_外科_整形外科_リハビリテーション科】【一般病床数:0療養病床数:120精神病床数:0感染症病床数:0合計病床数:120】栃木県日光市野口４４５" }, "geometry": { "type": "Point", "coordinates": [ 139.647922, 36.738157 ] } },
{ "type": "Feature", "properties": { "ID": 911090100524, "正式名称": "財団医療法人　十全会　上野病院", "機関区分": 1, "都道府県コード": 9, "市区町村コード": 201, "所在地": "栃木県宇都宮市天神２－２－１５", "緯度": 36.554036, "経度": 139.88981, "url": "https://www.iryou.teikyouseido.mhlw.go.jp/znk-web/juminkanja/S2430/initialize?prefCd=09&kikanCd=1090100524&kikanKbn=1", "url2": "http://uenobyouin.jp/about/index.html", "内容": "財団医療法人　十全会　上野病院【1:病院】【診療科目:内科_循環器内科_腎臓内科_小児皮膚科_皮膚科_美容皮膚科_リハビリテーション科】【一般病床数:0療養病床数:103精神病床数:0感染症病床数:0合計病床数:103】栃木県宇都宮市天神２－２－１５" }, "geometry": { "type": "Point", "coordinates": [ 139.88981, 36.554036 ] } },
{ "type": "Feature", "properties": { "ID": 911090100525, "正式名称": "栃木県済生会宇都宮病院", "機関区分": 1, "都道府県コード": 9, "市区町村コード": 201, "所在地": "栃木県宇都宮市竹林町９１１－１", "緯度": 36.579108, "経度": 139.897351, "url": "https://www.iryou.teikyouseido.mhlw.go.jp/znk-web/juminkanja/S2430/initialize?prefCd=09&kikanCd=1090100525&kikanKbn=1", "url2": "http://www.saimiya.com/", "内容": "栃木県済生会宇都宮病院【1:病院】【診療科目:内科_血液内科_糖尿病・内分泌内科_脳神経内科_呼吸器内科_循環器内科_消化器内科_腎臓内科_化学療法内科_外科_脳神経外科_呼吸器外科_心臓血管外科_消化器外科_整形外科_形成外科_小児科_産婦人科_眼科_耳鼻いんこう科_皮膚科_泌尿器科_精神科_歯科_リハビリテーション科_放射線科_放射線診断科_放射線治療科_病理診断科_臨床検査科_救急科_麻酔科】【一般病床数:644療養病床数:0精神病床数:0感染症病床数:0合計病床数:644】栃木県宇都宮市竹林町９１１－１" }, "geometry": { "type": "Point", "coordinates": [ 139.897351, 36.579108 ] } },
{ "type": "Feature", "properties": { "ID": 911090100526, "正式名称": "新直井病院", "機関区分": 1, "都道府県コード": 9, "市区町村コード": 201, "所在地": "栃木県宇都宮市石井町３３８５", "緯度": 36.530035, "経度": 139.91941, "url": "https://www.iryou.teikyouseido.mhlw.go.jp/znk-web/juminkanja/S2430/initialize?prefCd=09&kikanCd=1090100526&kikanKbn=1", "url2": "http://www5.ocn.ne.jp/~shinnaoi/", "内容": "新直井病院【1:病院】【診療科目:内科_神経内科_精神科_歯科】【一般病床数:0療養病床数:0精神病床数:199感染症病床数:0合計病床数:199】栃木県宇都宮市石井町３３８５" }, "geometry": { "type": "Point", "coordinates": [ 139.91941, 36.530035 ] } },
{ "type": "Feature", "properties": { "ID": 911090100682, "正式名称": "足利第一病院", "機関区分": 1, "都道府県コード": 9, "市区町村コード": 202, "所在地": "栃木県足利市大月町１０３１", "緯度": 36.348902, "経度": 139.474304, "url": "https://www.iryou.teikyouseido.mhlw.go.jp/znk-web/juminkanja/S2430/initialize?prefCd=09&kikanCd=1090100682&kikanKbn=1", "url2": "https://taiyokai-hp.com/", "内容": "足利第一病院【1:病院】【診療科目:内科_糖尿病内科_腎臓内科_神経内科_外科_整形外科_皮膚科_泌尿器科】【一般病床数:57療養病床数:0精神病床数:0感染症病床数:0合計病床数:57】栃木県足利市大月町１０３１" }, "geometry": { "type": "Point", "coordinates": [ 139.474304, 36.348902 ] } },
{ "type": "Feature", "properties": { "ID": 911090100687, "正式名称": "長崎病院", "機関区分": 1, "都道府県コード": 9, "市区町村コード": 202, "所在地": "栃木県足利市伊勢町１－４－７", "緯度": 36.33193, "経度": 139.457259, "url": "https://www.iryou.teikyouseido.mhlw.go.jp/znk-web/juminkanja/S2430/initialize?prefCd=09&kikanCd=1090100687&kikanKbn=1", "url2": "http://www.nagasakihospital.com/", "内容": "長崎病院【1:病院】【診療科目:内科_外科_消化器外科_肛門外科_整形外科_泌尿器科_リハビリテーション科】【一般病床数:34療養病床数:46精神病床数:0感染症病床数:0合計病床数:80】栃木県足利市伊勢町１－４－７" }, "geometry": { "type": "Point", "coordinates": [ 139.457259, 36.33193 ] } },
{ "type": "Feature", "properties": { "ID": 911091000008, "正式名称": "国際医療福祉大学塩谷病院", "機関区分": 1, "都道府県コード": 9, "市区町村コード": 211, "所在地": "栃木県矢板市富田７７", "緯度": 36.798238, "経度": 139.925343, "url": "https://www.iryou.teikyouseido.mhlw.go.jp/znk-web/juminkanja/S2430/initialize?prefCd=09&kikanCd=1091000008&kikanKbn=1", "url2": "https://shioya.iuhw.ac.jp/index.html", "内容": "国際医療福祉大学塩谷病院【1:病院】【診療科目:内科_糖尿病・代謝内科_呼吸器内科_循環器内科_消化器内科_腎臓内科_神経内科_外科_脳神経外科_心臓血管外科_消化器外科_乳腺外科_整形外科_形成外科_小児科_婦人科_眼科_耳鼻いんこう科_皮膚科_泌尿器科_リハビリテーション科_放射線科_病理診断科_臨床検査科_救急科_麻酔科】【一般病床数:155療養病床数:44精神病床数:0感染症病床数:0合計病床数:199】栃木県矢板市富田７７" }, "geometry": { "type": "Point", "coordinates": [ 139.925343, 36.798238 ] } },
{ "type": "Feature", "properties": { "ID": 911091000009, "正式名称": "塩谷地区夜間診療室しおや", "機関区分": 1, "都道府県コード": 9, "市区町村コード": 211, "所在地": "栃木県矢板市富田７７　国際医療福祉大学塩谷病院内", "緯度": 36.798238, "経度": 139.925343, "url": "https://www.iryou.teikyouseido.mhlw.go.jp/znk-web/juminkanja/S2430/initialize?prefCd=09&kikanCd=1091000009&kikanKbn=1", "url2": null, "内容": "塩谷地区夜間診療室しおや【1:病院】【診療科目:内科_小児科】【一般病床数:0療養病床数:0精神病床数:0感染症病床数:0合計病床数:0】栃木県矢板市富田７７　国際医療福祉大学塩谷病院内" }, "geometry": { "type": "Point", "coordinates": [ 139.925343, 36.798238 ] } },
{ "type": "Feature", "properties": { "ID": 911091000010, "正式名称": "塩谷地区夜間診療室くろす", "機関区分": 1, "都道府県コード": 9, "市区町村コード": 214, "所在地": "栃木県さくら市氏家２６５０　黒須病院内", "緯度": 36.679649, "経度": 139.96818, "url": "https://www.iryou.teikyouseido.mhlw.go.jp/znk-web/juminkanja/S2430/initialize?prefCd=09&kikanCd=1091000010&kikanKbn=1", "url2": null, "内容": "塩谷地区夜間診療室くろす【1:病院】【診療科目:内科_小児科】【一般病床数:0療養病床数:0精神病床数:0感染症病床数:0合計病床数:0】栃木県さくら市氏家２６５０　黒須病院内" }, "geometry": { "type": "Point", "coordinates": [ 139.96818, 36.679649 ] } }
]
}
