{
"type": "FeatureCollection",
"name": "geo_09_高校",
"crs": { "type": "name", "properties": { "name": "urn:ogc:def:crs:EPSG::6668" } },
"features": [
{ "type": "Feature", "properties": { "P29_001": "09201", "P29_002": "D109210000016", "P29_003": "16004", "P29_004": "栃木県立宇都宮高等学校", "P29_005": "栃木県宇都宮市滝の原3-5-70", "P29_006": "2", "P29_007": "0", "P29_008": "00", "P29_009": null }, "geometry": { "type": "Point", "coordinates": [ 139.863024290639174, 36.541452022954346 ] } },
{ "type": "Feature", "properties": { "P29_001": "09201", "P29_002": "D109210000025", "P29_003": "16004", "P29_004": "栃木県立宇都宮東高等学校", "P29_005": "栃木県宇都宮市石井町3360-1", "P29_006": "2", "P29_007": "0", "P29_008": "00", "P29_009": null }, "geometry": { "type": "Point", "coordinates": [ 139.92133093157608, 36.527685982795916 ] } },
{ "type": "Feature", "properties": { "P29_001": "09201", "P29_002": "D109210000034", "P29_003": "16004", "P29_004": "栃木県立宇都宮女子高等学校", "P29_005": "栃木県宇都宮市操町5-19", "P29_006": "2", "P29_007": "0", "P29_008": "00", "P29_009": null }, "geometry": { "type": "Point", "coordinates": [ 139.870414641357797, 36.55818296695773 ] } },
{ "type": "Feature", "properties": { "P29_001": "09201", "P29_002": "D109210000043", "P29_003": "16004", "P29_004": "栃木県立宇都宮中央女子高等学校", "P29_005": "栃木県宇都宮市若草2-2-46", "P29_006": "2", "P29_007": "0", "P29_008": "00", "P29_009": null }, "geometry": { "type": "Point", "coordinates": [ 139.860807415538858, 36.581032766567603 ] } },
{ "type": "Feature", "properties": { "P29_001": "09201", "P29_002": "D109210000052", "P29_003": "16004", "P29_004": "栃木県立宇都宮白楊高等学校", "P29_005": "栃木県宇都宮市元今泉8-2-1", "P29_006": "2", "P29_007": "0", "P29_008": "00", "P29_009": null }, "geometry": { "type": "Point", "coordinates": [ 139.910483522333237, 36.564450118712948 ] } },
{ "type": "Feature", "properties": { "P29_001": "09201", "P29_002": "D109210000061", "P29_003": "16004", "P29_004": "栃木県立宇都宮工業高等学校", "P29_005": "栃木県宇都宮市雀宮町52", "P29_006": "2", "P29_007": "0", "P29_008": "00", "P29_009": null }, "geometry": { "type": "Point", "coordinates": [ 139.880006821964713, 36.493548871331392 ] } },
{ "type": "Feature", "properties": { "P29_001": "09201", "P29_002": "D109210000070", "P29_003": "16004", "P29_004": "栃木県立宇都宮商業高等学校", "P29_005": "栃木県宇都宮市大曽3-1-46", "P29_006": "2", "P29_007": "0", "P29_008": "00", "P29_009": null }, "geometry": { "type": "Point", "coordinates": [ 139.890673981008774, 36.572100772648525 ] } },
{ "type": "Feature", "properties": { "P29_001": "09201", "P29_002": "D109210000089", "P29_003": "16004", "P29_004": "栃木県立宇都宮南高等学校", "P29_005": "栃木県宇都宮市東谷町660-1", "P29_006": "2", "P29_007": "0", "P29_008": "00", "P29_009": null }, "geometry": { "type": "Point", "coordinates": [ 139.896062164758149, 36.48517315587479 ] } },
{ "type": "Feature", "properties": { "P29_001": "09201", "P29_002": "D109210000098", "P29_003": "16004", "P29_004": "栃木県立宇都宮北高等学校", "P29_005": "栃木県宇都宮市岩曽606", "P29_006": "2", "P29_007": "0", "P29_008": "00", "P29_009": null }, "geometry": { "type": "Point", "coordinates": [ 139.89791336763659, 36.590179500661378 ] } },
{ "type": "Feature", "properties": { "P29_001": "09205", "P29_002": "D109210000105", "P29_003": "16004", "P29_004": "栃木県立鹿沼高等学校", "P29_005": "栃木県鹿沼市万町960", "P29_006": "2", "P29_007": "0", "P29_008": "00", "P29_009": null }, "geometry": { "type": "Point", "coordinates": [ 139.750552723245676, 36.558589034425012 ] } },
{ "type": "Feature", "properties": { "P29_001": "09206", "P29_002": "D109210000114", "P29_003": "16004", "P29_004": "栃木県立今市高等学校", "P29_005": "栃木県日光市千本木432", "P29_006": "2", "P29_007": "0", "P29_008": "00", "P29_009": null }, "geometry": { "type": "Point", "coordinates": [ 139.684211309213651, 36.719360745902684 ] } },
{ "type": "Feature", "properties": { "P29_001": "09206", "P29_002": "D109210000123", "P29_003": "16004", "P29_004": "栃木県立今市工業高等学校", "P29_005": "栃木県日光市荊沢615", "P29_006": "2", "P29_007": "0", "P29_008": "00", "P29_009": null }, "geometry": { "type": "Point", "coordinates": [ 139.727404477548248, 36.728642442884919 ] } },
{ "type": "Feature", "properties": { "P29_001": "09205", "P29_002": "D109210000132", "P29_003": "16004", "P29_004": "栃木県立鹿沼商工高等学校", "P29_005": "栃木県鹿沼市花岡町180-1", "P29_006": "2", "P29_007": "0", "P29_008": "00", "P29_009": null }, "geometry": { "type": "Point", "coordinates": [ 139.741110534114199, 36.556203575929445 ] } },
{ "type": "Feature", "properties": { "P29_001": "09205", "P29_002": "D109210000141", "P29_003": "16004", "P29_004": "栃木県立鹿沼東高等学校", "P29_005": "栃木県鹿沼市千渡2050", "P29_006": "2", "P29_007": "0", "P29_008": "00", "P29_009": null }, "geometry": { "type": "Point", "coordinates": [ 139.773880940879764, 36.581311262993516 ] } },
{ "type": "Feature", "properties": { "P29_001": "09201", "P29_002": "D109210000150", "P29_003": "16004", "P29_004": "栃木県立宇都宮清陵高等学校", "P29_005": "栃木県宇都宮市竹下町908-3", "P29_006": "2", "P29_007": "0", "P29_008": "00", "P29_009": null }, "geometry": { "type": "Point", "coordinates": [ 139.975299406776088, 36.543415028452394 ] } },
{ "type": "Feature", "properties": { "P29_001": "09301", "P29_002": "D109210000169", "P29_003": "16004", "P29_004": "栃木県立上三川高等学校", "P29_005": "栃木県河内郡上三川町多功994-4", "P29_006": "2", "P29_007": "0", "P29_008": "00", "P29_009": null }, "geometry": { "type": "Point", "coordinates": [ 139.869195518481547, 36.41591263065196 ] } },
{ "type": "Feature", "properties": { "P29_001": "09208", "P29_002": "D109210000178", "P29_003": "16004", "P29_004": "栃木県立小山西高等学校", "P29_005": "栃木県小山市松沼741", "P29_006": "2", "P29_007": "0", "P29_008": "00", "P29_009": null }, "geometry": { "type": "Point", "coordinates": [ 139.768302367204001, 36.352163282426346 ] } },
{ "type": "Feature", "properties": { "P29_001": "09206", "P29_002": "D109210000187", "P29_003": "16004", "P29_004": "栃木県立日光明峰高等学校", "P29_005": "栃木県日光市久次良町104", "P29_006": "2", "P29_007": "0", "P29_008": "00", "P29_009": null }, "geometry": { "type": "Point", "coordinates": [ 139.578220951780082, 36.751441679623476 ] } },
{ "type": "Feature", "properties": { "P29_001": "09203", "P29_002": "D109210000196", "P29_003": "16004", "P29_004": "栃木県立栃木翔南高等学校", "P29_005": "栃木県栃木市大平町川連370", "P29_006": "2", "P29_007": "0", "P29_008": "00", "P29_009": null }, "geometry": { "type": "Point", "coordinates": [ 139.726048257861237, 36.36496671323895 ] } },
{ "type": "Feature", "properties": { "P29_001": "09205", "P29_002": "D109210000203", "P29_003": "16004", "P29_004": "栃木県立鹿沼南高等学校", "P29_005": "栃木県鹿沼市みなみ町8-73", "P29_006": "2", "P29_007": "0", "P29_008": "00", "P29_009": null }, "geometry": { "type": "Point", "coordinates": [ 139.770525963977889, 36.521481487863596 ] } },
{ "type": "Feature", "properties": { "P29_001": "09216", "P29_002": "D109210000212", "P29_003": "16004", "P29_004": "栃木県立石橋高等学校", "P29_005": "栃木県下野市石橋845", "P29_006": "2", "P29_007": "0", "P29_008": "00", "P29_009": null }, "geometry": { "type": "Point", "coordinates": [ 139.858234431872546, 36.438847806754588 ] } },
{ "type": "Feature", "properties": { "P29_001": "09208", "P29_002": "D109210000221", "P29_003": "16004", "P29_004": "栃木県立小山高等学校", "P29_005": "栃木県小山市若木町2-8-51", "P29_006": "2", "P29_007": "0", "P29_008": "00", "P29_009": null }, "geometry": { "type": "Point", "coordinates": [ 139.806894299162735, 36.328078144776008 ] } },
{ "type": "Feature", "properties": { "P29_001": "09208", "P29_002": "D109210000230", "P29_003": "16004", "P29_004": "栃木県立小山城南高等学校", "P29_005": "栃木県小山市西城南4-26-1", "P29_006": "2", "P29_007": "0", "P29_008": "00", "P29_009": null }, "geometry": { "type": "Point", "coordinates": [ 139.802839323711964, 36.292667121568165 ] } },
{ "type": "Feature", "properties": { "P29_001": "09203", "P29_002": "D109210000249", "P29_003": "16004", "P29_004": "栃木県立栃木高等学校", "P29_005": "栃木県栃木市入舟町12-4", "P29_006": "2", "P29_007": "0", "P29_008": "00", "P29_009": null }, "geometry": { "type": "Point", "coordinates": [ 139.730148296405957, 36.383660215766746 ] } },
{ "type": "Feature", "properties": { "P29_001": "09203", "P29_002": "D109210000258", "P29_003": "16004", "P29_004": "栃木県立栃木女子高等学校", "P29_005": "栃木県栃木市薗部町1-2-5", "P29_006": "2", "P29_007": "0", "P29_008": "00", "P29_009": null }, "geometry": { "type": "Point", "coordinates": [ 139.721887966456336, 36.377652093828864 ] } },
{ "type": "Feature", "properties": { "P29_001": "09203", "P29_002": "D109210000267", "P29_003": "16004", "P29_004": "栃木県立栃木農業高等学校", "P29_005": "栃木県栃木市平井町911", "P29_006": "2", "P29_007": "0", "P29_008": "00", "P29_009": null }, "geometry": { "type": "Point", "coordinates": [ 139.704289881594974, 36.373744278616236 ] } },
{ "type": "Feature", "properties": { "P29_001": "09203", "P29_002": "D109210000276", "P29_003": "16004", "P29_004": "栃木県立栃木工業高等学校", "P29_005": "栃木県栃木市岩出町129", "P29_006": "2", "P29_007": "0", "P29_008": "00", "P29_009": null }, "geometry": { "type": "Point", "coordinates": [ 139.707463075851621, 36.384734773084318 ] } },
{ "type": "Feature", "properties": { "P29_001": "09203", "P29_002": "D109210000285", "P29_003": "16004", "P29_004": "栃木県立栃木商業高等学校", "P29_005": "栃木県栃木市片柳町5-1-30", "P29_006": "2", "P29_007": "0", "P29_008": "00", "P29_009": null }, "geometry": { "type": "Point", "coordinates": [ 139.716877939910574, 36.373978483474282 ] } },
{ "type": "Feature", "properties": { "P29_001": "09361", "P29_002": "D109210000294", "P29_003": "16004", "P29_004": "栃木県立壬生高等学校", "P29_005": "栃木県下都賀郡壬生町藤井1194", "P29_006": "2", "P29_007": "0", "P29_008": "00", "P29_009": null }, "geometry": { "type": "Point", "coordinates": [ 139.811151002698665, 36.413369998703587 ] } },
{ "type": "Feature", "properties": { "P29_001": "09208", "P29_002": "D109210000301", "P29_003": "16004", "P29_004": "栃木県立小山北桜高等学校", "P29_005": "栃木県小山市東山田448-29", "P29_006": "2", "P29_007": "0", "P29_008": "00", "P29_009": null }, "geometry": { "type": "Point", "coordinates": [ 139.865332129699055, 36.356053430286678 ] } },
{ "type": "Feature", "properties": { "P29_001": "09204", "P29_002": "D109210000310", "P29_003": "16004", "P29_004": "栃木県立佐野高等学校", "P29_005": "栃木県佐野市天神町761-1", "P29_006": "2", "P29_007": "0", "P29_008": "00", "P29_009": null }, "geometry": { "type": "Point", "coordinates": [ 139.574817001057909, 36.320250123860639 ] } },
{ "type": "Feature", "properties": { "P29_001": "09203", "P29_002": "D109210000329", "P29_003": "16004", "P29_004": "栃木県立学悠館高等学校", "P29_005": "栃木県栃木市沼和田町2-2", "P29_006": "2", "P29_007": "0", "P29_008": "00", "P29_009": null }, "geometry": { "type": "Point", "coordinates": [ 139.734565255172413, 36.37285125357311 ] } },
{ "type": "Feature", "properties": { "P29_001": "09202", "P29_002": "D109210000338", "P29_003": "16004", "P29_004": "栃木県立足利高等学校", "P29_005": "栃木県足利市本城1-1629", "P29_006": "2", "P29_007": "0", "P29_008": "00", "P29_009": null }, "geometry": { "type": "Point", "coordinates": [ 139.455905820529239, 36.351092404189295 ] } },
{ "type": "Feature", "properties": { "P29_001": "09202", "P29_002": "D109210000356", "P29_003": "16004", "P29_004": "栃木県立足利工業高等学校", "P29_005": "栃木県足利市西宮町2908-1", "P29_006": "2", "P29_007": "0", "P29_008": "00", "P29_009": null }, "geometry": { "type": "Point", "coordinates": [ 139.442224570785584, 36.343928267402354 ] } },
{ "type": "Feature", "properties": { "P29_001": "09202", "P29_002": "D109210000365", "P29_003": "16004", "P29_004": "栃木県立足利南高等学校", "P29_005": "栃木県足利市下渋垂町980", "P29_006": "2", "P29_007": "0", "P29_008": "00", "P29_009": null }, "geometry": { "type": "Point", "coordinates": [ 139.476831822154367, 36.294662457067759 ] } },
{ "type": "Feature", "properties": { "P29_001": "09209", "P29_002": "D109210000374", "P29_003": "16004", "P29_004": "栃木県立真岡高等学校", "P29_005": "栃木県真岡市白布ヶ丘24-1", "P29_006": "2", "P29_007": "0", "P29_008": "00", "P29_009": null }, "geometry": { "type": "Point", "coordinates": [ 139.999027910566639, 36.440381525877442 ] } },
{ "type": "Feature", "properties": { "P29_001": "09209", "P29_002": "D109210000383", "P29_003": "16004", "P29_004": "栃木県立真岡女子高等学校", "P29_005": "栃木県真岡市台町2815", "P29_006": "2", "P29_007": "0", "P29_008": "00", "P29_009": null }, "geometry": { "type": "Point", "coordinates": [ 140.005269073185445, 36.4358693689924 ] } },
{ "type": "Feature", "properties": { "P29_001": "09209", "P29_002": "D109210000392", "P29_003": "16004", "P29_004": "栃木県立真岡北陵高等学校", "P29_005": "栃木県真岡市下籠谷396", "P29_006": "2", "P29_007": "0", "P29_008": "00", "P29_009": null }, "geometry": { "type": "Point", "coordinates": [ 139.986129562606607, 36.480564652106523 ] } },
{ "type": "Feature", "properties": { "P29_001": "09209", "P29_002": "D109210000409", "P29_003": "16004", "P29_004": "栃木県立真岡工業高等学校", "P29_005": "栃木県真岡市寺久保1-2-9", "P29_006": "2", "P29_007": "0", "P29_008": "00", "P29_009": null }, "geometry": { "type": "Point", "coordinates": [ 140.003286569557844, 36.44864813122895 ] } },
{ "type": "Feature", "properties": { "P29_001": "09343", "P29_002": "D109210000418", "P29_003": "16004", "P29_004": "栃木県立茂木高等学校", "P29_005": "栃木県芳賀郡茂木町茂木288", "P29_006": "2", "P29_007": "0", "P29_008": "00", "P29_009": null }, "geometry": { "type": "Point", "coordinates": [ 140.189897622288612, 36.531696895381415 ] } },
{ "type": "Feature", "properties": { "P29_001": "09342", "P29_002": "D109210000427", "P29_003": "16004", "P29_004": "栃木県立益子芳星高等学校", "P29_005": "栃木県芳賀郡益子町塙2382-1", "P29_006": "2", "P29_007": "0", "P29_008": "00", "P29_009": null }, "geometry": { "type": "Point", "coordinates": [ 140.085755499452006, 36.488606425653309 ] } },
{ "type": "Feature", "properties": { "P29_001": "09202", "P29_002": "D109210000436", "P29_003": "16004", "P29_004": "栃木県立足利清風高等学校", "P29_005": "栃木県足利市山下町2110", "P29_006": "2", "P29_007": "0", "P29_008": "00", "P29_009": null }, "geometry": { "type": "Point", "coordinates": [ 139.418913180317446, 36.355493338881665 ] } },
{ "type": "Feature", "properties": { "P29_001": "09215", "P29_002": "D109210000445", "P29_003": "16004", "P29_004": "栃木県立烏山高等学校", "P29_005": "栃木県那須烏山市中央3-9-8", "P29_006": "2", "P29_007": "0", "P29_008": "00", "P29_009": null }, "geometry": { "type": "Point", "coordinates": [ 140.15259702811025, 36.664347674209516 ] } },
{ "type": "Feature", "properties": { "P29_001": "09411", "P29_002": "D109210000454", "P29_003": "16004", "P29_004": "栃木県立馬頭高等学校", "P29_005": "栃木県那須郡那珂川町馬頭1299-2", "P29_006": "2", "P29_007": "0", "P29_008": "00", "P29_009": null }, "geometry": { "type": "Point", "coordinates": [ 140.175784080768437, 36.734488890545627 ] } },
{ "type": "Feature", "properties": { "P29_001": "09210", "P29_002": "D109210000463", "P29_003": "16004", "P29_004": "栃木県立大田原高等学校", "P29_005": "栃木県大田原市紫塚3-2651", "P29_006": "2", "P29_007": "0", "P29_008": "00", "P29_009": null }, "geometry": { "type": "Point", "coordinates": [ 140.017819785043116, 36.876538258689543 ] } },
{ "type": "Feature", "properties": { "P29_001": "09210", "P29_002": "D109210000472", "P29_003": "16004", "P29_004": "栃木県立大田原女子高等学校", "P29_005": "栃木県大田原市元町1-5-43", "P29_006": "2", "P29_007": "0", "P29_008": "00", "P29_009": null }, "geometry": { "type": "Point", "coordinates": [ 140.032805184663601, 36.862470339522595 ] } },
{ "type": "Feature", "properties": { "P29_001": "09210", "P29_002": "D109210000481", "P29_003": "16004", "P29_004": "栃木県立黒羽高等学校", "P29_005": "栃木県大田原市前田780", "P29_006": "2", "P29_007": "0", "P29_008": "00", "P29_009": null }, "geometry": { "type": "Point", "coordinates": [ 140.137439291342247, 36.867159780730354 ] } },
{ "type": "Feature", "properties": { "P29_001": "09213", "P29_002": "D109210000490", "P29_003": "16004", "P29_004": "栃木県立那須拓陽高等学校", "P29_005": "栃木県那須塩原市下永田4-3-52", "P29_006": "2", "P29_007": "0", "P29_008": "00", "P29_009": null }, "geometry": { "type": "Point", "coordinates": [ 139.987629241463253, 36.879768952728064 ] } },
{ "type": "Feature", "properties": { "P29_001": "09213", "P29_002": "D109210000506", "P29_003": "16004", "P29_004": "栃木県立那須清峰高等学校", "P29_005": "栃木県那須塩原市下永田6-4", "P29_006": "2", "P29_007": "0", "P29_008": "00", "P29_009": null }, "geometry": { "type": "Point", "coordinates": [ 139.998966596053435, 36.876016096744898 ] } },
{ "type": "Feature", "properties": { "P29_001": "09210", "P29_002": "D109210000515", "P29_003": "16004", "P29_004": "栃木県立大田原東高等学校", "P29_005": "栃木県大田原市元町1-5-43", "P29_006": "2", "P29_007": "0", "P29_008": "00", "P29_009": null }, "geometry": { "type": "Point", "coordinates": [ 140.033378145728562, 36.861973394403563 ] } },
{ "type": "Feature", "properties": { "P29_001": "09407", "P29_002": "D109210000524", "P29_003": "16004", "P29_004": "栃木県立那須高等学校", "P29_005": "栃木県那須郡那須町寺子乙3932-48", "P29_006": "2", "P29_007": "0", "P29_008": "00", "P29_009": null }, "geometry": { "type": "Point", "coordinates": [ 140.127567658142368, 37.012767402663179 ] } },
{ "type": "Feature", "properties": { "P29_001": "09213", "P29_002": "D109210000533", "P29_003": "16004", "P29_004": "栃木県立黒磯高等学校", "P29_005": "栃木県那須塩原市豊町6-1", "P29_006": "2", "P29_007": "0", "P29_008": "00", "P29_009": null }, "geometry": { "type": "Point", "coordinates": [ 140.050578079855484, 36.970006599304646 ] } },
{ "type": "Feature", "properties": { "P29_001": "09213", "P29_002": "D109210000542", "P29_003": "16004", "P29_004": "栃木県立黒磯南高等学校", "P29_005": "栃木県那須塩原市上厚崎747-2", "P29_006": "2", "P29_007": "0", "P29_008": "00", "P29_009": null }, "geometry": { "type": "Point", "coordinates": [ 140.024102209673515, 36.958759328592627 ] } },
{ "type": "Feature", "properties": { "P29_001": "09208", "P29_002": "D109210000551", "P29_003": "16004", "P29_004": "栃木県立小山南高等学校", "P29_005": "栃木県小山市間々田23-1", "P29_006": "2", "P29_007": "0", "P29_008": "00", "P29_009": null }, "geometry": { "type": "Point", "coordinates": [ 139.780340917190529, 36.258636164049953 ] } },
{ "type": "Feature", "properties": { "P29_001": "09204", "P29_002": "D109210000560", "P29_003": "16004", "P29_004": "栃木県立佐野東高等学校", "P29_005": "栃木県佐野市金屋下町12", "P29_006": "2", "P29_007": "0", "P29_008": "00", "P29_009": null }, "geometry": { "type": "Point", "coordinates": [ 139.582690864728306, 36.3108355136713 ] } },
{ "type": "Feature", "properties": { "P29_001": "09204", "P29_002": "D109210000579", "P29_003": "16004", "P29_004": "栃木県立佐野松桜高等学校", "P29_005": "栃木県佐野市出流原町643-5", "P29_006": "2", "P29_007": "0", "P29_008": "00", "P29_009": null }, "geometry": { "type": "Point", "coordinates": [ 139.549661975269515, 36.358023203795334 ] } },
{ "type": "Feature", "properties": { "P29_001": "09211", "P29_002": "D109210000588", "P29_003": "16004", "P29_004": "栃木県立矢板高等学校", "P29_005": "栃木県矢板市片俣618-2", "P29_006": "2", "P29_007": "0", "P29_008": "00", "P29_009": null }, "geometry": { "type": "Point", "coordinates": [ 139.894690016240332, 36.805724315389469 ] } },
{ "type": "Feature", "properties": { "P29_001": "09386", "P29_002": "D109210000597", "P29_003": "16004", "P29_004": "栃木県立高根沢高等学校", "P29_005": "栃木県塩谷郡高根沢町文挟32-2", "P29_006": "2", "P29_007": "0", "P29_008": "00", "P29_009": null }, "geometry": { "type": "Point", "coordinates": [ 140.029442772983657, 36.658540077756804 ] } },
{ "type": "Feature", "properties": { "P29_001": "09211", "P29_002": "D109210000604", "P29_003": "16004", "P29_004": "栃木県立矢板東高等学校", "P29_005": "栃木県矢板市東町4-8", "P29_006": "2", "P29_007": "0", "P29_008": "00", "P29_009": null }, "geometry": { "type": "Point", "coordinates": [ 139.938269940887551, 36.801823235362605 ] } },
{ "type": "Feature", "properties": { "P29_001": "09214", "P29_002": "D109210000613", "P29_003": "16004", "P29_004": "栃木県立さくら清修高等学校", "P29_005": "栃木県さくら市氏家2807", "P29_006": "2", "P29_007": "0", "P29_008": "00", "P29_009": null }, "geometry": { "type": "Point", "coordinates": [ 139.965492680325582, 36.689559647989036 ] } },
{ "type": "Feature", "properties": { "P29_001": "09201", "P29_002": "D109210000622", "P29_003": "16004", "P29_004": "栃木県立宇都宮中央高等学校", "P29_005": "栃木県宇都宮市若草町2-2-46", "P29_006": "2", "P29_007": "0", "P29_008": "00", "P29_009": null }, "geometry": { "type": "Point", "coordinates": [ 139.861152741423695, 36.580447786891519 ] } },
{ "type": "Feature", "properties": { "P29_001": "09201", "P29_002": "D109310000014", "P29_003": "16004", "P29_004": "作新学院高等学校", "P29_005": "栃木県宇都宮市一の沢1-1-41", "P29_006": "4", "P29_007": "0", "P29_008": "00", "P29_009": null }, "geometry": { "type": "Point", "coordinates": [ 139.859678579366971, 36.569543887220107 ] } },
{ "type": "Feature", "properties": { "P29_001": "09201", "P29_002": "D109310000023", "P29_003": "16004", "P29_004": "文星芸術大学附属高等学校", "P29_005": "栃木県宇都宮市睦町1-4", "P29_006": "4", "P29_007": "0", "P29_008": "00", "P29_009": null }, "geometry": { "type": "Point", "coordinates": [ 139.865706074327875, 36.561980509257886 ] } },
{ "type": "Feature", "properties": { "P29_001": "09201", "P29_002": "D109310000032", "P29_003": "16004", "P29_004": "宇都宮文星女子高等学校", "P29_005": "栃木県宇都宮市北一の沢24-35", "P29_006": "4", "P29_007": "0", "P29_008": "00", "P29_009": null }, "geometry": { "type": "Point", "coordinates": [ 139.861935733384144, 36.572755582171361 ] } },
{ "type": "Feature", "properties": { "P29_001": "09201", "P29_002": "D109310000041", "P29_003": "16004", "P29_004": "宇都宮短期大学附属高等学校", "P29_005": "栃木県宇都宮市睦町1-35", "P29_006": "4", "P29_007": "0", "P29_008": "00", "P29_009": null }, "geometry": { "type": "Point", "coordinates": [ 139.863747935711245, 36.560381554580609 ] } },
{ "type": "Feature", "properties": { "P29_001": "09202", "P29_002": "D109310000050", "P29_003": "16004", "P29_004": "足利短期大学附属高等学校", "P29_005": "栃木県足利市本城3-2120", "P29_006": "4", "P29_007": "0", "P29_008": "00", "P29_009": null }, "geometry": { "type": "Point", "coordinates": [ 139.447221177310411, 36.340639352701096 ] } },
{ "type": "Feature", "properties": { "P29_001": "09204", "P29_002": "D109310000069", "P29_003": "16004", "P29_004": "佐野清澄高等学校", "P29_005": "栃木県佐野市堀米町840", "P29_006": "4", "P29_007": "0", "P29_008": "00", "P29_009": null }, "geometry": { "type": "Point", "coordinates": [ 139.590478184960915, 36.326038316837696 ] } },
{ "type": "Feature", "properties": { "P29_001": "09204", "P29_002": "D109310000078", "P29_003": "16004", "P29_004": "青藍泰斗高等学校", "P29_005": "栃木県佐野市葛生東2-8-3", "P29_006": "4", "P29_007": "0", "P29_008": "00", "P29_009": null }, "geometry": { "type": "Point", "coordinates": [ 139.61151903429905, 36.404984677622728 ] } },
{ "type": "Feature", "properties": { "P29_001": "09202", "P29_002": "D109310000087", "P29_003": "16004", "P29_004": "白鴎大学足利高等学校", "P29_005": "栃木県足利市伊勢南町3-2", "P29_006": "4", "P29_007": "0", "P29_008": "00", "P29_009": null }, "geometry": { "type": "Point", "coordinates": [ 139.454667590310834, 36.33126991214332 ] } },
{ "type": "Feature", "properties": { "P29_001": "09201", "P29_002": "D109310000096", "P29_003": "16004", "P29_004": "宇都宮海星女子学院高等学校", "P29_005": "栃木県宇都宮市上籠谷町3776", "P29_006": "4", "P29_007": "0", "P29_008": "00", "P29_009": null }, "geometry": { "type": "Point", "coordinates": [ 139.975318720657839, 36.526316088655811 ] } },
{ "type": "Feature", "properties": { "P29_001": "09203", "P29_002": "D109310000103", "P29_003": "16004", "P29_004": "國學院大學栃木高等学校", "P29_005": "栃木県栃木市平井町608", "P29_006": "4", "P29_007": "0", "P29_008": "00", "P29_009": null }, "geometry": { "type": "Point", "coordinates": [ 139.703492002750011, 36.364459730542514 ] } },
{ "type": "Feature", "properties": { "P29_001": "09211", "P29_002": "D109310000112", "P29_003": "16004", "P29_004": "矢板中央高等学校", "P29_005": "栃木県矢板市扇町2-1519", "P29_006": "4", "P29_007": "0", "P29_008": "00", "P29_009": null }, "geometry": { "type": "Point", "coordinates": [ 139.928690450409704, 36.815830217541873 ] } },
{ "type": "Feature", "properties": { "P29_001": "09204", "P29_002": "D109310000121", "P29_003": "16004", "P29_004": "佐野日本大学高等学校", "P29_005": "栃木県佐野市石塚町2555", "P29_006": "4", "P29_007": "0", "P29_008": "00", "P29_009": null }, "geometry": { "type": "Point", "coordinates": [ 139.555341830961254, 36.35523498393875 ] } },
{ "type": "Feature", "properties": { "P29_001": "09202", "P29_002": "D109310000130", "P29_003": "16004", "P29_004": "足利大学附属高等学校", "P29_005": "栃木県足利市福富町2142", "P29_006": "4", "P29_007": "0", "P29_008": "00", "P29_009": null }, "geometry": { "type": "Point", "coordinates": [ 139.461937003506307, 36.31565584568434 ] } },
{ "type": "Feature", "properties": { "P29_001": "09210", "P29_002": "D109310000149", "P29_003": "16004", "P29_004": "幸福の科学学園高等学校", "P29_005": "栃木県那須郡那須町梁瀬487-1", "P29_006": "4", "P29_007": "0", "P29_008": "00", "P29_009": null }, "geometry": { "type": "Point", "coordinates": [ 140.154862176274179, 36.932476658242862 ] } },
{ "type": "Feature", "properties": { "P29_001": "09384", "P29_002": "D109310000158", "P29_003": "16004", "P29_004": "日々輝学園高等学校", "P29_005": "栃木県塩谷郡塩谷町2475-1", "P29_006": "4", "P29_007": "0", "P29_008": "00", "P29_009": null }, "geometry": { "type": "Point", "coordinates": [ 139.867191708285702, 36.741215658284553 ] } },
{ "type": "Feature", "properties": { "P29_001": "09201", "P29_002": "D109310000167", "P29_003": "16004", "P29_004": "星の杜高等学校", "P29_005": "栃木県宇都宮市上籠谷町3776", "P29_006": "4", "P29_007": "0", "P29_008": "00", "P29_009": null }, "geometry": { "type": "Point", "coordinates": [ 139.975660581997943, 36.526053526524905 ] } }
]
}
