{
"type": "FeatureCollection",
"name": "geo_09_大学",
"crs": { "type": "name", "properties": { "name": "urn:ogc:def:crs:EPSG::6668" } },
"features": [
{ "type": "Feature", "properties": { "P29_001": "09201", "P29_002": "F109110101556", "P29_003": "16007", "P29_004": "宇都宮大学", "P29_005": "栃木県宇都宮市峰町350", "P29_006": "1", "P29_007": "0", "P29_008": "01", "P29_009": "峰キャンパス" }, "geometry": { "type": "Point", "coordinates": [ 139.913100175741363, 36.548013503080448 ] } },
{ "type": "Feature", "properties": { "P29_001": "09202", "P29_002": "F109310101561", "P29_003": "16007", "P29_004": "足利大学", "P29_005": "栃木県足利市大前町268-1", "P29_006": "4", "P29_007": "0", "P29_008": "00", "P29_009": null }, "geometry": { "type": "Point", "coordinates": [ 139.396710646159903, 36.353139677059112 ] } },
{ "type": "Feature", "properties": { "P29_001": "09208", "P29_002": "F109310101570", "P29_003": "16007", "P29_004": "白鴎大学", "P29_005": "栃木県小山市駅東通り2-3-5", "P29_006": "4", "P29_007": "0", "P29_008": "01", "P29_009": "本キャンパス" }, "geometry": { "type": "Point", "coordinates": [ 139.807414385696262, 36.312010603267979 ] } },
{ "type": "Feature", "properties": { "P29_001": "09201", "P29_002": "F109310101589", "P29_003": "16007", "P29_004": "作新学院大学", "P29_005": "栃木県宇都宮市竹下町908", "P29_006": "4", "P29_007": "0", "P29_008": "00", "P29_009": null }, "geometry": { "type": "Point", "coordinates": [ 139.977392273257863, 36.543387118234179 ] } },
{ "type": "Feature", "properties": { "P29_001": "09210", "P29_002": "F109310101598", "P29_003": "16007", "P29_004": "国際医療福祉大学", "P29_005": "栃木県大田原市北金丸字上ノ原2600-1", "P29_006": "4", "P29_007": "0", "P29_008": "01", "P29_009": "大田原キャンパス" }, "geometry": { "type": "Point", "coordinates": [ 140.069693001209828, 36.870519004287019 ] } },
{ "type": "Feature", "properties": { "P29_001": "09201", "P29_002": "F109310101605", "P29_003": "16007", "P29_004": "宇都宮共和大学", "P29_005": "栃木県宇都宮市大通り1-3-18", "P29_006": "4", "P29_007": "0", "P29_008": "00", "P29_009": null }, "geometry": { "type": "Point", "coordinates": [ 139.890957320872872, 36.560689013831315 ] } },
{ "type": "Feature", "properties": { "P29_001": "09201", "P29_002": "F109310101614", "P29_003": "16007", "P29_004": "文星芸術大学", "P29_005": "栃木県宇都宮市上戸祭4-8-15", "P29_006": "4", "P29_007": "0", "P29_008": "00", "P29_009": null }, "geometry": { "type": "Point", "coordinates": [ 139.858916070109444, 36.598992670767615 ] } },
{ "type": "Feature", "properties": { "P29_001": "09216", "P29_002": "F109310101623", "P29_003": "16007", "P29_004": "自治医科大学", "P29_005": "栃木県下野市薬師寺3311-1", "P29_006": "4", "P29_007": "0", "P29_008": "00", "P29_009": null }, "geometry": { "type": "Point", "coordinates": [ 139.860105976274269, 36.400188633465461 ] } },
{ "type": "Feature", "properties": { "P29_001": "09361", "P29_002": "F109310101632", "P29_003": "16007", "P29_004": "獨協医科大学", "P29_005": "栃木県下都賀郡壬生町大字北小林880", "P29_006": "4", "P29_007": "0", "P29_008": "00", "P29_009": null }, "geometry": { "type": "Point", "coordinates": [ 139.822968180256652, 36.47231125371659 ] } },
{ "type": "Feature", "properties": { "P29_001": "09201", "P29_002": "F109110101556", "P29_003": "16007", "P29_004": "宇都宮大学", "P29_005": "栃木県宇都宮市陽東7-1-2", "P29_006": "1", "P29_007": "0", "P29_008": "02", "P29_009": "陽東キャンパス" }, "geometry": { "type": "Point", "coordinates": [ 139.929105507046586, 36.549865146183002 ] } },
{ "type": "Feature", "properties": { "P29_001": "09208", "P29_002": "F109310101570", "P29_003": "16007", "P29_004": "白鴎大学", "P29_005": "栃木県小山市大行寺1117", "P29_006": "4", "P29_007": "0", "P29_008": "02", "P29_009": "大行寺キャンパス" }, "geometry": { "type": "Point", "coordinates": [ 139.793539258238042, 36.315629522480769 ] } },
{ "type": "Feature", "properties": { "P29_001": "09201", "P29_002": "F113310103769", "P29_003": "16007", "P29_004": "帝京大学", "P29_005": "栃木県宇都宮市豊郷台1-1", "P29_006": "4", "P29_007": "0", "P29_008": "02", "P29_009": "宇都宮キャンパス" }, "geometry": { "type": "Point", "coordinates": [ 139.881992701635369, 36.603616947670162 ] } }
]
}
