{
"type": "FeatureCollection",
"name": "geo_09_介護老人福祉施設",
"crs": { "type": "name", "properties": { "name": "urn:ogc:def:crs:OGC:1.3:CRS84" } },
"features": [
{ "type": "Feature", "properties": { "内容": "特別養護老人ホーム　カルペ而今【介護老人福祉施設】栃木県宇都宮市砥上町54-2", "url": "https://www.kaigokensaku.mhlw.go.jp/09/index.php?action_kouhyou_detail_004_kani=true&JigyosyoCd=0970108197-00&ServiceCd=510&Type=search", "url2": "https://www.hoaikai.or.jp/home/calpe" }, "geometry": { "type": "Point", "coordinates": [ 139.8453096, 36.5441804 ] } },
{ "type": "Feature", "properties": { "内容": "特別養護老人ホーム　マイホームきよはら【介護老人福祉施設】栃木県宇都宮市鐺山町1983番地", "url": "https://www.kaigokensaku.mhlw.go.jp/09/index.php?action_kouhyou_detail_004_kani=true&JigyosyoCd=0970100731-00&ServiceCd=510&Type=search", "url2": "http://www.kiyohara.jp/" }, "geometry": { "type": "Point", "coordinates": [ 139.975888199999986, 36.5387811 ] } },
{ "type": "Feature", "properties": { "内容": "特別養護老人ホームおおるりの森【介護老人福祉施設】栃木県宇都宮市竹下町435番地344", "url": "https://www.kaigokensaku.mhlw.go.jp/09/index.php?action_kouhyou_detail_004_kani=true&JigyosyoCd=0970105771-00&ServiceCd=510&Type=search", "url2": "http://www.koukyukai.or.jp" }, "geometry": { "type": "Point", "coordinates": [ 139.965019100000063, 36.551138 ] } },
{ "type": "Feature", "properties": { "内容": "特別養護老人ホーム　ホームタウンほそや【介護老人福祉施設】栃木県宇都宮市細谷町４９５－１", "url": "https://www.kaigokensaku.mhlw.go.jp/09/index.php?action_kouhyou_detail_004_kani=true&JigyosyoCd=0970103081-00&ServiceCd=510&Type=search", "url2": "http://seikeikai.jp/h_hosoya/" }, "geometry": { "type": "Point", "coordinates": [ 139.856399199999942, 36.5936236 ] } },
{ "type": "Feature", "properties": { "内容": "特別養護老人ホーム　宮の里かわだ【介護老人福祉施設】栃木県宇都宮市川田町1077-2", "url": "https://www.kaigokensaku.mhlw.go.jp/09/index.php?action_kouhyou_detail_004_kani=true&JigyosyoCd=0970105391-00&ServiceCd=510&Type=search", "url2": "http://www.miyanosato.net" }, "geometry": { "type": "Point", "coordinates": [ 139.8872407, 36.5382173 ] } },
{ "type": "Feature", "properties": { "内容": "特別養護老人ホーム　宮の里【介護老人福祉施設】栃木県宇都宮市田野町666-2", "url": "https://www.kaigokensaku.mhlw.go.jp/09/index.php?action_kouhyou_detail_004_kani=true&JigyosyoCd=0970100764-00&ServiceCd=510&Type=search", "url2": "http://www.miyanosato.or.jp" }, "geometry": { "type": "Point", "coordinates": [ 139.807019299999979, 36.5953813 ] } },
{ "type": "Feature", "properties": { "内容": "介護老人福祉施設　いずみ苑【介護老人福祉施設】栃木県宇都宮市今泉三丁目１３番１号", "url": "https://www.kaigokensaku.mhlw.go.jp/09/index.php?action_kouhyou_detail_004_kani=true&JigyosyoCd=0970103321-00&ServiceCd=510&Type=search", "url2": "kenshukai.kir.jp/izumien/index.tml" }, "geometry": { "type": "Point", "coordinates": [ 139.894414, 36.5667115 ] } },
{ "type": "Feature", "properties": { "内容": "特別養護老人ホーム　元氣の家【介護老人福祉施設】栃木県宇都宮市幕田町1458－1", "url": "https://www.kaigokensaku.mhlw.go.jp/09/index.php?action_kouhyou_detail_004_kani=true&JigyosyoCd=0970105342-00&ServiceCd=510&Type=search", "url2": "http://www.nantokai.jp/" }, "geometry": { "type": "Point", "coordinates": [ 139.8513924, 36.4961852 ] } },
{ "type": "Feature", "properties": { "内容": "特別養護老人ホーム　滝の原苑【介護老人福祉施設】栃木県宇都宮市鶴田町３３８１番地", "url": "https://www.kaigokensaku.mhlw.go.jp/09/index.php?action_kouhyou_detail_004_kani=true&JigyosyoCd=0970100400-00&ServiceCd=510&Type=search", "url2": "http://care-net.biz/09/saijinkai/" }, "geometry": { "type": "Point", "coordinates": [ 139.8617676, 36.5445935 ] } },
{ "type": "Feature", "properties": { "内容": "特別養護老人ホームとちの木荘【介護老人福祉施設】栃木県宇都宮市徳次郎町2479-1", "url": "https://www.kaigokensaku.mhlw.go.jp/09/index.php?action_kouhyou_detail_004_kani=true&JigyosyoCd=0970100699-00&ServiceCd=510&Type=search", "url2": "http://tochisaikou.com/" }, "geometry": { "type": "Point", "coordinates": [ 139.840545, 36.658257900000017 ] } },
{ "type": "Feature", "properties": { "内容": "特別養護老人ホーム高砂荘【介護老人福祉施設】栃木県宇都宮市平出町1510-1", "url": "https://www.kaigokensaku.mhlw.go.jp/09/index.php?action_kouhyou_detail_004_kani=true&JigyosyoCd=0970100707-00&ServiceCd=510&Type=search", "url2": "http://iida-f.jp/" }, "geometry": { "type": "Point", "coordinates": [ 139.945086, 36.5783208 ] } },
{ "type": "Feature", "properties": { "内容": "特別養護老人ホーム瑞寿苑【介護老人福祉施設】栃木県宇都宮市上桑島町1476番地2", "url": "https://www.kaigokensaku.mhlw.go.jp/09/index.php?action_kouhyou_detail_004_kani=true&JigyosyoCd=0970100715-00&ServiceCd=510&Type=search", "url2": "http://www.tohseikai.com/" }, "geometry": { "type": "Point", "coordinates": [ 139.928215370638981, 36.518966088092817 ] } },
{ "type": "Feature", "properties": { "内容": "特別養護老人ホーム敬祥苑【介護老人福祉施設】栃木県宇都宮市宝木本町２１４１番地", "url": "https://www.kaigokensaku.mhlw.go.jp/09/index.php?action_kouhyou_detail_004_kani=true&JigyosyoCd=0970100723-00&ServiceCd=510&Type=search", "url2": "http://numaog.or.jp/" }, "geometry": { "type": "Point", "coordinates": [ 139.843198600000051, 36.6296692 ] } },
{ "type": "Feature", "properties": { "内容": "特別養護老人ホーム宝寿苑【介護老人福祉施設】宇都宮市宝木本町１７６８番地", "url": "https://www.kaigokensaku.mhlw.go.jp/09/index.php?action_kouhyou_detail_004_kani=true&JigyosyoCd=0970100749-00&ServiceCd=510&Type=search", "url2": "http://www.seikeikai.jp" }, "geometry": { "type": "Point", "coordinates": [ 139.835202699999968, 36.6082274 ] } },
{ "type": "Feature", "properties": { "内容": "特別養護老人ホーム　はりがや【介護老人福祉施設】栃木県宇都宮市針ヶ谷町６５５番地", "url": "https://www.kaigokensaku.mhlw.go.jp/09/index.php?action_kouhyou_detail_004_kani=true&JigyosyoCd=0970100772-00&ServiceCd=510&Type=search", "url2": "http://www.fukushi-asahikai.or.jp" }, "geometry": { "type": "Point", "coordinates": [ 139.851586323278781, 36.489662116111269 ] } },
{ "type": "Feature", "properties": { "内容": "特別養護老人ホーム　ケアプラザ而今【介護老人福祉施設】栃木県宇都宮市砥上町５４－１", "url": "https://www.kaigokensaku.mhlw.go.jp/09/index.php?action_kouhyou_detail_004_kani=true&JigyosyoCd=0970100780-00&ServiceCd=510&Type=search", "url2": "http://www.hoaikai.or.jp" }, "geometry": { "type": "Point", "coordinates": [ 139.845296599999983, 36.544146 ] } },
{ "type": "Feature", "properties": { "内容": "特別養護老人ホーム　梅の里【介護老人福祉施設】栃木県宇都宮市南一の沢町2番23号", "url": "https://www.kaigokensaku.mhlw.go.jp/09/index.php?action_kouhyou_detail_004_kani=true&JigyosyoCd=0970101150-00&ServiceCd=510&Type=search", "url2": "http://www.umenosato.jp/" }, "geometry": { "type": "Point", "coordinates": [ 139.863605399999983, 36.5634802 ] } },
{ "type": "Feature", "properties": { "内容": "特別養護老人ホームとよさと【介護老人福祉施設】栃木県宇都宮市川俣町897-8", "url": "https://www.kaigokensaku.mhlw.go.jp/09/index.php?action_kouhyou_detail_004_kani=true&JigyosyoCd=0970102265-00&ServiceCd=510&Type=search", "url2": "https://www.toyosato-g.or.jp/" }, "geometry": { "type": "Point", "coordinates": [ 139.90392769999994, 36.5988254 ] } },
{ "type": "Feature", "properties": { "内容": "特別養護老人ホーム元気の里【介護老人福祉施設】栃木県宇都宮市幕田町1456-1", "url": "https://www.kaigokensaku.mhlw.go.jp/09/index.php?action_kouhyou_detail_004_kani=true&JigyosyoCd=0970102703-00&ServiceCd=510&Type=search", "url2": "http://www.nantokai.jp/" }, "geometry": { "type": "Point", "coordinates": [ 139.851895099999979, 36.4965601 ] } },
{ "type": "Feature", "properties": { "内容": "特別養護老人ホーム　ひょうたん村【介護老人福祉施設】栃木県宇都宮市屋板町１２６番地１１", "url": "https://www.kaigokensaku.mhlw.go.jp/09/index.php?action_kouhyou_detail_004_kani=true&JigyosyoCd=0970103552-00&ServiceCd=510&Type=search", "url2": "https://www.hyoutanmura.jp" }, "geometry": { "type": "Point", "coordinates": [ 139.903629099999989, 36.5161448 ] } },
{ "type": "Feature", "properties": { "内容": "特別養護老人ホームみどり【介護老人福祉施設】栃木県宇都宮市緑5丁目１３番地６号", "url": "https://www.kaigokensaku.mhlw.go.jp/09/index.php?action_kouhyou_detail_004_kani=true&JigyosyoCd=0970104378-00&ServiceCd=510&Type=search", "url2": "http://www.fureai-coop.com/" }, "geometry": { "type": "Point", "coordinates": [ 139.859520625270079, 36.513916693955757 ] } },
{ "type": "Feature", "properties": { "内容": "特別養護老人ホーム　ころぼっくる【介護老人福祉施設】栃木県宇都宮市岩曽町１３１０番地１", "url": "https://www.kaigokensaku.mhlw.go.jp/09/index.php?action_kouhyou_detail_004_kani=true&JigyosyoCd=0970105813-00&ServiceCd=510&Type=search", "url2": "http://www.kouseikai-flora.or.jp/" }, "geometry": { "type": "Point", "coordinates": [ 139.910000099999934, 36.5832162 ] } },
{ "type": "Feature", "properties": { "内容": "特別養護老人ホーム高砂荘新館【介護老人福祉施設】平出町1510-1", "url": "https://www.kaigokensaku.mhlw.go.jp/09/index.php?action_kouhyou_detail_004_kani=true&JigyosyoCd=0970106530-00&ServiceCd=510&Type=search", "url2": "http://www.iida-f.jp/" }, "geometry": { "type": "Point", "coordinates": [ 139.945086, 36.5783208 ] } },
{ "type": "Feature", "properties": { "内容": "特別養護老人ホームはりがや花の風【介護老人福祉施設】栃木県宇都宮市針ヶ谷町646番地", "url": "https://www.kaigokensaku.mhlw.go.jp/09/index.php?action_kouhyou_detail_004_kani=true&JigyosyoCd=0970106605-00&ServiceCd=510&Type=search", "url2": "ｈｔｔｐ：//ｗｗｗ．ｈｕｋｕｓｈｉ－ａｓａｈｉｋａｉ．ｏｒ．ｊｐ" }, "geometry": { "type": "Point", "coordinates": [ 139.850178799999981, 36.4903747 ] } },
{ "type": "Feature", "properties": { "内容": "特別養護老人ホーム　はりがや夢希の杜【介護老人福祉施設】栃木県宇都宮市針ヶ谷町654番地", "url": "https://www.kaigokensaku.mhlw.go.jp/09/index.php?action_kouhyou_detail_004_kani=true&JigyosyoCd=0970107462-00&ServiceCd=510&Type=search", "url2": "http://www.fukushi-asahi.or.jp" }, "geometry": { "type": "Point", "coordinates": [ 139.851675900000032, 36.4900665 ] } },
{ "type": "Feature", "properties": { "内容": "特別養護老人ホームびーね【介護老人福祉施設】栃木県宇都宮市東簗瀬1丁目29‐1", "url": "https://www.kaigokensaku.mhlw.go.jp/09/index.php?action_kouhyou_detail_004_kani=true&JigyosyoCd=0970107744-00&ServiceCd=510&Type=search", "url2": "http://www.biene-flora.or.jp" }, "geometry": { "type": "Point", "coordinates": [ 139.89989879999996, 36.5431108 ] } },
{ "type": "Feature", "properties": { "内容": "特別養護老人ホームつるの川【介護老人福祉施設】栃木県宇都宮市下砥上町１４８８番地１", "url": "https://www.kaigokensaku.mhlw.go.jp/09/index.php?action_kouhyou_detail_004_kani=true&JigyosyoCd=0970108809-00&ServiceCd=510&Type=search", "url2": "http://tsurunokawa.jp/" }, "geometry": { "type": "Point", "coordinates": [ 139.848122499999988, 36.5366907 ] } },
{ "type": "Feature", "properties": { "内容": "特別養護老人ホームうつのみや【介護老人福祉施設】栃木県宇都宮市江曽島町1188番地", "url": "https://www.kaigokensaku.mhlw.go.jp/09/index.php?action_kouhyou_detail_004_kani=true&JigyosyoCd=0970108908-00&ServiceCd=510&Type=search", "url2": "http://taikei.jp/" }, "geometry": { "type": "Point", "coordinates": [ 139.874119636245752, 36.528567585069545 ] } },
{ "type": "Feature", "properties": { "内容": "特別養護老人ホーム　ケアパレス宇都宮壱番館【介護老人福祉施設】栃木県宇都宮市岩曽町77番地１", "url": "https://www.kaigokensaku.mhlw.go.jp/09/index.php?action_kouhyou_detail_004_kani=true&JigyosyoCd=0970108940-00&ServiceCd=510&Type=search", "url2": "http://nikko-fukueikai.or.jp/" }, "geometry": { "type": "Point", "coordinates": [ 139.89451977845232, 36.586766595163866 ] } },
{ "type": "Feature", "properties": { "内容": "特別養護老人ホーム　ケアパレス宇都宮弐番館【介護老人福祉施設】栃木県宇都宮市岩曽町131番地1", "url": "https://www.kaigokensaku.mhlw.go.jp/09/index.php?action_kouhyou_detail_004_kani=true&JigyosyoCd=0970109047-00&ServiceCd=510&Type=search", "url2": "http://nikko-fukueikai.or.jp/" }, "geometry": { "type": "Point", "coordinates": [ 139.903378800000013, 36.584306 ] } },
{ "type": "Feature", "properties": { "内容": "特別養護老人ホーム　祥豊苑【介護老人福祉施設】栃木県宇都宮市宮山田町９１５番地", "url": "https://www.kaigokensaku.mhlw.go.jp/09/index.php?action_kouhyou_detail_004_kani=true&JigyosyoCd=0972100069-00&ServiceCd=510&Type=search", "url2": "http://shouhouen.jp" }, "geometry": { "type": "Point", "coordinates": [ 139.84785050000005, 36.7124204 ] } },
{ "type": "Feature", "properties": { "内容": "特別養護老人ホームさくらの杜【介護老人福祉施設】栃木県宇都宮市逆面町２６１－１", "url": "https://www.kaigokensaku.mhlw.go.jp/09/index.php?action_kouhyou_detail_004_kani=true&JigyosyoCd=0972100093-00&ServiceCd=510&Type=search", "url2": "https://sakura-mori.jp/" }, "geometry": { "type": "Point", "coordinates": [ 139.899196409262089, 36.658170236156671 ] } },
{ "type": "Feature", "properties": { "内容": "特別養護老人ホーム　豊幸の郷石井【介護老人福祉施設】栃木県宇都宮市石井町2580-1", "url": "https://www.kaigokensaku.mhlw.go.jp/09/index.php?action_kouhyou_detail_004_kani=true&JigyosyoCd=0970100756-00&ServiceCd=510&Type=search", "url2": "http://www.houkounosatoishii.com/" }, "geometry": { "type": "Point", "coordinates": [ 139.939146700000038, 36.5443184 ] } },
{ "type": "Feature", "properties": { "内容": "特別養護老人ホーム　いこいの森西原【介護老人福祉施設】栃木県宇都宮市西原町１３番地１", "url": "https://www.kaigokensaku.mhlw.go.jp/09/index.php?action_kouhyou_detail_004_kani=true&JigyosyoCd=0970104154-00&ServiceCd=510&Type=search", "url2": "http://masatomi-f.com/" }, "geometry": { "type": "Point", "coordinates": [ 139.883402199999978, 36.5367646 ] } },
{ "type": "Feature", "properties": { "内容": "特別養護老人ホーム　はりがや実梨の丘【介護老人福祉施設】栃木県宇都宮市針ヶ谷町655", "url": "https://www.kaigokensaku.mhlw.go.jp/09/index.php?action_kouhyou_detail_004_kani=true&JigyosyoCd=0970105417-00&ServiceCd=510&Type=search", "url2": "http://www.fukushi-asahikai.or.jp" }, "geometry": { "type": "Point", "coordinates": [ 139.85148719999998, 36.489775500000015 ] } },
{ "type": "Feature", "properties": { "内容": "特別養護老人ホーム　清明苑【介護老人福祉施設】栃木県足利市大月町１０４２－２", "url": "https://www.kaigokensaku.mhlw.go.jp/09/index.php?action_kouhyou_detail_004_kani=true&JigyosyoCd=0970200077-00&ServiceCd=510&Type=search", "url2": "http://seimeien.or.jp/" }, "geometry": { "type": "Point", "coordinates": [ 139.475557400000071, 36.349804 ] } },
{ "type": "Feature", "properties": { "内容": "特別養護老人ホームプロムナードひこや【介護老人福祉施設】栃木県足利市葉鹿町２０１９－１", "url": "https://www.kaigokensaku.mhlw.go.jp/09/index.php?action_kouhyou_detail_004_kani=true&JigyosyoCd=0970200168-00&ServiceCd=510&Type=search", "url2": null }, "geometry": { "type": "Point", "coordinates": [ 139.385179699999981, 36.3742186 ] } },
{ "type": "Feature", "properties": { "内容": "特別養護老人ホーム　麗日荘【介護老人福祉施設】栃木県足利市田中町100", "url": "https://www.kaigokensaku.mhlw.go.jp/09/index.php?action_kouhyou_detail_004_kani=true&JigyosyoCd=0970200184-00&ServiceCd=510&Type=search", "url2": "https://reijitsusou.com/" }, "geometry": { "type": "Point", "coordinates": [ 139.4511708, 36.3243695 ] } },
{ "type": "Feature", "properties": { "内容": "特別養護老人ホーム　義明苑【介護老人福祉施設】栃木県足利市久保田町１２２３番地", "url": "https://www.kaigokensaku.mhlw.go.jp/09/index.php?action_kouhyou_detail_004_kani=true&JigyosyoCd=0970200218-00&ServiceCd=510&Type=search", "url2": "https://www.mimeikai.com/" }, "geometry": { "type": "Point", "coordinates": [ 139.494951, 36.2956188 ] } },
{ "type": "Feature", "properties": { "内容": "特別養護老人ホームたんぽぽ【介護老人福祉施設】栃木県足利市通5丁目3435番地3", "url": "https://www.kaigokensaku.mhlw.go.jp/09/index.php?action_kouhyou_detail_004_kani=true&JigyosyoCd=0970200697-00&ServiceCd=510&Type=search", "url2": "http://www.tanpopo-net.or.jp" }, "geometry": { "type": "Point", "coordinates": [ 139.442088199999944, 36.3360125 ] } },
{ "type": "Feature", "properties": { "内容": "特別養護老人ホームこはく苑【介護老人福祉施設】栃木県足利市堀込町２００６番地1", "url": "https://www.kaigokensaku.mhlw.go.jp/09/index.php?action_kouhyou_detail_004_kani=true&JigyosyoCd=0970201554-00&ServiceCd=510&Type=search", "url2": "http://www.5890.jp" }, "geometry": { "type": "Point", "coordinates": [ 139.437225300000023, 36.3078265 ] } },
{ "type": "Feature", "properties": { "内容": "特別養護老人ホーム　青空【介護老人福祉施設】栃木県足利市島田町８０１", "url": "https://www.kaigokensaku.mhlw.go.jp/09/index.php?action_kouhyou_detail_004_kani=true&JigyosyoCd=0970201703-00&ServiceCd=510&Type=search", "url2": "http://www.mutumikai.ecnet.jp" }, "geometry": { "type": "Point", "coordinates": [ 139.449740900000052, 36.304313 ] } },
{ "type": "Feature", "properties": { "内容": "特別養護老人ホームまごころ【介護老人福祉施設】栃木県足利市本城１丁目１４８０番地６", "url": "https://www.kaigokensaku.mhlw.go.jp/09/index.php?action_kouhyou_detail_004_kani=true&JigyosyoCd=0970201752-00&ServiceCd=510&Type=search", "url2": "https://magokoro-kaigo.com/" }, "geometry": { "type": "Point", "coordinates": [ 139.4560533, 36.3476147 ] } },
{ "type": "Feature", "properties": { "内容": "特別養護老人ホーム　義明苑いなほ【介護老人福祉施設】栃木県足利市久保田町1214-1", "url": "https://www.kaigokensaku.mhlw.go.jp/09/index.php?action_kouhyou_detail_004_kani=true&JigyosyoCd=0970203550-00&ServiceCd=510&Type=search", "url2": "https://www.mimeikai.com/" }, "geometry": { "type": "Point", "coordinates": [ 139.49466893241339, 36.295007023286985 ] } },
{ "type": "Feature", "properties": { "内容": "特別養護老人ホーム和見山苑【介護老人福祉施設】栃木県足利市稲岡町１０８３－１", "url": "https://www.kaigokensaku.mhlw.go.jp/09/index.php?action_kouhyou_detail_004_kani=true&JigyosyoCd=0970200200-00&ServiceCd=510&Type=search", "url2": "https://seimeien.or.jp/wamiyamaen/index.html" }, "geometry": { "type": "Point", "coordinates": [ 139.532643600000029, 36.3342877 ] } },
{ "type": "Feature", "properties": { "内容": "特別養護老人ホーム　湯の里長寿苑【介護老人福祉施設】栃木県足利市大沼田町2163番地1", "url": "https://www.kaigokensaku.mhlw.go.jp/09/index.php?action_kouhyou_detail_004_kani=true&JigyosyoCd=0970200838-00&ServiceCd=510&Type=search", "url2": "https://yunosato2003.com/" }, "geometry": { "type": "Point", "coordinates": [ 139.492667500000039, 36.3352003 ] } },
{ "type": "Feature", "properties": { "内容": "特別養護老人ホーム盛雄苑【介護老人福祉施設】栃木県足利市山下町2753番地の1", "url": "https://www.kaigokensaku.mhlw.go.jp/09/index.php?action_kouhyou_detail_004_kani=true&JigyosyoCd=0970200192-00&ServiceCd=510&Type=search", "url2": "http://www.koubaikai.jp/" }, "geometry": { "type": "Point", "coordinates": [ 139.409877899999969, 36.3596873 ] } },
{ "type": "Feature", "properties": { "内容": "特別養護老人ホーム　レユーナ【介護老人福祉施設】栃木県栃木市箱森町１－１４", "url": "https://www.kaigokensaku.mhlw.go.jp/09/index.php?action_kouhyou_detail_004_kani=true&JigyosyoCd=0970300042-00&ServiceCd=510&Type=search", "url2": "http://www.reyuna.com" }, "geometry": { "type": "Point", "coordinates": [ 139.727494523942624, 36.384988839334177 ] } },
{ "type": "Feature", "properties": { "内容": "特別養護老人ホームうづま荘【介護老人福祉施設】栃木県栃木市川原田町1612", "url": "https://www.kaigokensaku.mhlw.go.jp/09/index.php?action_kouhyou_detail_004_kani=true&JigyosyoCd=0970300174-00&ServiceCd=510&Type=search", "url2": "http://www.cc9.ne.jp/~koseikai/" }, "geometry": { "type": "Point", "coordinates": [ 139.738370900000064, 36.4069054 ] } },
{ "type": "Feature", "properties": { "内容": "特別養護老人ホーム　まろにえ四季の里【介護老人福祉施設】栃木県栃木市大宮町2023-3", "url": "https://www.kaigokensaku.mhlw.go.jp/09/index.php?action_kouhyou_detail_004_kani=true&JigyosyoCd=0970300612-00&ServiceCd=510&Type=search", "url2": "http://souwakai.or.jp" }, "geometry": { "type": "Point", "coordinates": [ 139.756347900000037, 36.3926993 ] } },
{ "type": "Feature", "properties": { "内容": "特別養護老人ホーム　咲くら館【介護老人福祉施設】栃木県栃木市大平町下皆川916番地", "url": "https://www.kaigokensaku.mhlw.go.jp/09/index.php?action_kouhyou_detail_004_kani=true&JigyosyoCd=0970301735-00&ServiceCd=510&Type=search", "url2": "sakurakan@sakura-kids.jp" }, "geometry": { "type": "Point", "coordinates": [ 139.715074718554661, 36.358777531546437 ] } },
{ "type": "Feature", "properties": { "内容": "特別養護老人ホームかたやなぎ【介護老人福祉施設】栃木県栃木市片柳町4-14-43-18", "url": "https://www.kaigokensaku.mhlw.go.jp/09/index.php?action_kouhyou_detail_004_kani=true&JigyosyoCd=0970302089-00&ServiceCd=510&Type=search", "url2": "http://www.fureai-coop.com/" }, "geometry": { "type": "Point", "coordinates": [ 139.714313194581564, 36.368992095101625 ] } },
{ "type": "Feature", "properties": { "内容": "特別養護老人ホーム雅の風【介護老人福祉施設】栃木県栃木市西方町金崎４０３－１", "url": "https://www.kaigokensaku.mhlw.go.jp/09/index.php?action_kouhyou_detail_004_kani=true&JigyosyoCd=0972200125-00&ServiceCd=510&Type=search", "url2": "http://miyabinokaze.com" }, "geometry": { "type": "Point", "coordinates": [ 139.74518230000001, 36.4691706 ] } },
{ "type": "Feature", "properties": { "内容": "特別養護老人ホーム清松園【介護老人福祉施設】栃木県栃木市岩舟町和泉８１６", "url": "https://www.kaigokensaku.mhlw.go.jp/09/index.php?action_kouhyou_detail_004_kani=true&JigyosyoCd=0972300172-00&ServiceCd=510&Type=search", "url2": "http://seisho.s-y.gr.com/" }, "geometry": { "type": "Point", "coordinates": [ 139.671775900000057, 36.323917300000019 ] } },
{ "type": "Feature", "properties": { "内容": "特別養護老人ホーム　幸寿苑【介護老人福祉施設】栃木県栃木市大平町上高島774", "url": "https://www.kaigokensaku.mhlw.go.jp/09/index.php?action_kouhyou_detail_004_kani=true&JigyosyoCd=0972300339-00&ServiceCd=510&Type=search", "url2": "http://www.tochigi-toufuukai.com" }, "geometry": { "type": "Point", "coordinates": [ 139.732416100000023, 36.347429 ] } },
{ "type": "Feature", "properties": { "内容": "社会福祉法人スイートホームひまわり【介護老人福祉施設】栃木県栃木市都賀町原宿１４２４－１", "url": "https://www.kaigokensaku.mhlw.go.jp/09/index.php?action_kouhyou_detail_004_kani=true&JigyosyoCd=0972300628-00&ServiceCd=510&Type=search", "url2": "http://www.tochigi-himawari.jp" }, "geometry": { "type": "Point", "coordinates": [ 139.729190300000027, 36.4381208 ] } },
{ "type": "Feature", "properties": { "内容": "特別養護老人ホーム　かがやき【介護老人福祉施設】栃木県栃木市岩舟町静戸９７０番地１", "url": "https://www.kaigokensaku.mhlw.go.jp/09/index.php?action_kouhyou_detail_004_kani=true&JigyosyoCd=0972300974-00&ServiceCd=510&Type=search", "url2": "kagayaki.s-y.gr.com" }, "geometry": { "type": "Point", "coordinates": [ 139.699001299999964, 36.3158771 ] } },
{ "type": "Feature", "properties": { "内容": "特別養護老人ホーム　代官荘【介護老人福祉施設】栃木県栃木市田村町928", "url": "https://www.kaigokensaku.mhlw.go.jp/09/index.php?action_kouhyou_detail_004_kani=true&JigyosyoCd=0970300125-00&ServiceCd=510&Type=search", "url2": "http://www.sfk.or.jp/" }, "geometry": { "type": "Point", "coordinates": [ 139.78337369999997, 36.3931864 ] } },
{ "type": "Feature", "properties": { "内容": "特別養護老人ホームみながわ桜園【介護老人福祉施設】栃木県栃木市皆川城内町520番地", "url": "https://www.kaigokensaku.mhlw.go.jp/09/index.php?action_kouhyou_detail_004_kani=true&JigyosyoCd=0970301123-00&ServiceCd=510&Type=search", "url2": "http://minagawa-sakura.com/" }, "geometry": { "type": "Point", "coordinates": [ 139.6895442, 36.3977245 ] } },
{ "type": "Feature", "properties": { "内容": "特別養護老人ホーム　緑風苑【介護老人福祉施設】栃木県栃木市藤岡町中根355-2", "url": "https://www.kaigokensaku.mhlw.go.jp/09/index.php?action_kouhyou_detail_004_kani=true&JigyosyoCd=0972300313-00&ServiceCd=510&Type=search", "url2": "http://www.ryokufuen.or.jp/" }, "geometry": { "type": "Point", "coordinates": [ 139.689064384061453, 36.284578328630566 ] } },
{ "type": "Feature", "properties": { "内容": "特別養護老人ホーム　丹頂【介護老人福祉施設】栃木県佐野市栃本町３２５５", "url": "https://www.kaigokensaku.mhlw.go.jp/09/index.php?action_kouhyou_detail_004_kani=true&JigyosyoCd=0970400792-00&ServiceCd=510&Type=search", "url2": null }, "geometry": { "type": "Point", "coordinates": [ 139.584230899999966, 36.3465739 ] } },
{ "type": "Feature", "properties": { "内容": "特別養護老人ホーム結和の里【介護老人福祉施設】栃木県佐野市小見町７３３", "url": "https://www.kaigokensaku.mhlw.go.jp/09/index.php?action_kouhyou_detail_004_kani=true&JigyosyoCd=0970402509-00&ServiceCd=510&Type=search", "url2": null }, "geometry": { "type": "Point", "coordinates": [ 139.571475312059846, 36.349531999530946 ] } },
{ "type": "Feature", "properties": { "内容": "特別養護老人ホーム葛生ホーム【介護老人福祉施設】栃木県佐野市仙波町８４７番地", "url": "https://www.kaigokensaku.mhlw.go.jp/09/index.php?action_kouhyou_detail_004_kani=true&JigyosyoCd=0972400089-00&ServiceCd=510&Type=search", "url2": "https://kuzuuhome.jimdofree.com" }, "geometry": { "type": "Point", "coordinates": [ 139.597733100000028, 36.4419674 ] } },
{ "type": "Feature", "properties": { "内容": "特別養護老人ホーム佐野サンリバー【介護老人福祉施設】栃木県佐野市小中町１８２０－４", "url": "https://www.kaigokensaku.mhlw.go.jp/09/index.php?action_kouhyou_detail_004_kani=true&JigyosyoCd=0970400222-00&ServiceCd=510&Type=search", "url2": "http//park12.wakwak.com/~sunriver" }, "geometry": { "type": "Point", "coordinates": [ 139.548328199999986, 36.337285 ] } },
{ "type": "Feature", "properties": { "内容": "特別養護老人ホーム　大栗の里【介護老人福祉施設】栃木県佐野市犬伏中町2441-1", "url": "https://www.kaigokensaku.mhlw.go.jp/09/index.php?action_kouhyou_detail_004_kani=true&JigyosyoCd=0970400446-00&ServiceCd=510&Type=search", "url2": "oogurinosato@world.ocn.ne.jp" }, "geometry": { "type": "Point", "coordinates": [ 139.597682934689374, 36.329833681315037 ] } },
{ "type": "Feature", "properties": { "内容": "特別養護老人ホーム万葉【介護老人福祉施設】栃木県佐野市堀米町1336-1", "url": "https://www.kaigokensaku.mhlw.go.jp/09/index.php?action_kouhyou_detail_004_kani=true&JigyosyoCd=0970400826-00&ServiceCd=510&Type=search", "url2": "http://www.manyou.or.jp/" }, "geometry": { "type": "Point", "coordinates": [ 139.5795736, 36.3305449 ] } },
{ "type": "Feature", "properties": { "内容": "特別養護老人ホームきんもくせい【介護老人福祉施設】栃木県佐野市堀米町3956-10特別養護老人ホームきんもくせい", "url": "https://www.kaigokensaku.mhlw.go.jp/09/index.php?action_kouhyou_detail_004_kani=true&JigyosyoCd=0970401972-00&ServiceCd=510&Type=search", "url2": "http://jasanoko.or.jp" }, "geometry": { "type": "Point", "coordinates": [ 139.577133489163202, 36.325752914539038 ] } },
{ "type": "Feature", "properties": { "内容": "特別養護老人ホーム　万葉堀米の里【介護老人福祉施設】栃木県佐野市堀米町１２７０番地８", "url": "https://www.kaigokensaku.mhlw.go.jp/09/index.php?action_kouhyou_detail_004_kani=true&JigyosyoCd=0970402319-00&ServiceCd=510&Type=search", "url2": "http://manyou.or.jp/" }, "geometry": { "type": "Point", "coordinates": [ 139.580580313491851, 36.32793083434332 ] } },
{ "type": "Feature", "properties": { "内容": "特別養護老人ホーム　蓬莱荘【介護老人福祉施設】栃木県佐野市長谷場町1798-1", "url": "https://www.kaigokensaku.mhlw.go.jp/09/index.php?action_kouhyou_detail_004_kani=true&JigyosyoCd=0972400097-00&ServiceCd=510&Type=search", "url2": "http://www.hourai.or.jp" }, "geometry": { "type": "Point", "coordinates": [ 139.550224500000013, 36.4298658 ] } },
{ "type": "Feature", "properties": { "内容": "特別養護老人ホームハーモニー【介護老人福祉施設】栃木県鹿沼市村井町１４６－６", "url": "https://www.kaigokensaku.mhlw.go.jp/09/index.php?action_kouhyou_detail_004_kani=true&JigyosyoCd=0970500203-00&ServiceCd=510&Type=search", "url2": "http://kyuujyu.com/" }, "geometry": { "type": "Point", "coordinates": [ 139.746004699999958, 36.5483071 ] } },
{ "type": "Feature", "properties": { "内容": "特別養護老人ホーム　かぬま花の風【介護老人福祉施設】栃木県鹿沼市緑町2-3-17", "url": "https://www.kaigokensaku.mhlw.go.jp/09/index.php?action_kouhyou_detail_004_kani=true&JigyosyoCd=0970501169-00&ServiceCd=510&Type=search", "url2": "http://ｗｗｗ.fukushi-asahikai.or.jp" }, "geometry": { "type": "Point", "coordinates": [ 139.776979405696125, 36.558000169866197 ] } },
{ "type": "Feature", "properties": { "内容": "特別養護老人ホーム　粟野荘【介護老人福祉施設】栃木県鹿沼市深程1520", "url": "https://www.kaigokensaku.mhlw.go.jp/09/index.php?action_kouhyou_detail_004_kani=true&JigyosyoCd=0972200067-00&ServiceCd=510&Type=search", "url2": "http://awanosou.jp/" }, "geometry": { "type": "Point", "coordinates": [ 139.697691099999929, 36.4961776 ] } },
{ "type": "Feature", "properties": { "内容": "特別養護老人ホームおりづる【介護老人福祉施設】栃木県鹿沼市茂呂１０９０番地２５", "url": "https://www.kaigokensaku.mhlw.go.jp/09/index.php?action_kouhyou_detail_004_kani=true&JigyosyoCd=0970500617-00&ServiceCd=510&Type=search", "url2": "http://moro-skf.jp/" }, "geometry": { "type": "Point", "coordinates": [ 139.779637899999983, 36.5490943 ] } },
{ "type": "Feature", "properties": { "内容": "特別養護老人ホーム　グリーンホーム【介護老人福祉施設】栃木県鹿沼市下日向438-1", "url": "https://www.kaigokensaku.mhlw.go.jp/09/index.php?action_kouhyou_detail_004_kani=true&JigyosyoCd=0970500211-00&ServiceCd=510&Type=search", "url2": "http://www.ryokufukai.jp/" }, "geometry": { "type": "Point", "coordinates": [ 139.717359699999946, 36.5504111 ] } },
{ "type": "Feature", "properties": { "内容": "特別養護老人ホーム　さつき荘【介護老人福祉施設】栃木県鹿沼市白桑田２５４－７", "url": "https://www.kaigokensaku.mhlw.go.jp/09/index.php?action_kouhyou_detail_004_kani=true&JigyosyoCd=0970500161-00&ServiceCd=510&Type=search", "url2": "http://www.tudafukushi.com" }, "geometry": { "type": "Point", "coordinates": [ 139.813059599999974, 36.5501948 ] } },
{ "type": "Feature", "properties": { "内容": "特別養護老人ホーム　かぬま四季の里【介護老人福祉施設】栃木県鹿沼市西沢町209", "url": "https://www.kaigokensaku.mhlw.go.jp/09/index.php?action_kouhyou_detail_004_kani=true&JigyosyoCd=0970500880-00&ServiceCd=510&Type=search", "url2": "https://souwakai.or.jp/" }, "geometry": { "type": "Point", "coordinates": [ 139.70848639999997, 36.5169034 ] } },
{ "type": "Feature", "properties": { "内容": "特別養護老人ホ－ム　オレンジホ－ム【介護老人福祉施設】栃木県鹿沼市富岡492-2", "url": "https://www.kaigokensaku.mhlw.go.jp/09/index.php?action_kouhyou_detail_004_kani=true&JigyosyoCd=0970500229-00&ServiceCd=510&Type=search", "url2": "http://www.ryokufukai.jp/" }, "geometry": { "type": "Point", "coordinates": [ 139.735069599999946, 36.6155575 ] } },
{ "type": "Feature", "properties": { "内容": "特別養護老人ホーム　きびたき荘【介護老人福祉施設】栃木県日光市細尾町95番地", "url": "https://www.kaigokensaku.mhlw.go.jp/09/index.php?action_kouhyou_detail_004_kani=true&JigyosyoCd=0970600037-00&ServiceCd=510&Type=search", "url2": "http://kibitakisou.com/" }, "geometry": { "type": "Point", "coordinates": [ 139.549010599999974, 36.7303137 ] } },
{ "type": "Feature", "properties": { "内容": "特別養護老人ホーム　ひかりの里【介護老人福祉施設】日光市今市1086-2", "url": "https://www.kaigokensaku.mhlw.go.jp/09/index.php?action_kouhyou_detail_004_kani=true&JigyosyoCd=0970600185-00&ServiceCd=510&Type=search", "url2": "http://www.taikei.jp/" }, "geometry": { "type": "Point", "coordinates": [ 139.697757499999966, 36.7248243 ] } },
{ "type": "Feature", "properties": { "内容": "特別養護老人ホーム　ひらがさ喜の里【介護老人福祉施設】栃木県日光市平ヶ崎608-5", "url": "https://www.kaigokensaku.mhlw.go.jp/09/index.php?action_kouhyou_detail_004_kani=true&JigyosyoCd=0970600441-00&ServiceCd=510&Type=search", "url2": "http://nikko-fukueikai.or.jp" }, "geometry": { "type": "Point", "coordinates": [ 139.680687600000027, 36.7157384 ] } },
{ "type": "Feature", "properties": { "内容": "特別養護老人ホーム　喜わだ亭【介護老人福祉施設】栃木県日光市木和田島3008番地13特別養護老人ホーム　喜わだ亭", "url": "https://www.kaigokensaku.mhlw.go.jp/09/index.php?action_kouhyou_detail_004_kani=true&JigyosyoCd=0970600581-00&ServiceCd=510&Type=search", "url2": null }, "geometry": { "type": "Point", "coordinates": [ 139.753050700000017, 36.6823192 ] } },
{ "type": "Feature", "properties": { "内容": "すかいの郷【介護老人福祉施設】栃木県日光市倉ケ崎新田143-1", "url": "https://www.kaigokensaku.mhlw.go.jp/09/index.php?action_kouhyou_detail_004_kani=true&JigyosyoCd=0970600797-00&ServiceCd=510&Type=search", "url2": "http://www.sukai.jp/" }, "geometry": { "type": "Point", "coordinates": [ 139.701593257611052, 36.737104309302381 ] } },
{ "type": "Feature", "properties": { "内容": "特別養護老人ホーム　今市ホーム【介護老人福祉施設】栃木県日光市板橋2190-2", "url": "https://www.kaigokensaku.mhlw.go.jp/09/index.php?action_kouhyou_detail_004_kani=true&JigyosyoCd=0970700134-00&ServiceCd=510&Type=search", "url2": "www.taikei.jp" }, "geometry": { "type": "Point", "coordinates": [ 139.73511869999993, 36.6492286 ] } },
{ "type": "Feature", "properties": { "内容": "特別養護老人ホーム　誠心園【介護老人福祉施設】栃木県日光市倉ケ崎６０５番地７", "url": "https://www.kaigokensaku.mhlw.go.jp/09/index.php?action_kouhyou_detail_004_kani=true&JigyosyoCd=0970700142-00&ServiceCd=510&Type=search", "url2": "http://www.sankokai.com" }, "geometry": { "type": "Point", "coordinates": [ 139.712723900000043, 36.755018600000014 ] } },
{ "type": "Feature", "properties": { "内容": "特別養護老人ホーム　大室さくら苑【介護老人福祉施設】栃木県日光市大室863-7", "url": "https://www.kaigokensaku.mhlw.go.jp/09/index.php?action_kouhyou_detail_004_kani=true&JigyosyoCd=0970700415-00&ServiceCd=510&Type=search", "url2": "http://oomurosakuraen.jp" }, "geometry": { "type": "Point", "coordinates": [ 139.7501241, 36.7229311 ] } },
{ "type": "Feature", "properties": { "内容": "特別養護老人ホーム　きぬ川苑【介護老人福祉施設】栃木県日光市高徳６１９番地３", "url": "https://www.kaigokensaku.mhlw.go.jp/09/index.php?action_kouhyou_detail_004_kani=true&JigyosyoCd=0972600316-00&ServiceCd=510&Type=search", "url2": "http://kinugawaen.com/" }, "geometry": { "type": "Point", "coordinates": [ 139.706736490476487, 36.782607617436447 ] } },
{ "type": "Feature", "properties": { "内容": "特別養護老人ホーム　栗林荘【介護老人福祉施設】栃木県小山市大字塚崎４６３番地１", "url": "https://www.kaigokensaku.mhlw.go.jp/09/index.php?action_kouhyou_detail_004_kani=true&JigyosyoCd=0970800181-00&ServiceCd=510&Type=search", "url2": null }, "geometry": { "type": "Point", "coordinates": [ 139.815155799999957, 36.2634334 ] } },
{ "type": "Feature", "properties": { "内容": "特別養護老人ホーム　きぬの里【介護老人福祉施設】栃木県小山市大字高椅132-1", "url": "https://www.kaigokensaku.mhlw.go.jp/09/index.php?action_kouhyou_detail_004_kani=true&JigyosyoCd=0970800223-00&ServiceCd=510&Type=search", "url2": "http://kusu-noki.or.jp" }, "geometry": { "type": "Point", "coordinates": [ 139.888123599999972, 36.3390051 ] } },
{ "type": "Feature", "properties": { "内容": "特別養護老人ホーム　きぬの里みやび【介護老人福祉施設】栃木県小山市大字高椅132-1", "url": "https://www.kaigokensaku.mhlw.go.jp/09/index.php?action_kouhyou_detail_004_kani=true&JigyosyoCd=0970802062-00&ServiceCd=510&Type=search", "url2": "http://kusu-noki.or.jp" }, "geometry": { "type": "Point", "coordinates": [ 139.888123599999972, 36.3390051 ] } },
{ "type": "Feature", "properties": { "内容": "特別養護老人ホーム春わらう舎【介護老人福祉施設】栃木県小山市大字小山1509番地1", "url": "https://www.kaigokensaku.mhlw.go.jp/09/index.php?action_kouhyou_detail_004_kani=true&JigyosyoCd=0970801569-00&ServiceCd=510&Type=search", "url2": "http://www.nogihosp.or.jp/" }, "geometry": { "type": "Point", "coordinates": [ 139.818173600000023, 36.3015129 ] } },
{ "type": "Feature", "properties": { "内容": "特別養護老人ホーム　富士見荘【介護老人福祉施設】栃木県小山市大字上石塚１５番地", "url": "https://www.kaigokensaku.mhlw.go.jp/09/index.php?action_kouhyou_detail_004_kani=true&JigyosyoCd=0970800199-00&ServiceCd=510&Type=search", "url2": "http://www.fujimisou.or.jp" }, "geometry": { "type": "Point", "coordinates": [ 139.776344, 36.3326043 ] } },
{ "type": "Feature", "properties": { "内容": "特別養護老人ホームしょうし苑【介護老人福祉施設】栃木県小山市中久喜1273-1", "url": "https://www.kaigokensaku.mhlw.go.jp/09/index.php?action_kouhyou_detail_004_kani=true&JigyosyoCd=0970800207-00&ServiceCd=510&Type=search", "url2": "http://oyamaseifukai.or.jp/" }, "geometry": { "type": "Point", "coordinates": [ 139.834405699999934, 36.3236804 ] } },
{ "type": "Feature", "properties": { "内容": "特別養護老人ホーム穂の香苑【介護老人福祉施設】栃木県小山市間々田１４４２", "url": "https://www.kaigokensaku.mhlw.go.jp/09/index.php?action_kouhyou_detail_004_kani=true&JigyosyoCd=0970800215-00&ServiceCd=510&Type=search", "url2": "http://www.honokaen.jp/" }, "geometry": { "type": "Point", "coordinates": [ 139.762862686508242, 36.268008027337501 ] } },
{ "type": "Feature", "properties": { "内容": "特別養護老人ホーム穂の香苑【介護老人福祉施設】栃木県小山市間々田１４４２", "url": "https://www.kaigokensaku.mhlw.go.jp/09/index.php?action_kouhyou_detail_004_kani=true&JigyosyoCd=0970801957-00&ServiceCd=510&Type=search", "url2": "https://www.honokaen.jp/" }, "geometry": { "type": "Point", "coordinates": [ 139.762821218973954, 36.268039407393523 ] } },
{ "type": "Feature", "properties": { "内容": "特別養護老人ホーム　しょうし苑星座の森【介護老人福祉施設】栃木県小山市大字中久喜1273-1", "url": "https://www.kaigokensaku.mhlw.go.jp/09/index.php?action_kouhyou_detail_004_kani=true&JigyosyoCd=0970802195-00&ServiceCd=510&Type=search", "url2": "http://oyamaseifukai.or.jp/" }, "geometry": { "type": "Point", "coordinates": [ 139.834405699999934, 36.3236804 ] } },
{ "type": "Feature", "properties": { "内容": "特別養護老人ホーム　きたはら【介護老人福祉施設】栃木県真岡市若旅656番地", "url": "https://www.kaigokensaku.mhlw.go.jp/09/index.php?action_kouhyou_detail_004_kani=true&JigyosyoCd=0970900189-00&ServiceCd=510&Type=search", "url2": "http://www.keikoukai.or.jp/" }, "geometry": { "type": "Point", "coordinates": [ 139.948432700000012, 36.4023594 ] } },
{ "type": "Feature", "properties": { "内容": "特別養護老人ホーム　やまさわの里【介護老人福祉施設】真岡市熊倉町3435-1", "url": "https://www.kaigokensaku.mhlw.go.jp/09/index.php?action_kouhyou_detail_004_kani=true&JigyosyoCd=0970900379-00&ServiceCd=510&Type=search", "url2": "http://www.yamasawanosato.or.jp" }, "geometry": { "type": "Point", "coordinates": [ 139.996468400000026, 36.432927599999957 ] } },
{ "type": "Feature", "properties": { "内容": "特別養護老人ホーム喜望荘【介護老人福祉施設】栃木県真岡市石島463", "url": "https://www.kaigokensaku.mhlw.go.jp/09/index.php?action_kouhyou_detail_004_kani=true&JigyosyoCd=0972700140-00&ServiceCd=510&Type=search", "url2": "http://www.kibousou.jp/" }, "geometry": { "type": "Point", "coordinates": [ 139.974350100000038, 36.3935833 ] } },
{ "type": "Feature", "properties": { "内容": "特別養護老人ホーム　桜の華【介護老人福祉施設】栃木県真岡市久下田712-8", "url": "https://www.kaigokensaku.mhlw.go.jp/09/index.php?action_kouhyou_detail_004_kani=true&JigyosyoCd=0972700678-00&ServiceCd=510&Type=search", "url2": "https://sakuranohana.net" }, "geometry": { "type": "Point", "coordinates": [ 139.967820599999982, 36.3743964 ] } },
{ "type": "Feature", "properties": { "内容": "特別養護老人ホーム　椿寿園【介護老人福祉施設】栃木県真岡市亀山350-20", "url": "https://www.kaigokensaku.mhlw.go.jp/09/index.php?action_kouhyou_detail_004_kani=true&JigyosyoCd=0970900163-00&ServiceCd=510&Type=search", "url2": "http://care-net.biz/09/shinkikai/" }, "geometry": { "type": "Point", "coordinates": [ 139.988915499999962, 36.459577 ] } },
{ "type": "Feature", "properties": { "内容": "特別養護老人ホーム晴風園【介護老人福祉施設】栃木県大田原市下石上１２５８", "url": "https://www.kaigokensaku.mhlw.go.jp/09/index.php?action_kouhyou_detail_004_kani=true&JigyosyoCd=0971000161-00&ServiceCd=510&Type=search", "url2": "http://shiseikai-seifuen.com" }, "geometry": { "type": "Point", "coordinates": [ 139.945960900000046, 36.8518786 ] } },
{ "type": "Feature", "properties": { "内容": "特別養護老人ホーム　やすらぎの里・大田原【介護老人福祉施設】栃木県大田原市北大和久1番地３", "url": "https://www.kaigokensaku.mhlw.go.jp/09/index.php?action_kouhyou_detail_004_kani=true&JigyosyoCd=0971000179-00&ServiceCd=510&Type=search", "url2": "https://www.yasuragi1977.jp/ohtawara/" }, "geometry": { "type": "Point", "coordinates": [ 140.051470699999982, 36.8451681 ] } },
{ "type": "Feature", "properties": { "内容": "特別養護老人ホーム　おおたわら風花苑【介護老人福祉施設】栃木県大田原市北金丸２６００番地１０", "url": "https://www.kaigokensaku.mhlw.go.jp/09/index.php?action_kouhyou_detail_004_kani=true&JigyosyoCd=0971000583-00&ServiceCd=510&Type=search", "url2": "http://hoyukai.iuhw.ac.jp" }, "geometry": { "type": "Point", "coordinates": [ 140.069995699999936, 36.8724578 ] } },
{ "type": "Feature", "properties": { "内容": "特別養護老人ホーム　やすらぎの里シエスタ【介護老人福祉施設】栃木県大田原市北大和久１番地３", "url": "https://www.kaigokensaku.mhlw.go.jp/09/index.php?action_kouhyou_detail_004_kani=true&JigyosyoCd=0971001128-00&ServiceCd=510&Type=search", "url2": "https://www.yasuragi1977.jp/ohtawara/" }, "geometry": { "type": "Point", "coordinates": [ 140.0512346656067, 36.845052190985115 ] } },
{ "type": "Feature", "properties": { "内容": "特別養護老人ホームほのぼの園【介護老人福祉施設】栃木県大田原市湯津上5-989", "url": "https://www.kaigokensaku.mhlw.go.jp/09/index.php?action_kouhyou_detail_004_kani=true&JigyosyoCd=0972500235-00&ServiceCd=510&Type=search", "url2": "http://www.keifukukai.com/" }, "geometry": { "type": "Point", "coordinates": [ 140.105483400000026, 36.8252085 ] } },
{ "type": "Feature", "properties": { "内容": "特別養護老人ホーム山百合荘【介護老人福祉施設】栃木県大田原市久野又８０４番地", "url": "https://www.kaigokensaku.mhlw.go.jp/09/index.php?action_kouhyou_detail_004_kani=true&JigyosyoCd=0972500367-00&ServiceCd=510&Type=search", "url2": "http://yamayuriso.com/" }, "geometry": { "type": "Point", "coordinates": [ 140.138423, 36.8901711 ] } },
{ "type": "Feature", "properties": { "内容": "特別養護老人ホーム　八汐苑【介護老人福祉施設】栃木県矢板市平野1362-12", "url": "https://www.kaigokensaku.mhlw.go.jp/09/index.php?action_kouhyou_detail_004_kani=true&JigyosyoCd=0971100045-00&ServiceCd=510&Type=search", "url2": "http://yashioen.jp/" }, "geometry": { "type": "Point", "coordinates": [ 139.886294600000042, 36.8663585 ] } },
{ "type": "Feature", "properties": { "内容": "特別養護老人ホームひだまりの里【介護老人福祉施設】栃木県矢板市川崎反町303番地", "url": "https://www.kaigokensaku.mhlw.go.jp/09/index.php?action_kouhyou_detail_004_kani=true&JigyosyoCd=0971100433-00&ServiceCd=510&Type=search", "url2": "http://www.tomoikikai.info/" }, "geometry": { "type": "Point", "coordinates": [ 139.919613499999969, 36.7933127 ] } },
{ "type": "Feature", "properties": { "内容": "特別養護老人ホーム　寿山荘【介護老人福祉施設】栃木県那須塩原市住吉町5番10号", "url": "https://www.kaigokensaku.mhlw.go.jp/09/index.php?action_kouhyou_detail_004_kani=true&JigyosyoCd=0971200084-00&ServiceCd=510&Type=search", "url2": "http://www.keihukukai.com/" }, "geometry": { "type": "Point", "coordinates": [ 140.049396200000047, 36.9653006 ] } },
{ "type": "Feature", "properties": { "内容": "特別養護老人ホーム　あじさい苑【介護老人福祉施設】栃木県那須塩原市東原字天蚕場１６６番地", "url": "https://www.kaigokensaku.mhlw.go.jp/09/index.php?action_kouhyou_detail_004_kani=true&JigyosyoCd=0971200092-00&ServiceCd=510&Type=search", "url2": "http://www.nasu-kaigo.or.jp" }, "geometry": { "type": "Point", "coordinates": [ 140.046066, 36.961698 ] } },
{ "type": "Feature", "properties": { "内容": "特別養護老人ホーム　生きいきの里【介護老人福祉施設】栃木県那須塩原市下田野２８２番地６", "url": "https://www.kaigokensaku.mhlw.go.jp/09/index.php?action_kouhyou_detail_004_kani=true&JigyosyoCd=0972500185-00&ServiceCd=510&Type=search", "url2": "https://www.ikiikinosato.com." }, "geometry": { "type": "Point", "coordinates": [ 139.895481, 36.9417286 ] } },
{ "type": "Feature", "properties": { "内容": "特別養護老人ホーム　那須順天荘【介護老人福祉施設】栃木県那須塩原市上赤田２３８番地６５８", "url": "https://www.kaigokensaku.mhlw.go.jp/09/index.php?action_kouhyou_detail_004_kani=true&JigyosyoCd=0972500359-00&ServiceCd=510&Type=search", "url2": null }, "geometry": { "type": "Point", "coordinates": [ 139.9475026, 36.9076555 ] } },
{ "type": "Feature", "properties": { "内容": "特別養護老人ホーム　栃の実荘【介護老人福祉施設】栃木県那須塩原市井口533-20", "url": "https://www.kaigokensaku.mhlw.go.jp/09/index.php?action_kouhyou_detail_004_kani=true&JigyosyoCd=0972500375-00&ServiceCd=510&Type=search", "url2": "http://hoyukai.iuhw.ac.jp/tochinomisou/" }, "geometry": { "type": "Point", "coordinates": [ 139.974056324081403, 36.910606866343926 ] } },
{ "type": "Feature", "properties": { "内容": "特別養護老人ホ－ムさちの森【介護老人福祉施設】栃木県那須塩原市野間４５３番地２３", "url": "https://www.kaigokensaku.mhlw.go.jp/09/index.php?action_kouhyou_detail_004_kani=true&JigyosyoCd=0971300181-00&ServiceCd=510&Type=search", "url2": "http://www.sachinomori.jp" }, "geometry": { "type": "Point", "coordinates": [ 140.080967399999963, 36.9318491 ] } },
{ "type": "Feature", "properties": { "内容": "つきみの杜【介護老人福祉施設】栃木県さくら市氏家3260-1", "url": "https://www.kaigokensaku.mhlw.go.jp/09/index.php?action_kouhyou_detail_004_kani=true&JigyosyoCd=0971400395-00&ServiceCd=510&Type=search", "url2": "http://aibikai.or.jp/" }, "geometry": { "type": "Point", "coordinates": [ 139.967215337959317, 36.705484314843915 ] } },
{ "type": "Feature", "properties": { "内容": "特別養護老人ホーム　にこんきつれ荘【介護老人福祉施設】栃木県さくら市下河戸1942-2", "url": "https://www.kaigokensaku.mhlw.go.jp/09/index.php?action_kouhyou_detail_004_kani=true&JigyosyoCd=0972600126-00&ServiceCd=510&Type=search", "url2": null }, "geometry": { "type": "Point", "coordinates": [ 140.018445700000029, 36.7722645 ] } },
{ "type": "Feature", "properties": { "内容": "特別養護老人ホームエリム【介護老人福祉施設】栃木県さくら市鍛冶ケ澤57番地1", "url": "https://www.kaigokensaku.mhlw.go.jp/09/index.php?action_kouhyou_detail_004_kani=true&JigyosyoCd=0972600134-00&ServiceCd=510&Type=search", "url2": "http://erimu.jp" }, "geometry": { "type": "Point", "coordinates": [ 140.026393900000016, 36.6847529 ] } },
{ "type": "Feature", "properties": { "内容": "特別養護老人ホーム敬愛荘【介護老人福祉施設】栃木県那須烏山市滝田1867-3", "url": "https://www.kaigokensaku.mhlw.go.jp/09/index.php?action_kouhyou_detail_004_kani=true&JigyosyoCd=0972500342-00&ServiceCd=510&Type=search", "url2": "http://keiaikai-nasukarasuyama.com" }, "geometry": { "type": "Point", "coordinates": [ 140.145416306380412, 36.677182882492026 ] } },
{ "type": "Feature", "properties": { "内容": "ユニット型特別養護老人ホーム愛和苑【介護老人福祉施設】栃木県那須烏山市三箇183-1", "url": "https://www.kaigokensaku.mhlw.go.jp/09/index.php?action_kouhyou_detail_004_kani=true&JigyosyoCd=0971500160-00&ServiceCd=510&Type=search", "url2": "https://seisyu-kai.or.jp" }, "geometry": { "type": "Point", "coordinates": [ 140.0742361, 36.6912674 ] } },
{ "type": "Feature", "properties": { "内容": "特別養護老人ホーム愛和苑【介護老人福祉施設】栃木県那須烏山市三箇183-1", "url": "https://www.kaigokensaku.mhlw.go.jp/09/index.php?action_kouhyou_detail_004_kani=true&JigyosyoCd=0972500045-00&ServiceCd=510&Type=search", "url2": "http://www.seisyu-kai.net/" }, "geometry": { "type": "Point", "coordinates": [ 140.0742361, 36.6912674 ] } },
{ "type": "Feature", "properties": { "内容": "特別養護老人ホームこぶしの丘【介護老人福祉施設】向田2187", "url": "https://www.kaigokensaku.mhlw.go.jp/09/index.php?action_kouhyou_detail_004_kani=true&JigyosyoCd=0971500186-00&ServiceCd=510&Type=search", "url2": "https://kobushinooka.com/" }, "geometry": { "type": "Point", "coordinates": [ 136.9884056, 35.3315567 ] } },
{ "type": "Feature", "properties": { "内容": "特別養護老人ホームまほろばの里【介護老人福祉施設】栃木県下野市箕輪441-1", "url": "https://www.kaigokensaku.mhlw.go.jp/09/index.php?action_kouhyou_detail_004_kani=true&JigyosyoCd=0972300321-00&ServiceCd=510&Type=search", "url2": "http://www.keiwa22.or.jp" }, "geometry": { "type": "Point", "coordinates": [ 139.8288867, 36.3966123 ] } },
{ "type": "Feature", "properties": { "内容": "特別養護老人ホーム　にらがわの郷【介護老人福祉施設】栃木県下野市仁良川１６５１－１", "url": "https://www.kaigokensaku.mhlw.go.jp/09/index.php?action_kouhyou_detail_004_kani=true&JigyosyoCd=0971600226-00&ServiceCd=510&Type=search", "url2": "http://ebiharamed.byoinnavi.jp" }, "geometry": { "type": "Point", "coordinates": [ 139.874829299999988, 36.3721423 ] } },
{ "type": "Feature", "properties": { "内容": "特別養護老人ホーム煌【介護老人福祉施設】栃木県下野市上古山1849‐1特別養護老人ホーム煌", "url": "https://www.kaigokensaku.mhlw.go.jp/09/index.php?action_kouhyou_detail_004_kani=true&JigyosyoCd=0971600804-00&ServiceCd=510&Type=search", "url2": "http://tochinokikai.or.jp" }, "geometry": { "type": "Point", "coordinates": [ 139.859022561641723, 36.467529729544722 ] } },
{ "type": "Feature", "properties": { "内容": "特別養護老人ホーム　天寿荘【介護老人福祉施設】栃木県下野市薬師寺1131番地10", "url": "https://www.kaigokensaku.mhlw.go.jp/09/index.php?action_kouhyou_detail_004_kani=true&JigyosyoCd=0972100168-00&ServiceCd=510&Type=search", "url2": null }, "geometry": { "type": "Point", "coordinates": [ 139.86452410000004, 36.3833515 ] } },
{ "type": "Feature", "properties": { "内容": "特別養護老人ホームいしばし【介護老人福祉施設】栃木県下野市下古山１１７４", "url": "https://www.kaigokensaku.mhlw.go.jp/09/index.php?action_kouhyou_detail_004_kani=true&JigyosyoCd=0972300305-00&ServiceCd=510&Type=search", "url2": "http://www.tochinokikai.or.jp" }, "geometry": { "type": "Point", "coordinates": [ 139.844825600000036, 36.4450737 ] } },
{ "type": "Feature", "properties": { "内容": "特別養護老人ホーム友愛苑【介護老人福祉施設】栃木県河内郡上三川町大字上三川１６３６－２", "url": "https://www.kaigokensaku.mhlw.go.jp/09/index.php?action_kouhyou_detail_004_kani=true&JigyosyoCd=0972100150-00&ServiceCd=510&Type=search", "url2": null }, "geometry": { "type": "Point", "coordinates": [ 139.91, 36.438056 ] } },
{ "type": "Feature", "properties": { "内容": "特別養護老人ホーム　トータスホーム【介護老人福祉施設】栃木県河内郡上三川町下神主２２９－６", "url": "https://www.kaigokensaku.mhlw.go.jp/09/index.php?action_kouhyou_detail_004_kani=true&JigyosyoCd=0972100176-00&ServiceCd=510&Type=search", "url2": "http://www.tortoise-h.jp" }, "geometry": { "type": "Point", "coordinates": [ 139.881703, 36.4524571 ] } },
{ "type": "Feature", "properties": { "内容": "特別養護老人ホーム　ふじやまの里【介護老人福祉施設】栃木県河内郡上三川町大字上三川３９５０番地１", "url": "https://www.kaigokensaku.mhlw.go.jp/09/index.php?action_kouhyou_detail_004_kani=true&JigyosyoCd=0972100614-00&ServiceCd=510&Type=search", "url2": "http://www.fujiyamanosato.or.jp" }, "geometry": { "type": "Point", "coordinates": [ 139.909176600000023, 36.4240473 ] } },
{ "type": "Feature", "properties": { "内容": "社会福祉法人明照協会　　特別養護老人ホーム　和順荘【介護老人福祉施設】芳賀郡益子町大沢１７７０", "url": "https://www.kaigokensaku.mhlw.go.jp/09/index.php?action_kouhyou_detail_004_kani=true&JigyosyoCd=0972700116-00&ServiceCd=510&Type=search", "url2": null }, "geometry": { "type": "Point", "coordinates": [ 140.1017157, 36.4851559 ] } },
{ "type": "Feature", "properties": { "内容": "特別養護老人ホームききょうの里【介護老人福祉施設】栃木県芳賀郡茂木町大字飯1694", "url": "https://www.kaigokensaku.mhlw.go.jp/09/index.php?action_kouhyou_detail_004_kani=true&JigyosyoCd=0972700157-00&ServiceCd=510&Type=search", "url2": "https://kikyonosato.jp/" }, "geometry": { "type": "Point", "coordinates": [ 140.170607, 36.474662 ] } },
{ "type": "Feature", "properties": { "内容": "特別養護老人ホームうぐいすの杜【介護老人福祉施設】栃木県芳賀郡茂木町大字茂木1824-28", "url": "https://www.kaigokensaku.mhlw.go.jp/09/index.php?action_kouhyou_detail_004_kani=true&JigyosyoCd=0972701122-00&ServiceCd=510&Type=search", "url2": "https://www.motegi-uguisunomori.com" }, "geometry": { "type": "Point", "coordinates": [ 140.1797057, 36.533694 ] } },
{ "type": "Feature", "properties": { "内容": "特別養護老人ホーム杉の樹園【介護老人福祉施設】栃木県芳賀郡市貝町続谷736番地", "url": "https://www.kaigokensaku.mhlw.go.jp/09/index.php?action_kouhyou_detail_004_kani=true&JigyosyoCd=0972700132-00&ServiceCd=510&Type=search", "url2": "http://suginokien.com" }, "geometry": { "type": "Point", "coordinates": [ 140.125922100000025, 36.5956009 ] } },
{ "type": "Feature", "properties": { "内容": "特別養護老人ホーム　而今荘【介護老人福祉施設】栃木県芳賀郡芳賀町大字稲毛田１８８７－４", "url": "https://www.kaigokensaku.mhlw.go.jp/09/index.php?action_kouhyou_detail_004_kani=true&JigyosyoCd=0972700124-00&ServiceCd=510&Type=search", "url2": "https://www.hoaikai.or.jp/" }, "geometry": { "type": "Point", "coordinates": [ 140.071831299999985, 36.5506206 ] } },
{ "type": "Feature", "properties": { "内容": "特別養護老人ホーム　しもつけ荘【介護老人福祉施設】栃木県下都賀郡壬生町大字北小林812", "url": "https://www.kaigokensaku.mhlw.go.jp/09/index.php?action_kouhyou_detail_004_kani=true&JigyosyoCd=0972300198-00&ServiceCd=510&Type=search", "url2": "http://tochinokikai.or.jp/" }, "geometry": { "type": "Point", "coordinates": [ 139.820687499999963, 36.4751034 ] } },
{ "type": "Feature", "properties": { "内容": "特別養護老人ホーム　あいケアステーション六美【介護老人福祉施設】栃木県下都賀郡壬生町壬生丁92－22", "url": "https://www.kaigokensaku.mhlw.go.jp/09/index.php?action_kouhyou_detail_004_kani=true&JigyosyoCd=0972301543-00&ServiceCd=510&Type=search", "url2": "http://kenbikai.net/" }, "geometry": { "type": "Point", "coordinates": [ 139.8272287, 36.4505583 ] } },
{ "type": "Feature", "properties": { "内容": "特別養護老人ホーム　虹の舎【介護老人福祉施設】栃木県下都賀郡野木町佐川野1785-1", "url": "https://www.kaigokensaku.mhlw.go.jp/09/index.php?action_kouhyou_detail_004_kani=true&JigyosyoCd=0972300131-00&ServiceCd=510&Type=search", "url2": "http://www.nogihosp.or.jp/" }, "geometry": { "type": "Point", "coordinates": [ 139.767812, 36.2350963 ] } },
{ "type": "Feature", "properties": { "内容": "特別養護老人ホーム　せせらぎ【介護老人福祉施設】栃木県塩谷郡塩谷町大字上沢968番地", "url": "https://www.kaigokensaku.mhlw.go.jp/09/index.php?action_kouhyou_detail_004_kani=true&JigyosyoCd=0972600274-00&ServiceCd=510&Type=search", "url2": "http://www.asunaro-swc.jp/" }, "geometry": { "type": "Point", "coordinates": [ 139.8173124, 36.7567678 ] } },
{ "type": "Feature", "properties": { "内容": "特別養護老人ホーム　高根沢のぞみ苑【介護老人福祉施設】栃木県塩谷郡高根沢町大字花岡２１５８－１０", "url": "https://www.kaigokensaku.mhlw.go.jp/09/index.php?action_kouhyou_detail_004_kani=true&JigyosyoCd=0972600142-00&ServiceCd=510&Type=search", "url2": "http://kuntoukai.sakura.ne.jp/" }, "geometry": { "type": "Point", "coordinates": [ 140.005691961376897, 36.64086814367284 ] } },
{ "type": "Feature", "properties": { "内容": "特別養護老人ホーム　フローラりんくる【介護老人福祉施設】栃木県塩谷郡高根沢町宝積寺2240番地１", "url": "https://www.kaigokensaku.mhlw.go.jp/09/index.php?action_kouhyou_detail_004_kani=true&JigyosyoCd=0972600522-00&ServiceCd=510&Type=search", "url2": "http://www.kouseikai-flora.or.jp/" }, "geometry": { "type": "Point", "coordinates": [ 139.990036199999963, 36.6254766 ] } },
{ "type": "Feature", "properties": { "内容": "特別養護老人ホーム　ゆたか苑【介護老人福祉施設】栃木県那須郡那須町大字豊原乙６２７－９５", "url": "https://www.kaigokensaku.mhlw.go.jp/09/index.php?action_kouhyou_detail_004_kani=true&JigyosyoCd=0972500292-00&ServiceCd=510&Type=search", "url2": "http://www.nasu-kaigo.or.jp" }, "geometry": { "type": "Point", "coordinates": [ 140.131080500000053, 37.1013191 ] } },
{ "type": "Feature", "properties": { "内容": "特別養護老人ホーム　なすの苑【介護老人福祉施設】栃木県那須郡那須町大字寺子乙３９１２－５", "url": "https://www.kaigokensaku.mhlw.go.jp/09/index.php?action_kouhyou_detail_004_kani=true&JigyosyoCd=0972501043-00&ServiceCd=510&Type=search", "url2": "http://www.nasu-kaigo.or.jp" }, "geometry": { "type": "Point", "coordinates": [ 140.12546969999994, 37.009805 ] } },
{ "type": "Feature", "properties": { "内容": "特別養護老人ホーム　寿山荘那須【介護老人福祉施設】栃木県那須郡那須町大字寺子乙1241-12", "url": "https://www.kaigokensaku.mhlw.go.jp/09/index.php?action_kouhyou_detail_004_kani=true&JigyosyoCd=0972501282-00&ServiceCd=510&Type=search", "url2": "https://www.keifukukai.com" }, "geometry": { "type": "Point", "coordinates": [ 140.093117099999972, 37.0021688 ] } },
{ "type": "Feature", "properties": { "内容": "特別養護老人ホーム八溝の里【介護老人福祉施設】栃木県那須郡那珂川町久那瀬５４４－１", "url": "https://www.kaigokensaku.mhlw.go.jp/09/index.php?action_kouhyou_detail_004_kani=true&JigyosyoCd=0972500284-00&ServiceCd=510&Type=search", "url2": null }, "geometry": { "type": "Point", "coordinates": [ 140.1514029, 36.7262544 ] } },
{ "type": "Feature", "properties": { "内容": "特別養護老人ホーム　かたくりの郷【介護老人福祉施設】栃木県那須郡那珂川町小川２９５８－２", "url": "https://www.kaigokensaku.mhlw.go.jp/09/index.php?action_kouhyou_detail_004_kani=true&JigyosyoCd=0972501118-00&ServiceCd=510&Type=search", "url2": "http://www.katakurinosato.jp" }, "geometry": { "type": "Point", "coordinates": [ 140.119761899999958, 36.7607799 ] } }
]
}
