{
"type": "FeatureCollection",
"name": "geo_09_介護医療院",
"crs": { "type": "name", "properties": { "name": "urn:ogc:def:crs:OGC:1.3:CRS84" } },
"features": [
{ "type": "Feature", "properties": { "内容": "宇都宮介護医療院【介護医療院】栃木県宇都宮市平出町401番地", "url": "https://www.kaigokensaku.mhlw.go.jp/09/index.php?action_kouhyou_detail_004_kani=true&JigyosyoCd=09B0100013-00&ServiceCd=550&Type=search", "url2": "https://www.hokutokai.or.jp" }, "geometry": { "type": "Point", "coordinates": [ 139.9495068, 36.5755816 ] } },
{ "type": "Feature", "properties": { "内容": "今井介護医療院【介護医療院】田中町100", "url": "https://www.kaigokensaku.mhlw.go.jp/09/index.php?action_kouhyou_detail_004_kani=true&JigyosyoCd=09B0200011-00&ServiceCd=550&Type=search", "url2": "http://www.anz.or.jp/" }, "geometry": { "type": "Point", "coordinates": [ 139.4504135, 36.3266964 ] } },
{ "type": "Feature", "properties": { "内容": "介護医療院ふじぬま【介護医療院】栃木県栃木市大平町富田5212-7医療法人藤沼医院", "url": "https://www.kaigokensaku.mhlw.go.jp/09/index.php?action_kouhyou_detail_004_kani=true&JigyosyoCd=09B0300019-00&ServiceCd=550&Type=search", "url2": "https://fujinumaclinic.com/" }, "geometry": { "type": "Point", "coordinates": [ 139.699638, 36.3379331 ] } },
{ "type": "Feature", "properties": { "内容": "医療法人社団　双愛会　介護医療院そうあい【介護医療院】栃木県日光市足尾町砂畑４１４７－２", "url": "https://www.kaigokensaku.mhlw.go.jp/09/index.php?action_kouhyou_detail_004_kani=true&JigyosyoCd=09B0600012-00&ServiceCd=550&Type=search", "url2": "http://www.ashiohp.com/" }, "geometry": { "type": "Point", "coordinates": [ 139.433862153360963, 36.629008690554564 ] } },
{ "type": "Feature", "properties": { "内容": "介護医療院　だんえん【介護医療院】栃木県日光市木和田島3008-10", "url": "https://www.kaigokensaku.mhlw.go.jp/09/index.php?action_kouhyou_detail_004_kani=true&JigyosyoCd=09B0600020-00&ServiceCd=550&Type=search", "url2": "https://yaoitakinenkai.or.jp" }, "geometry": { "type": "Point", "coordinates": [ 139.752706952639784, 36.681731385434006 ] } },
{ "type": "Feature", "properties": { "内容": "社団医療法人英静会介護医療院森の詩【介護医療院】栃木県日光市今市674森クリニック", "url": "https://www.kaigokensaku.mhlw.go.jp/09/index.php?action_kouhyou_detail_004_kani=true&JigyosyoCd=09B0600038-00&ServiceCd=550&Type=search", "url2": "https://eiseikai.or.jp/" }, "geometry": { "type": "Point", "coordinates": [ 139.686816599999986, 36.7266053 ] } },
{ "type": "Feature", "properties": { "内容": "介護医療院苅部太陽の家【介護医療院】栃木県小山市大字南飯田317-5", "url": "https://www.kaigokensaku.mhlw.go.jp/09/index.php?action_kouhyou_detail_004_kani=true&JigyosyoCd=09B0800019-00&ServiceCd=550&Type=search", "url2": "https://taiyou-house.jp/" }, "geometry": { "type": "Point", "coordinates": [ 139.7686168, 36.2459413 ] } },
{ "type": "Feature", "properties": { "内容": "介護医療院　苅部太陽の家【介護医療院】栃木県小山市大字南飯田317番地5", "url": "https://www.kaigokensaku.mhlw.go.jp/09/index.php?action_kouhyou_detail_004_kani=true&JigyosyoCd=09B0800018-00&ServiceCd=550&Type=search", "url2": "https://oyama-shinseikai.or.jp/" }, "geometry": { "type": "Point", "coordinates": [ 139.7686433, 36.2459191 ] } },
{ "type": "Feature", "properties": { "内容": "介護医療院マロニエ苑【介護医療院】栃木県那須塩原市井口５３３－４", "url": "https://www.kaigokensaku.mhlw.go.jp/09/index.php?action_kouhyou_detail_004_kani=true&JigyosyoCd=09B1300018-00&ServiceCd=550&Type=search", "url2": null }, "geometry": { "type": "Point", "coordinates": [ 139.9713419, 36.9116106 ] } },
{ "type": "Feature", "properties": { "内容": "黒磯病院介護医療院【介護医療院】高砂町3番5号", "url": "https://www.kaigokensaku.mhlw.go.jp/09/index.php?action_kouhyou_detail_004_kani=true&JigyosyoCd=09B1300026-00&ServiceCd=550&Type=search", "url2": "https://www.kuroiso-hp.jp" }, "geometry": { "type": "Point", "coordinates": [ 140.05069, 36.97308 ] } },
{ "type": "Feature", "properties": { "内容": "介護医療院　尾形医院【介護医療院】栃木県塩谷郡塩谷町玉生570番地1", "url": "https://www.kaigokensaku.mhlw.go.jp/09/index.php?action_kouhyou_detail_004_kani=true&JigyosyoCd=09B2600010-00&ServiceCd=550&Type=search", "url2": "https://www.o-ga-ta.or.jp" }, "geometry": { "type": "Point", "coordinates": [ 139.849966599999988, 36.7706584 ] } },
{ "type": "Feature", "properties": { "内容": "医療法人　AGRIE　介護医療院　アグリケア　エテルナ　しおや【介護医療院】玉生570-1", "url": "https://www.kaigokensaku.mhlw.go.jp/09/index.php?action_kouhyou_detail_004_kani=true&JigyosyoCd=09B2600036-00&ServiceCd=550&Type=search", "url2": "https://agrie.jp" }, "geometry": { "type": "Point", "coordinates": [ 139.849966599999988, 36.7706584 ] } },
{ "type": "Feature", "properties": { "内容": "菅又病院介護医療院【介護医療院】栃木県塩谷郡高根沢町花岡2351", "url": "https://www.kaigokensaku.mhlw.go.jp/09/index.php?action_kouhyou_detail_004_kani=true&JigyosyoCd=09B2600028-00&ServiceCd=550&Type=search", "url2": "https://www.sugamatahp.com/" }, "geometry": { "type": "Point", "coordinates": [ 140.0045304, 36.6555304 ] } }
]
}
