{
"type": "FeatureCollection",
"name": "geo_09_介護老人保健施設",
"crs": { "type": "name", "properties": { "name": "urn:ogc:def:crs:OGC:1.3:CRS84" } },
"features": [
{ "type": "Feature", "properties": { "内容": "野沢の里【介護老人保健施設】栃木県宇都宮市野沢町561－1", "url2": "https://www.kaigokensaku.mhlw.go.jp/09/index.php?action_kouhyou_detail_004_kani=true&JigyosyoCd=0950180000-00&ServiceCd=520&Type=search" }, "geometry": { "type": "Point", "coordinates": [ 139.858373300000039, 36.6148129 ] } },
{ "type": "Feature", "properties": { "内容": "老人保健施設　白楽園【介護老人保健施設】栃木県宇都宮市宝木本町２１４０番地２", "url2": "https://www.kaigokensaku.mhlw.go.jp/09/index.php?action_kouhyou_detail_004_kani=true&JigyosyoCd=0950180026-00&ServiceCd=520&Type=search" }, "geometry": { "type": "Point", "coordinates": [ 139.843906703179954, 36.629992073705012 ] } },
{ "type": "Feature", "properties": { "内容": "宇都宮シルバーホーム【介護老人保健施設】栃木県宇都宮市平出町413番地", "url2": "https://www.kaigokensaku.mhlw.go.jp/09/index.php?action_kouhyou_detail_004_kani=true&JigyosyoCd=0950180018-00&ServiceCd=520&Type=search" }, "geometry": { "type": "Point", "coordinates": [ 139.946911099999966, 36.5702412 ] } },
{ "type": "Feature", "properties": { "内容": "介護老人保健施設陽南【介護老人保健施設】栃木県宇都宮市陽南4-6-34", "url2": "https://www.kaigokensaku.mhlw.go.jp/09/index.php?action_kouhyou_detail_004_kani=true&JigyosyoCd=0950180042-00&ServiceCd=520&Type=search" }, "geometry": { "type": "Point", "coordinates": [ 139.867425799999978, 36.5371529 ] } },
{ "type": "Feature", "properties": { "内容": "老人保健施設　ファミール滝の原【介護老人保健施設】栃木県宇都宮市鶴田町3375", "url2": "https://www.kaigokensaku.mhlw.go.jp/09/index.php?action_kouhyou_detail_004_kani=true&JigyosyoCd=0950180059-00&ServiceCd=520&Type=search" }, "geometry": { "type": "Point", "coordinates": [ 139.861724917721517, 36.543976124862837 ] } },
{ "type": "Feature", "properties": { "内容": "ホスピア宇都宮【介護老人保健施設】栃木県宇都宮市東宿郷２－１－１", "url2": "https://www.kaigokensaku.mhlw.go.jp/09/index.php?action_kouhyou_detail_004_kani=true&JigyosyoCd=0950180067-00&ServiceCd=520&Type=search" }, "geometry": { "type": "Point", "coordinates": [ 139.8998054, 36.5578322 ] } },
{ "type": "Feature", "properties": { "内容": "うつのみや病院附属介護老人保健施設）【介護老人保健施設】栃木県宇都宮市南高砂町11番17号", "url2": "https://www.kaigokensaku.mhlw.go.jp/09/index.php?action_kouhyou_detail_004_kani=true&JigyosyoCd=0950180075-00&ServiceCd=520&Type=search" }, "geometry": { "type": "Point", "coordinates": [ 139.870788446627103, 36.48329711189367 ] } },
{ "type": "Feature", "properties": { "内容": "介護老人保健施設　いこいの郷【介護老人保健施設】栃木県宇都宮市岩曾町１１０４－４", "url2": "https://www.kaigokensaku.mhlw.go.jp/09/index.php?action_kouhyou_detail_004_kani=true&JigyosyoCd=0950180083-00&ServiceCd=520&Type=search" }, "geometry": { "type": "Point", "coordinates": [ 139.901395800000046, 36.580366 ] } },
{ "type": "Feature", "properties": { "内容": "介護老人保健施設　しらさぎ荘【介護老人保健施設】栃木県宇都宮市白沢町７７１番地", "url2": "https://www.kaigokensaku.mhlw.go.jp/09/index.php?action_kouhyou_detail_004_kani=true&JigyosyoCd=0952180016-00&ServiceCd=520&Type=search" }, "geometry": { "type": "Point", "coordinates": [ 139.945461900000026, 36.6315888 ] } },
{ "type": "Feature", "properties": { "内容": "老人保健施設　宇都宮アルトピア【介護老人保健施設】栃木県宇都宮市石井町3385番地", "url2": "https://www.kaigokensaku.mhlw.go.jp/09/index.php?action_kouhyou_detail_004_kani=true&JigyosyoCd=0950180034-00&ServiceCd=520&Type=search" }, "geometry": { "type": "Point", "coordinates": [ 139.919657536245694, 36.52975034584891 ] } },
{ "type": "Feature", "properties": { "内容": "介護老人保健施設　グリーンヒルズ２１【介護老人保健施設】栃木県足利市大前町1220", "url2": "https://www.kaigokensaku.mhlw.go.jp/09/index.php?action_kouhyou_detail_004_kani=true&JigyosyoCd=0950280024-00&ServiceCd=520&Type=search" }, "geometry": { "type": "Point", "coordinates": [ 139.403503499999943, 36.3630702 ] } },
{ "type": "Feature", "properties": { "内容": "介護老人保健施設　四恩苑【介護老人保健施設】栃木県足利市多田木町1168-1", "url2": "https://www.kaigokensaku.mhlw.go.jp/09/index.php?action_kouhyou_detail_004_kani=true&JigyosyoCd=0950280032-00&ServiceCd=520&Type=search" }, "geometry": { "type": "Point", "coordinates": [ 139.531800100000027, 36.3139066 ] } },
{ "type": "Feature", "properties": { "内容": "介護老人保健施設　マーガレットヒルズ【介護老人保健施設】栃木県足利市五十部町１７４９番地５", "url2": "https://www.kaigokensaku.mhlw.go.jp/09/index.php?action_kouhyou_detail_004_kani=true&JigyosyoCd=0950280057-00&ServiceCd=520&Type=search" }, "geometry": { "type": "Point", "coordinates": [ 139.422654400000056, 36.3518244 ] } },
{ "type": "Feature", "properties": { "内容": "介護老人保健施設　たすけあい【介護老人保健施設】栃木県足利市花園町１－２", "url2": "https://www.kaigokensaku.mhlw.go.jp/09/index.php?action_kouhyou_detail_004_kani=true&JigyosyoCd=0950280065-00&ServiceCd=520&Type=search" }, "geometry": { "type": "Point", "coordinates": [ 139.474477200000024, 36.3359996 ] } },
{ "type": "Feature", "properties": { "内容": "介護老人保健施設　葵の園・足利【介護老人保健施設】栃木県足利市常見町二丁目10-1", "url2": "https://www.kaigokensaku.mhlw.go.jp/09/index.php?action_kouhyou_detail_004_kani=true&JigyosyoCd=0950280073-00&ServiceCd=520&Type=search" }, "geometry": { "type": "Point", "coordinates": [ 139.48618631904904, 36.318230386576865 ] } },
{ "type": "Feature", "properties": { "内容": "介護老人保健施設　グリーンホーム【介護老人保健施設】栃木県足利市福居町1210", "url2": "https://www.kaigokensaku.mhlw.go.jp/09/index.php?action_kouhyou_detail_004_kani=true&JigyosyoCd=0950280016-00&ServiceCd=520&Type=search" }, "geometry": { "type": "Point", "coordinates": [ 139.460223199999973, 36.3067159 ] } },
{ "type": "Feature", "properties": { "内容": "一般財団法人とちぎメディカルセンター　介護老人保健施設とちぎの郷【介護老人保健施設】栃木県栃木市境町２７番２１号", "url2": "https://www.kaigokensaku.mhlw.go.jp/09/index.php?action_kouhyou_detail_004_kani=true&JigyosyoCd=0950380030-00&ServiceCd=520&Type=search" }, "geometry": { "type": "Point", "coordinates": [ 139.727073322107003, 36.368429458171555 ] } },
{ "type": "Feature", "properties": { "内容": "介護老人保健施設にしかた【介護老人保健施設】栃木県栃木市西方町金崎273番地", "url2": "https://www.kaigokensaku.mhlw.go.jp/09/index.php?action_kouhyou_detail_004_kani=true&JigyosyoCd=0952280014-00&ServiceCd=520&Type=search" }, "geometry": { "type": "Point", "coordinates": [ 139.745951699999978, 36.468929 ] } },
{ "type": "Feature", "properties": { "内容": "介護老人保健施設　安純の里【介護老人保健施設】栃木県栃木市岩舟町古江４０５", "url2": "https://www.kaigokensaku.mhlw.go.jp/09/index.php?action_kouhyou_detail_004_kani=true&JigyosyoCd=0952380038-00&ServiceCd=520&Type=search" }, "geometry": { "type": "Point", "coordinates": [ 139.619547399999988, 36.3278272 ] } },
{ "type": "Feature", "properties": { "内容": "介護老人保健施設八州苑【介護老人保健施設】栃木県栃木市藤岡町太田1394番地1", "url2": "https://www.kaigokensaku.mhlw.go.jp/09/index.php?action_kouhyou_detail_004_kani=true&JigyosyoCd=0952380046-00&ServiceCd=520&Type=search" }, "geometry": { "type": "Point", "coordinates": [ 139.6491149, 36.3079826 ] } },
{ "type": "Feature", "properties": { "内容": "介護老人保健施設　ノイエシュテルン【介護老人保健施設】栃木県栃木市惣社町138番地", "url2": "https://www.kaigokensaku.mhlw.go.jp/09/index.php?action_kouhyou_detail_004_kani=true&JigyosyoCd=0950380022-00&ServiceCd=520&Type=search" }, "geometry": { "type": "Point", "coordinates": [ 139.7811653, 36.3999576 ] } },
{ "type": "Feature", "properties": { "内容": "介護老人保健施設　リハビリパークぶどうの舎【介護老人保健施設】栃木県栃木市大平町富田5-232", "url2": "https://www.kaigokensaku.mhlw.go.jp/09/index.php?action_kouhyou_detail_004_kani=true&JigyosyoCd=0951680016-00&ServiceCd=520&Type=search" }, "geometry": { "type": "Point", "coordinates": [ 139.705106256097451, 36.335701487191457 ] } },
{ "type": "Feature", "properties": { "内容": "介護老人保健施設　和の里【介護老人保健施設】栃木県佐野市高砂町２８００－１", "url2": "https://www.kaigokensaku.mhlw.go.jp/09/index.php?action_kouhyou_detail_004_kani=true&JigyosyoCd=0950480004-00&ServiceCd=520&Type=search" }, "geometry": { "type": "Point", "coordinates": [ 139.5792993, 36.3130548 ] } },
{ "type": "Feature", "properties": { "内容": "介護老人保健施設佐野ナーシングクワサキ【介護老人保健施設】栃木県佐野市免鳥町４７２－１", "url2": "https://www.kaigokensaku.mhlw.go.jp/09/index.php?action_kouhyou_detail_004_kani=true&JigyosyoCd=0950480012-00&ServiceCd=520&Type=search" }, "geometry": { "type": "Point", "coordinates": [ 139.546843699999954, 36.3104321 ] } },
{ "type": "Feature", "properties": { "内容": "介護老人保健施設　さくらの里【介護老人保健施設】栃木県佐野市寺久保町248-1", "url2": "https://www.kaigokensaku.mhlw.go.jp/09/index.php?action_kouhyou_detail_004_kani=true&JigyosyoCd=0950480020-00&ServiceCd=520&Type=search" }, "geometry": { "type": "Point", "coordinates": [ 139.5267735, 36.3758804 ] } },
{ "type": "Feature", "properties": { "内容": "介護老人保健施設　あさひ【介護老人保健施設】栃木県佐野市葛生東1-15-7", "url2": "https://www.kaigokensaku.mhlw.go.jp/09/index.php?action_kouhyou_detail_004_kani=true&JigyosyoCd=0950480046-00&ServiceCd=520&Type=search" }, "geometry": { "type": "Point", "coordinates": [ 139.61343080000006, 36.4019477 ] } },
{ "type": "Feature", "properties": { "内容": "介護老人保健施設　あそヘルホス【介護老人保健施設】栃木県佐野市田沼町1832-1", "url2": "https://www.kaigokensaku.mhlw.go.jp/09/index.php?action_kouhyou_detail_004_kani=true&JigyosyoCd=0950480061-00&ServiceCd=520&Type=search" }, "geometry": { "type": "Point", "coordinates": [ 139.582464120901477, 36.37311378225327 ] } },
{ "type": "Feature", "properties": { "内容": "老人保健施設かみつが【介護老人保健施設】栃木県鹿沼市上殿町９６０－２老人保健施設かみつが", "url2": "https://www.kaigokensaku.mhlw.go.jp/09/index.php?action_kouhyou_detail_004_kani=true&JigyosyoCd=0950580027-00&ServiceCd=520&Type=search" }, "geometry": { "type": "Point", "coordinates": [ 139.7521736, 36.5544289 ] } },
{ "type": "Feature", "properties": { "内容": "医療法人桃李会　介護老人保健施設ほほえみ【介護老人保健施設】栃木県鹿沼市今宮町１６８２番地２", "url2": "https://www.kaigokensaku.mhlw.go.jp/09/index.php?action_kouhyou_detail_004_kani=true&JigyosyoCd=0950580035-00&ServiceCd=520&Type=search" }, "geometry": { "type": "Point", "coordinates": [ 139.744571468647791, 36.567880409751517 ] } },
{ "type": "Feature", "properties": { "内容": "介護老人保健施設　たけむらクローバー館【介護老人保健施設】栃木県鹿沼市茂呂１８５８-１４７", "url2": "https://www.kaigokensaku.mhlw.go.jp/09/index.php?action_kouhyou_detail_004_kani=true&JigyosyoCd=0950580043-00&ServiceCd=520&Type=search" }, "geometry": { "type": "Point", "coordinates": [ 139.77173629999993, 36.5366567 ] } },
{ "type": "Feature", "properties": { "内容": "医療法人社団双愛会介護老人保健施設そうあい（介護老人保健施設）【介護老人保健施設】栃木県日光市足尾町砂畑4147-2", "url2": "https://www.kaigokensaku.mhlw.go.jp/09/index.php?action_kouhyou_detail_004_kani=true&JigyosyoCd=0950680025-00&ServiceCd=520&Type=search" }, "geometry": { "type": "Point", "coordinates": [ 139.433969400000024, 36.628977 ] } },
{ "type": "Feature", "properties": { "内容": "介護老人保健施設にっこう【介護老人保健施設】栃木県日光市清滝安良沢町1752-10", "url2": "https://www.kaigokensaku.mhlw.go.jp/09/index.php?action_kouhyou_detail_004_kani=true&JigyosyoCd=0950680017-00&ServiceCd=520&Type=search" }, "geometry": { "type": "Point", "coordinates": [ 139.576215899999966, 36.7497155 ] } },
{ "type": "Feature", "properties": { "内容": "介護老人保健施設見龍堂メディケアユニッツ【介護老人保健施設】栃木県日光市木和田島3008-8", "url2": "https://www.kaigokensaku.mhlw.go.jp/09/index.php?action_kouhyou_detail_004_kani=true&JigyosyoCd=0950780007-00&ServiceCd=520&Type=search" }, "geometry": { "type": "Point", "coordinates": [ 139.752911899999958, 36.681261 ] } },
{ "type": "Feature", "properties": { "内容": "介護老人保健施設　今市Ｌケアセンター【介護老人保健施設】栃木県日光市平ヶ崎６０５－１", "url2": "https://www.kaigokensaku.mhlw.go.jp/09/index.php?action_kouhyou_detail_004_kani=true&JigyosyoCd=0950780015-00&ServiceCd=520&Type=search" }, "geometry": { "type": "Point", "coordinates": [ 139.681820799999969, 36.7158745 ] } },
{ "type": "Feature", "properties": { "内容": "介護老人保健施設ヴィラフォーレスタ（森の家）【介護老人保健施設】栃木県日光市根室６０７-５", "url2": "https://www.kaigokensaku.mhlw.go.jp/09/index.php?action_kouhyou_detail_004_kani=true&JigyosyoCd=0950780023-00&ServiceCd=520&Type=search" }, "geometry": { "type": "Point", "coordinates": [ 139.779072, 36.7084002 ] } },
{ "type": "Feature", "properties": { "内容": "介護老人保健施設　さくら野【介護老人保健施設】栃木県小山市大字卒島１１０番地", "url2": "https://www.kaigokensaku.mhlw.go.jp/09/index.php?action_kouhyou_detail_004_kani=true&JigyosyoCd=0950880039-00&ServiceCd=520&Type=search" }, "geometry": { "type": "Point", "coordinates": [ 139.778082400000017, 36.3386926 ] } },
{ "type": "Feature", "properties": { "内容": "介護老人保健施設　つむぎの郷【介護老人保健施設】栃木県小山市犬塚６２-２", "url2": "https://www.kaigokensaku.mhlw.go.jp/09/index.php?action_kouhyou_detail_004_kani=true&JigyosyoCd=0950880013-00&ServiceCd=520&Type=search" }, "geometry": { "type": "Point", "coordinates": [ 139.832775199999986, 36.3226082 ] } },
{ "type": "Feature", "properties": { "内容": "医療法人　朝日会　介護老人保健施設　思川ケアステージ【介護老人保健施設】栃木県小山市喜沢660", "url2": "https://www.kaigokensaku.mhlw.go.jp/09/index.php?action_kouhyou_detail_004_kani=true&JigyosyoCd=0950880047-00&ServiceCd=520&Type=search" }, "geometry": { "type": "Point", "coordinates": [ 139.821600600000011, 36.3457718 ] } },
{ "type": "Feature", "properties": { "内容": "介護老人保健施設晃南【介護老人保健施設】栃木県小山市乙女７９５", "url2": "https://www.kaigokensaku.mhlw.go.jp/09/index.php?action_kouhyou_detail_004_kani=true&JigyosyoCd=0950880054-00&ServiceCd=520&Type=search" }, "geometry": { "type": "Point", "coordinates": [ 139.745696616622212, 36.252276434964998 ] } },
{ "type": "Feature", "properties": { "内容": "介護老人保健施設　空の舎【介護老人保健施設】栃木県小山市若木町一丁目1-2", "url2": "https://www.kaigokensaku.mhlw.go.jp/09/index.php?action_kouhyou_detail_004_kani=true&JigyosyoCd=0950880070-00&ServiceCd=520&Type=search" }, "geometry": { "type": "Point", "coordinates": [ 139.800519799999989, 36.3230064 ] } },
{ "type": "Feature", "properties": { "内容": "介護老人保健施設　祇園荘【介護老人保健施設】栃木県小山市城山町2丁目7番18号", "url2": "https://www.kaigokensaku.mhlw.go.jp/09/index.php?action_kouhyou_detail_004_kani=true&JigyosyoCd=0950880021-00&ServiceCd=520&Type=search" }, "geometry": { "type": "Point", "coordinates": [ 139.803411200000028, 36.3150133 ] } },
{ "type": "Feature", "properties": { "内容": "介護老人保健施設　春祺荘【介護老人保健施設】栃木県真岡市亀山350-1", "url2": "https://www.kaigokensaku.mhlw.go.jp/09/index.php?action_kouhyou_detail_004_kani=true&JigyosyoCd=0950980011-00&ServiceCd=520&Type=search" }, "geometry": { "type": "Point", "coordinates": [ 139.988596, 36.4607491 ] } },
{ "type": "Feature", "properties": { "内容": "ナーシングホーム青葉【介護老人保健施設】栃木県真岡市高勢町一丁目２０９－１", "url2": "https://www.kaigokensaku.mhlw.go.jp/09/index.php?action_kouhyou_detail_004_kani=true&JigyosyoCd=0950980029-00&ServiceCd=520&Type=search" }, "geometry": { "type": "Point", "coordinates": [ 139.978714299999979, 36.4368541 ] } },
{ "type": "Feature", "properties": { "内容": "わたのみ荘【介護老人保健施設】栃木県真岡市荒町３丁目４６番地９", "url2": "https://www.kaigokensaku.mhlw.go.jp/09/index.php?action_kouhyou_detail_004_kani=true&JigyosyoCd=0950980037-00&ServiceCd=520&Type=search" }, "geometry": { "type": "Point", "coordinates": [ 140.01698, 36.4457295 ] } },
{ "type": "Feature", "properties": { "内容": "介護老人保健施設　同仁苑【介護老人保健施設】栃木県大田原市下石上1452番地", "url2": "https://www.kaigokensaku.mhlw.go.jp/09/index.php?action_kouhyou_detail_004_kani=true&JigyosyoCd=0951080001-00&ServiceCd=520&Type=search" }, "geometry": { "type": "Point", "coordinates": [ 139.948071700000014, 36.8564476 ] } },
{ "type": "Feature", "properties": { "内容": "介護老人保健施設椿寿荘【介護老人保健施設】栃木県大田原市末広１丁目２番５号", "url2": "https://www.kaigokensaku.mhlw.go.jp/09/index.php?action_kouhyou_detail_004_kani=true&JigyosyoCd=0951080019-00&ServiceCd=520&Type=search" }, "geometry": { "type": "Point", "coordinates": [ 140.020618900000045, 36.8605882 ] } },
{ "type": "Feature", "properties": { "内容": "介護老人保健施設アゼリアホーム【介護老人保健施設】栃木県矢板市末広町４５番地３", "url2": "https://www.kaigokensaku.mhlw.go.jp/09/index.php?action_kouhyou_detail_004_kani=true&JigyosyoCd=0951180017-00&ServiceCd=520&Type=search" }, "geometry": { "type": "Point", "coordinates": [ 139.935592, 36.8049451 ] } },
{ "type": "Feature", "properties": { "内容": "介護老人保健施設　葵の園・那須塩原【介護老人保健施設】栃木県那須塩原市鍋掛1088-719", "url2": "https://www.kaigokensaku.mhlw.go.jp/09/index.php?action_kouhyou_detail_004_kani=true&JigyosyoCd=0951380021-00&ServiceCd=520&Type=search" }, "geometry": { "type": "Point", "coordinates": [ 140.073018854631044, 36.955865136028002 ] } },
{ "type": "Feature", "properties": { "内容": "介護老人保健施設マロニエ苑【介護老人保健施設】栃木県那須塩原市井口５３３－４", "url2": "https://www.kaigokensaku.mhlw.go.jp/09/index.php?action_kouhyou_detail_004_kani=true&JigyosyoCd=0951380005-00&ServiceCd=520&Type=search" }, "geometry": { "type": "Point", "coordinates": [ 139.972494, 36.911467 ] } },
{ "type": "Feature", "properties": { "内容": "介護老人保健施設いたむろ（平成22年度新規指定事業所）【介護老人保健施設】栃木県那須塩原市百村3042番地31", "url2": "https://www.kaigokensaku.mhlw.go.jp/09/index.php?action_kouhyou_detail_004_kani=true&JigyosyoCd=0951380013-00&ServiceCd=520&Type=search" }, "geometry": { "type": "Point", "coordinates": [ 139.9391458, 37.047101500000011 ] } },
{ "type": "Feature", "properties": { "内容": "介護老人保健施設　秋桜の家【介護老人保健施設】栃木県那須塩原市大原間81", "url2": "https://www.kaigokensaku.mhlw.go.jp/09/index.php?action_kouhyou_detail_004_kani=true&JigyosyoCd=0951280015-00&ServiceCd=520&Type=search" }, "geometry": { "type": "Point", "coordinates": [ 140.020711099999971, 36.9250009 ] } },
{ "type": "Feature", "properties": { "内容": "ケア・ステージ氏家【介護老人保健施設】栃木県さくら市向河原4084", "url2": "https://www.kaigokensaku.mhlw.go.jp/09/index.php?action_kouhyou_detail_004_kani=true&JigyosyoCd=0952680015-00&ServiceCd=520&Type=search" }, "geometry": { "type": "Point", "coordinates": [ 139.940604406221041, 36.694265491686224 ] } },
{ "type": "Feature", "properties": { "内容": "介護老人保健施設いずみ【介護老人保健施設】栃木県さくら市氏家2650番地", "url2": "https://www.kaigokensaku.mhlw.go.jp/09/index.php?action_kouhyou_detail_004_kani=true&JigyosyoCd=0952680031-00&ServiceCd=520&Type=search" }, "geometry": { "type": "Point", "coordinates": [ 139.968174699999963, 36.67968 ] } },
{ "type": "Feature", "properties": { "内容": "介護老人保健施設　富士山苑【介護老人保健施設】栃木県那須烏山市滝田1868-28", "url2": "https://www.kaigokensaku.mhlw.go.jp/09/index.php?action_kouhyou_detail_004_kani=true&JigyosyoCd=0952580025-00&ServiceCd=520&Type=search" }, "geometry": { "type": "Point", "coordinates": [ 140.145636100000047, 36.6803487 ] } },
{ "type": "Feature", "properties": { "内容": "南那須介護老人保健施設【介護老人保健施設】栃木県那須烏山市鴻野山２１２－２", "url2": "https://www.kaigokensaku.mhlw.go.jp/09/index.php?action_kouhyou_detail_004_kani=true&JigyosyoCd=0952580033-00&ServiceCd=520&Type=search" }, "geometry": { "type": "Point", "coordinates": [ 140.058705700000019, 36.6654785 ] } },
{ "type": "Feature", "properties": { "内容": "お達者倶楽部【介護老人保健施設】栃木県下野市薬師寺2472番地5", "url2": "https://www.kaigokensaku.mhlw.go.jp/09/index.php?action_kouhyou_detail_004_kani=true&JigyosyoCd=0952180024-00&ServiceCd=520&Type=search" }, "geometry": { "type": "Point", "coordinates": [ 139.865730781275943, 36.391812932069989 ] } },
{ "type": "Feature", "properties": { "内容": "介護老人保健施設　看清坊【介護老人保健施設】栃木県芳賀郡益子町益子４４９３番地", "url2": "https://www.kaigokensaku.mhlw.go.jp/09/index.php?action_kouhyou_detail_004_kani=true&JigyosyoCd=0952780021-00&ServiceCd=520&Type=search" }, "geometry": { "type": "Point", "coordinates": [ 140.114154500000041, 36.4495918 ] } },
{ "type": "Feature", "properties": { "内容": "介護老人保健施設　シルバーケアホーム　のぞみ【介護老人保健施設】栃木県芳賀郡益子町大字塙316", "url2": "https://www.kaigokensaku.mhlw.go.jp/09/index.php?action_kouhyou_detail_004_kani=true&JigyosyoCd=0952780013-00&ServiceCd=520&Type=search" }, "geometry": { "type": "Point", "coordinates": [ 140.078160199999957, 36.4593845 ] } },
{ "type": "Feature", "properties": { "内容": "介護老人保健施設もてぎの森うごうだ城【介護老人保健施設】栃木県芳賀郡茂木町大字烏生田３３０番地", "url2": "https://www.kaigokensaku.mhlw.go.jp/09/index.php?action_kouhyou_detail_004_kani=true&JigyosyoCd=0952780005-00&ServiceCd=520&Type=search" }, "geometry": { "type": "Point", "coordinates": [ 140.179537799999906, 36.5797257 ] } },
{ "type": "Feature", "properties": { "内容": "老人保健施設　みなと荘【介護老人保健施設】栃木県下都賀郡壬生町大字北小林８１５", "url2": "https://www.kaigokensaku.mhlw.go.jp/09/index.php?action_kouhyou_detail_004_kani=true&JigyosyoCd=0952380012-00&ServiceCd=520&Type=search" }, "geometry": { "type": "Point", "coordinates": [ 139.821712103843652, 36.475897100241134 ] } },
{ "type": "Feature", "properties": { "内容": "介護老人保健施設　ひまわり荘【介護老人保健施設】栃木県下都賀郡野木町南赤塚1218-1", "url2": "https://www.kaigokensaku.mhlw.go.jp/09/index.php?action_kouhyou_detail_004_kani=true&JigyosyoCd=0952380020-00&ServiceCd=520&Type=search" }, "geometry": { "type": "Point", "coordinates": [ 139.747914199999968, 36.2189643 ] } },
{ "type": "Feature", "properties": { "内容": "介護老人保健施設　アグリケアコート　しおや【介護老人保健施設】栃木県塩谷郡塩谷町玉生570‐1", "url2": "https://www.kaigokensaku.mhlw.go.jp/09/index.php?action_kouhyou_detail_004_kani=true&JigyosyoCd=0952680056-00&ServiceCd=520&Type=search" }, "geometry": { "type": "Point", "coordinates": [ 139.849966599999988, 36.7706584 ] } },
{ "type": "Feature", "properties": { "内容": "高根沢シルバーホーム【介護老人保健施設】栃木県塩谷郡高根沢町石末1005番地8", "url2": "https://www.kaigokensaku.mhlw.go.jp/09/index.php?action_kouhyou_detail_004_kani=true&JigyosyoCd=0952680023-00&ServiceCd=520&Type=search" }, "geometry": { "type": "Point", "coordinates": [ 140.00331529999994, 36.6331872 ] } }
]
}
