{
"type": "FeatureCollection",
"name": "geo_09_訪問リハビリテーション",
"crs": { "type": "name", "properties": { "name": "urn:ogc:def:crs:OGC:1.3:CRS84" } },
"features": [
{ "type": "Feature", "properties": { "内容": "医療法人社団　宇光会　村井クリニック【訪問リハビリテーション】栃木県宇都宮市宝木町1-2589村井クリニック", "url": "https://www.kaigokensaku.mhlw.go.jp/09/index.php?action_kouhyou_detail_004_kani=true&JigyosyoCd=0910111368-00&ServiceCd=140&Type=search", "url2": "http://murai-opc.org/" }, "geometry": { "type": "Point", "coordinates": [ 139.858532700000069, 36.581764 ] } },
{ "type": "Feature", "properties": { "内容": "森医院　訪問リハビリテーションふたたびの森【訪問リハビリテーション】雀の宮6-5-5", "url": "https://www.kaigokensaku.mhlw.go.jp/09/index.php?action_kouhyou_detail_004_kani=true&JigyosyoCd=0910113836-00&ServiceCd=140&Type=search", "url2": "https://shingenkaimoriiin.wixsite.com/my-site" }, "geometry": { "type": "Point", "coordinates": [ 139.868356585983292, 36.491728859031774 ] } },
{ "type": "Feature", "properties": { "内容": "宇都宮シルバーホーム【訪問リハビリテーション】栃木県宇都宮市平出町413番地", "url": "https://www.kaigokensaku.mhlw.go.jp/09/index.php?action_kouhyou_detail_004_kani=true&JigyosyoCd=0950180018-00&ServiceCd=140&Type=search", "url2": "https://www.hokutokai.or.jp" }, "geometry": { "type": "Point", "coordinates": [ 139.946932299999986, 36.5702047 ] } },
{ "type": "Feature", "properties": { "内容": "医療法人社団　洋精会　沼尾病院【訪問リハビリテーション】栃木県宇都宮市星が丘１丁目７番３８号", "url": "https://www.kaigokensaku.mhlw.go.jp/09/index.php?action_kouhyou_detail_004_kani=true&JigyosyoCd=0910110121-00&ServiceCd=140&Type=search", "url2": "https://www.numaog.or.jp/" }, "geometry": { "type": "Point", "coordinates": [ 139.875257199999965, 36.568005 ] } },
{ "type": "Feature", "properties": { "内容": "老人保健施設　白楽園【訪問リハビリテーション】栃木県宇都宮市宝木本町２１４０－２", "url": "https://www.kaigokensaku.mhlw.go.jp/09/index.php?action_kouhyou_detail_004_kani=true&JigyosyoCd=0950180026-00&ServiceCd=140&Type=search", "url2": "http://numaog.or.jp/" }, "geometry": { "type": "Point", "coordinates": [ 139.84393190000003, 36.6298081 ] } },
{ "type": "Feature", "properties": { "内容": "生協ふたば診療所【訪問リハビリテーション】栃木県宇都宮市双葉1丁目13⁻56", "url": "https://www.kaigokensaku.mhlw.go.jp/09/index.php?action_kouhyou_detail_004_kani=true&JigyosyoCd=0910112200-00&ServiceCd=140&Type=search", "url2": "https://www.seikyo-futaba.tochigihoken.or.jp/" }, "geometry": { "type": "Point", "coordinates": [ 139.860806, 36.5247823 ] } },
{ "type": "Feature", "properties": { "内容": "宇都宮協立診療所【訪問リハビリテーション】栃木県宇都宮市宝木町2丁目1016-5", "url": "https://www.kaigokensaku.mhlw.go.jp/09/index.php?action_kouhyou_detail_004_kani=true&JigyosyoCd=0910112614-00&ServiceCd=140&Type=search", "url2": "https://www.utsunomiya-kyoritsu.tochigihoken.or.jp/" }, "geometry": { "type": "Point", "coordinates": [ 139.844431399999962, 36.5909486 ] } },
{ "type": "Feature", "properties": { "内容": "宇都宮リハビリテーション病院【訪問リハビリテーション】栃木県宇都宮市御幸ケ原町43-2", "url": "https://www.kaigokensaku.mhlw.go.jp/09/index.php?action_kouhyou_detail_004_kani=true&JigyosyoCd=0910113323-00&ServiceCd=140&Type=search", "url2": "http://www.utsunomiyarh-hp.jp/" }, "geometry": { "type": "Point", "coordinates": [ 139.926964600000019, 36.5910132 ] } },
{ "type": "Feature", "properties": { "内容": "新宇都宮リハビリテーション病院【訪問リハビリテーション】栃木県宇都宮市東今泉2丁目5番31", "url": "https://www.kaigokensaku.mhlw.go.jp/09/index.php?action_kouhyou_detail_004_kani=true&JigyosyoCd=0910117969-00&ServiceCd=140&Type=search", "url2": "https://shin-utsunomiya.jp/" }, "geometry": { "type": "Point", "coordinates": [ 139.9203919, 36.5580972 ] } },
{ "type": "Feature", "properties": { "内容": "医療法人　慈風会　関内科医院【訪問リハビリテーション】栃木県足利市利保町3-7-1", "url": "https://www.kaigokensaku.mhlw.go.jp/09/index.php?action_kouhyou_detail_004_kani=true&JigyosyoCd=0910210228-00&ServiceCd=140&Type=search", "url2": null }, "geometry": { "type": "Point", "coordinates": [ 139.472323499999987, 36.3595084 ] } },
{ "type": "Feature", "properties": { "内容": "皆川病院　訪問リハビリテーション【訪問リハビリテーション】栃木県足利市多田木町1168-1", "url": "https://www.kaigokensaku.mhlw.go.jp/09/index.php?action_kouhyou_detail_004_kani=true&JigyosyoCd=0910210509-00&ServiceCd=140&Type=search", "url2": "http://www.ryu-sei.or.jp" }, "geometry": { "type": "Point", "coordinates": [ 139.5320168, 36.3138396 ] } },
{ "type": "Feature", "properties": { "内容": "訪問リハビリテーションにしだ【訪問リハビリテーション】小俣町1789-1", "url": "https://www.kaigokensaku.mhlw.go.jp/09/index.php?action_kouhyou_detail_004_kani=true&JigyosyoCd=0910210772-00&ServiceCd=140&Type=search", "url2": null }, "geometry": { "type": "Point", "coordinates": [ 139.379555399999987, 36.3735228 ] } },
{ "type": "Feature", "properties": { "内容": "蔵の街診療所【訪問リハビリテーション】栃木県栃木市今泉町1-17-29", "url": "https://www.kaigokensaku.mhlw.go.jp/09/index.php?action_kouhyou_detail_004_kani=true&JigyosyoCd=0910310598-00&ServiceCd=140&Type=search", "url2": "http://www.asmss.jp/kura.html" }, "geometry": { "type": "Point", "coordinates": [ 139.7490805, 36.3868801 ] } },
{ "type": "Feature", "properties": { "内容": "整形外科メディカルパパス　訪問リハビリマンダリン【訪問リハビリテーション】大平町西水代1943-1", "url": "https://www.kaigokensaku.mhlw.go.jp/09/index.php?action_kouhyou_detail_004_kani=true&JigyosyoCd=0910311075-00&ServiceCd=140&Type=search", "url2": "https://medical-papas.jimdofree.com" }, "geometry": { "type": "Point", "coordinates": [ 139.710643800000014, 36.3191325 ] } },
{ "type": "Feature", "properties": { "内容": "介護老人保健施設　ノイエシュテルン（訪問リハビリ事業）【訪問リハビリテーション】栃木県栃木市惣社町138番地", "url": "https://www.kaigokensaku.mhlw.go.jp/09/index.php?action_kouhyou_detail_004_kani=true&JigyosyoCd=0950380022-00&ServiceCd=140&Type=search", "url2": "http://www.sfk.or.jp" }, "geometry": { "type": "Point", "coordinates": [ 139.7811653, 36.3999576 ] } },
{ "type": "Feature", "properties": { "内容": "介護老人保健施設にしかた【訪問リハビリテーション】栃木県栃木市西方町金崎２７３番地", "url": "https://www.kaigokensaku.mhlw.go.jp/09/index.php?action_kouhyou_detail_004_kani=true&JigyosyoCd=0952280014-00&ServiceCd=140&Type=search", "url2": "http://www.cc9.ne.jp/~nishikata-hosp/" }, "geometry": { "type": "Point", "coordinates": [ 139.746015103565981, 36.469050127869203 ] } },
{ "type": "Feature", "properties": { "内容": "介護老人保健施設やすらぎの里八州苑【訪問リハビリテーション】栃木県栃木市藤岡町太田1394番地1", "url": "https://www.kaigokensaku.mhlw.go.jp/09/index.php?action_kouhyou_detail_004_kani=true&JigyosyoCd=0952380046-00&ServiceCd=140&Type=search", "url2": "https://www.mokusuikai.com/" }, "geometry": { "type": "Point", "coordinates": [ 139.6491149, 36.3079826 ] } },
{ "type": "Feature", "properties": { "内容": "緑の屋根診療所【訪問リハビリテーション】栃木県佐野市堀米町1348‐5", "url": "https://www.kaigokensaku.mhlw.go.jp/09/index.php?action_kouhyou_detail_004_kani=true&JigyosyoCd=0910410620-00&ServiceCd=140&Type=search", "url2": "http://midorinoyane.com" }, "geometry": { "type": "Point", "coordinates": [ 139.579415400000016, 36.3292923 ] } },
{ "type": "Feature", "properties": { "内容": "御殿山病院訪問リハビテーション事業所【訪問リハビリテーション】栃木県鹿沼市今宮町1682-2御殿山病院", "url": "https://www.kaigokensaku.mhlw.go.jp/09/index.php?action_kouhyou_detail_004_kani=true&JigyosyoCd=0910510148-00&ServiceCd=140&Type=search", "url2": "http://www.gotenyama.or.jp/" }, "geometry": { "type": "Point", "coordinates": [ 139.744996, 36.5678188 ] } },
{ "type": "Feature", "properties": { "内容": "介護老人保健施設ヴィラフォーレスタ（森の家）【訪問リハビリテーション】栃木県日光市根室６０７－５", "url": "https://www.kaigokensaku.mhlw.go.jp/09/index.php?action_kouhyou_detail_004_kani=true&JigyosyoCd=0950780023-00&ServiceCd=140&Type=search", "url2": "https://www.villaforesta.jp/" }, "geometry": { "type": "Point", "coordinates": [ 139.779072, 36.7084002 ] } },
{ "type": "Feature", "properties": { "内容": "医療法人社団双愛会足尾双愛病院【訪問リハビリテーション】栃木県日光市足尾町砂畑4147－2", "url": "https://www.kaigokensaku.mhlw.go.jp/09/index.php?action_kouhyou_detail_004_kani=true&JigyosyoCd=0912210085-00&ServiceCd=140&Type=search", "url2": null }, "geometry": { "type": "Point", "coordinates": [ 139.433874899999978, 36.6290214 ] } },
{ "type": "Feature", "properties": { "内容": "訪問リハビリテーション見龍堂メディケアユニッツ【訪問リハビリテーション】栃木県日光市木和田島3008-8", "url": "https://www.kaigokensaku.mhlw.go.jp/09/index.php?action_kouhyou_detail_004_kani=true&JigyosyoCd=0950780007-00&ServiceCd=140&Type=search", "url2": "http://yaoitakinenkai.or.jp/" }, "geometry": { "type": "Point", "coordinates": [ 139.752911899999958, 36.681261 ] } },
{ "type": "Feature", "properties": { "内容": "介護老人保健施設　今市Ｌケアセンター【訪問リハビリテーション】栃木県日光市平ヶ崎605-1", "url": "https://www.kaigokensaku.mhlw.go.jp/09/index.php?action_kouhyou_detail_004_kani=true&JigyosyoCd=0950780015-00&ServiceCd=140&Type=search", "url2": "http://yaoitakinenkai.or.jp" }, "geometry": { "type": "Point", "coordinates": [ 139.681809700000031, 36.715869 ] } },
{ "type": "Feature", "properties": { "内容": "ハンディクリニック【訪問リハビリテーション】栃木県小山市西城南6-3-9", "url": "https://www.kaigokensaku.mhlw.go.jp/09/index.php?action_kouhyou_detail_004_kani=true&JigyosyoCd=0910810910-00&ServiceCd=140&Type=search", "url2": "http://ai-grp.sakura.ne.jp/" }, "geometry": { "type": "Point", "coordinates": [ 139.803978535582019, 36.291206266321751 ] } },
{ "type": "Feature", "properties": { "内容": "医療法人おやま城北クリニック【訪問リハビリテーション】栃木県小山市喜沢1475-328", "url": "https://www.kaigokensaku.mhlw.go.jp/09/index.php?action_kouhyou_detail_004_kani=true&JigyosyoCd=0910810985-00&ServiceCd=140&Type=search", "url2": "http://www.asmss.jp/" }, "geometry": { "type": "Point", "coordinates": [ 139.8026074, 36.3303693 ] } },
{ "type": "Feature", "properties": { "内容": "介護老人保健施設晃南【訪問リハビリテーション】栃木県小山市乙女７９５番地介護老人保健施設晃南", "url": "https://www.kaigokensaku.mhlw.go.jp/09/index.php?action_kouhyou_detail_004_kani=true&JigyosyoCd=0950880054-00&ServiceCd=140&Type=search", "url2": "http://care-net.biz" }, "geometry": { "type": "Point", "coordinates": [ 139.745882749737518, 36.252218237626785 ] } },
{ "type": "Feature", "properties": { "内容": "だいなリハビリクリニック【訪問リハビリテーション】栃木県大田原市紫塚3丁目2633番地12", "url": "https://www.kaigokensaku.mhlw.go.jp/09/index.php?action_kouhyou_detail_004_kani=true&JigyosyoCd=0911010338-00&ServiceCd=140&Type=search", "url2": "http://dyna.gotdns.com/" }, "geometry": { "type": "Point", "coordinates": [ 140.021773200000013, 36.8774468 ] } },
{ "type": "Feature", "properties": { "内容": "医療法人社団　為王会　尾形クリニック【訪問リハビリテーション】栃木県矢板市末広町45番地3", "url": "https://www.kaigokensaku.mhlw.go.jp/09/index.php?action_kouhyou_detail_004_kani=true&JigyosyoCd=0911110062-00&ServiceCd=140&Type=search", "url2": "http://www.ogata-cl.or.jp/" }, "geometry": { "type": "Point", "coordinates": [ 139.935583599999973, 36.8049506 ] } },
{ "type": "Feature", "properties": { "内容": "国際医療福祉大学塩谷病院【訪問リハビリテーション】栃木県矢板市富田77番地しおや総合在宅ケアセンター", "url": "https://www.kaigokensaku.mhlw.go.jp/09/index.php?action_kouhyou_detail_004_kani=true&JigyosyoCd=0915210215-00&ServiceCd=140&Type=search", "url2": "https://shioya.iuhw.ac.jp/zaitaku" }, "geometry": { "type": "Point", "coordinates": [ 139.9249969, 36.7984296 ] } },
{ "type": "Feature", "properties": { "内容": "介護老人施設　秋桜の家【訪問リハビリテーション】大原間81", "url": "https://www.kaigokensaku.mhlw.go.jp/09/index.php?action_kouhyou_detail_004_kani=true&JigyosyoCd=0951280015-00&ServiceCd=140&Type=search", "url2": "http://wata01.sakura.ne.jp/cosmos/" }, "geometry": { "type": "Point", "coordinates": [ 140.020711099999971, 36.9250009 ] } },
{ "type": "Feature", "properties": { "内容": "那須北病院【訪問リハビリテーション】栃木県那須塩原市野間453-14", "url": "https://www.kaigokensaku.mhlw.go.jp/09/index.php?action_kouhyou_detail_004_kani=true&JigyosyoCd=0911310316-00&ServiceCd=140&Type=search", "url2": "http://houshoukai.or.jp" }, "geometry": { "type": "Point", "coordinates": [ 140.0808026, 36.9309126 ] } },
{ "type": "Feature", "properties": { "内容": "医療法人社団弘徳会　那須訪問診療所【訪問リハビリテーション】栃木県那須塩原市佐野2-19", "url": "https://www.kaigokensaku.mhlw.go.jp/09/index.php?action_kouhyou_detail_004_kani=true&JigyosyoCd=0911310225-00&ServiceCd=140&Type=search", "url2": "https://www.kotokukainasu.com" }, "geometry": { "type": "Point", "coordinates": [ 140.037576699999988, 36.943257 ] } },
{ "type": "Feature", "properties": { "内容": "国際医療福祉大学病院【訪問リハビリテーション】栃木県那須塩原市井口533-11にしなすの総合在宅ケアセンター内", "url": "https://www.kaigokensaku.mhlw.go.jp/09/index.php?action_kouhyou_detail_004_kani=true&JigyosyoCd=0915210181-00&ServiceCd=140&Type=search", "url2": "http://www.iuhw.ac.jp/maronie/" }, "geometry": { "type": "Point", "coordinates": [ 139.973230111253287, 36.911809056717431 ] } },
{ "type": "Feature", "properties": { "内容": "介護老人保健施設　富士山苑【訪問リハビリテーション】栃木県那須烏山市滝田1868-28", "url": "https://www.kaigokensaku.mhlw.go.jp/09/index.php?action_kouhyou_detail_004_kani=true&JigyosyoCd=0952580025-00&ServiceCd=140&Type=search", "url2": "https://roken-fujiyamaen.com" }, "geometry": { "type": "Point", "coordinates": [ 140.14698580000001, 36.6760726 ] } },
{ "type": "Feature", "properties": { "内容": "医療法人小金井中央病院【訪問リハビリテーション】栃木県下野市小金井2丁目4番地3", "url": "https://www.kaigokensaku.mhlw.go.jp/09/index.php?action_kouhyou_detail_004_kani=true&JigyosyoCd=0912310505-00&ServiceCd=140&Type=search", "url2": "http://koganei-chuo-hp.com/" }, "geometry": { "type": "Point", "coordinates": [ 139.840815715344206, 36.385725974320806 ] } },
{ "type": "Feature", "properties": { "内容": "一般社団法人　巨樹の会　新上三川病院【訪問リハビリテーション】栃木県河内郡上三川町上三川2360番地", "url": "https://www.kaigokensaku.mhlw.go.jp/09/index.php?action_kouhyou_detail_004_kani=true&JigyosyoCd=0912110426-00&ServiceCd=140&Type=search", "url2": "http://www.kaminokawa-hp.jp/" }, "geometry": { "type": "Point", "coordinates": [ 139.920255699999984, 36.4355074 ] } },
{ "type": "Feature", "properties": { "内容": "介護老人保健施設　ひまわり荘【訪問リハビリテーション】栃木県下都賀郡野木町南赤塚1218-1", "url": "https://www.kaigokensaku.mhlw.go.jp/09/index.php?action_kouhyou_detail_004_kani=true&JigyosyoCd=0952380020-00&ServiceCd=140&Type=search", "url2": "http://www.nogihosp.or.jp" }, "geometry": { "type": "Point", "coordinates": [ 138.252924, 36.204824 ] } }
]
}
