{
"type": "FeatureCollection",
"name": "geo_09_短期大学",
"crs": { "type": "name", "properties": { "name": "urn:ogc:def:crs:EPSG::6668" } },
"features": [
{ "type": "Feature", "properties": { "P29_001": "09204", "P29_002": "F209310101640", "P29_003": "16006", "P29_004": "佐野日本大学短期大学", "P29_005": "栃木県佐野市高萩町1297", "P29_006": "4", "P29_007": "0", "P29_008": "00", "P29_009": null }, "geometry": { "type": "Point", "coordinates": [ 139.604804996912662, 36.302275003414124 ] } },
{ "type": "Feature", "properties": { "P29_001": "09201", "P29_002": "F209310101659", "P29_003": "16006", "P29_004": "宇都宮短期大学", "P29_005": "栃木県宇都宮市下荒針町長坂3829", "P29_006": "4", "P29_007": "0", "P29_008": "00", "P29_009": null }, "geometry": { "type": "Point", "coordinates": [ 139.828182636931786, 36.560957936216596 ] } },
{ "type": "Feature", "properties": { "P29_001": "09203", "P29_002": "F209310101668", "P29_003": "16006", "P29_004": "國學院大學栃木短期大学", "P29_005": "栃木県栃木市平井町608", "P29_006": "4", "P29_007": "0", "P29_008": "00", "P29_009": null }, "geometry": { "type": "Point", "coordinates": [ 139.702322819380271, 36.364057441636625 ] } },
{ "type": "Feature", "properties": { "P29_001": "09201", "P29_002": "F209310101677", "P29_003": "16006", "P29_004": "作新学院大学女子短期大学部", "P29_005": "栃木県宇都宮市竹下町908", "P29_006": "4", "P29_007": "0", "P29_008": "00", "P29_009": null }, "geometry": { "type": "Point", "coordinates": [ 139.977603593535633, 36.542020803231893 ] } },
{ "type": "Feature", "properties": { "P29_001": "09202", "P29_002": "F209310101686", "P29_003": "16006", "P29_004": "足利短期大学", "P29_005": "栃木県足利市本城3-2120", "P29_006": "4", "P29_007": "0", "P29_008": "00", "P29_009": null }, "geometry": { "type": "Point", "coordinates": [ 139.447458172220024, 36.340439456937382 ] } }
]
}
