{
"type": "FeatureCollection",
"name": "geo_09_小規模多機能型居宅介護",
"crs": { "type": "name", "properties": { "name": "urn:ogc:def:crs:OGC:1.3:CRS84" } },
"features": [
{ "type": "Feature", "properties": { "内容": "デイホ－ム　すみれ西川田【小規模多機能型居宅介護】宇都宮市西川田町725-1", "url": "https://www.kaigokensaku.mhlw.go.jp/09/index.php?action_kouhyou_detail_004_kani=true&JigyosyoCd=0990100067-00&ServiceCd=730&Type=search", "url2": "http://www.sumirenokaigo.com" }, "geometry": { "type": "Point", "coordinates": [ 139.8483668, 36.5232485 ] } },
{ "type": "Feature", "properties": { "内容": "「ひょうたん亭」【小規模多機能型居宅介護】栃木県宇都宮市屋板町１２６－１１", "url": "https://www.kaigokensaku.mhlw.go.jp/09/index.php?action_kouhyou_detail_004_kani=true&JigyosyoCd=0990100190-00&ServiceCd=730&Type=search", "url2": "http://www.hyoutanmura.jp" }, "geometry": { "type": "Point", "coordinates": [ 139.903629099999989, 36.5161448 ] } },
{ "type": "Feature", "properties": { "内容": "京町亭【小規模多機能型居宅介護】栃木県宇都宮市京町12-5", "url": "https://www.kaigokensaku.mhlw.go.jp/09/index.php?action_kouhyou_detail_004_kani=true&JigyosyoCd=0990100877-00&ServiceCd=730&Type=search", "url2": null }, "geometry": { "type": "Point", "coordinates": [ 139.871026300000011, 36.5510277 ] } },
{ "type": "Feature", "properties": { "内容": "どんぐり亭【小規模多機能型居宅介護】栃木県宇都宮市鶴田町1986-7", "url": "https://www.kaigokensaku.mhlw.go.jp/09/index.php?action_kouhyou_detail_004_kani=true&JigyosyoCd=0990100307-00&ServiceCd=730&Type=search", "url2": "http://www.hyoutanmura.jp/" }, "geometry": { "type": "Point", "coordinates": [ 139.84952, 36.565007499999986 ] } },
{ "type": "Feature", "properties": { "内容": "小規模多機能型居宅介護事業所のずの里かいどう【小規模多機能型居宅介護】栃木県宇都宮市海道町108-1", "url": "https://www.kaigokensaku.mhlw.go.jp/09/index.php?action_kouhyou_detail_004_kani=true&JigyosyoCd=0990100273-00&ServiceCd=730&Type=search", "url2": "http://noz-cons.biz/" }, "geometry": { "type": "Point", "coordinates": [ 139.926519399999961, 36.6072751 ] } },
{ "type": "Feature", "properties": { "内容": "小規模多機能型居宅介護事業所　のずの里いわぞ【小規模多機能型居宅介護】栃木県宇都宮市岩曽町849-9", "url": "https://www.kaigokensaku.mhlw.go.jp/09/index.php?action_kouhyou_detail_004_kani=true&JigyosyoCd=0990101057-00&ServiceCd=730&Type=search", "url2": "http://noz-cons.biz/" }, "geometry": { "type": "Point", "coordinates": [ 139.902797668647736, 36.586543481358255 ] } },
{ "type": "Feature", "properties": { "内容": "小規模多機能型居宅介護事業所　のずの里北若松原【小規模多機能型居宅介護】北若松原1-8-13", "url": "https://www.kaigokensaku.mhlw.go.jp/09/index.php?action_kouhyou_detail_004_kani=true&JigyosyoCd=0990100430-00&ServiceCd=730&Type=search", "url2": "http://noz-cons.biz/" }, "geometry": { "type": "Point", "coordinates": [ 139.864527236245749, 36.508054264674193 ] } },
{ "type": "Feature", "properties": { "内容": "小規模多機能型居宅介護事業所のずの里もばら【小規模多機能型居宅介護】栃木県宇都宮市茂原町688-2", "url": "https://www.kaigokensaku.mhlw.go.jp/09/index.php?action_kouhyou_detail_004_kani=true&JigyosyoCd=0990100281-00&ServiceCd=730&Type=search", "url2": "http://noz-cons.biz/" }, "geometry": { "type": "Point", "coordinates": [ 139.877055400000017, 36.4706411 ] } },
{ "type": "Feature", "properties": { "内容": "小規模多機能型居宅介護事業所かんのん【小規模多機能型居宅介護】栃木県宇都宮市大谷町1254-1", "url": "https://www.kaigokensaku.mhlw.go.jp/09/index.php?action_kouhyou_detail_004_kani=true&JigyosyoCd=0990100109-00&ServiceCd=730&Type=search", "url2": "http://www.miyanosato.net" }, "geometry": { "type": "Point", "coordinates": [ 139.818087699999978, 36.5957954 ] } },
{ "type": "Feature", "properties": { "内容": "小規模多機能型居宅介護事業所　ふじおか【小規模多機能型居宅介護】宇都宮市宝木本町２０５９－３", "url": "https://www.kaigokensaku.mhlw.go.jp/09/index.php?action_kouhyou_detail_004_kani=true&JigyosyoCd=0990100166-00&ServiceCd=730&Type=search", "url2": "http://www.miyanosato.net" }, "geometry": { "type": "Point", "coordinates": [ 139.852065300000049, 36.6188678 ] } },
{ "type": "Feature", "properties": { "内容": "小規模多機能型居宅介護よしのいえ【小規模多機能型居宅介護】栃木県宇都宮市星が丘1-7-10", "url": "https://www.kaigokensaku.mhlw.go.jp/09/index.php?action_kouhyou_detail_004_kani=true&JigyosyoCd=0990100265-00&ServiceCd=730&Type=search", "url2": "http://numaog.or.jp/" }, "geometry": { "type": "Point", "coordinates": [ 139.875954399999955, 36.5681884 ] } },
{ "type": "Feature", "properties": { "内容": "小規模多機能型居宅介護事業所　のずの里かいどう【小規模多機能型居宅介護】海道町108-1", "url": "https://www.kaigokensaku.mhlw.go.jp/09/index.php?action_kouhyou_detail_004_kani=true&JigyosyoCd=0990101156-00&ServiceCd=730&Type=search", "url2": "http://noz-cons.biz/" }, "geometry": { "type": "Point", "coordinates": [ 139.9265428, 36.6072011 ] } },
{ "type": "Feature", "properties": { "内容": "小規模多機能型居宅介護事業所　のずの里もばら【小規模多機能型居宅介護】栃木県宇都宮市茂原町688-2", "url": "https://www.kaigokensaku.mhlw.go.jp/09/index.php?action_kouhyou_detail_004_kani=true&JigyosyoCd=0990101164-00&ServiceCd=730&Type=search", "url2": "http://noz-cons.biz/" }, "geometry": { "type": "Point", "coordinates": [ 139.877219084586329, 36.470594864706406 ] } },
{ "type": "Feature", "properties": { "内容": "小規模多機能型居宅介護事業所　のずの里北若松原【小規模多機能型居宅介護】北若松原1丁目8-13", "url": "https://www.kaigokensaku.mhlw.go.jp/09/index.php?action_kouhyou_detail_004_kani=true&JigyosyoCd=0990101172-00&ServiceCd=730&Type=search", "url2": "http://noz-cons.biz/" }, "geometry": { "type": "Point", "coordinates": [ 139.8646168, 36.5080622 ] } },
{ "type": "Feature", "properties": { "内容": "小規模多機能型居宅介護事業所　のずの里いわぞ【小規模多機能型居宅介護】栃木県宇都宮市岩曽町849-9", "url": "https://www.kaigokensaku.mhlw.go.jp/09/index.php?action_kouhyou_detail_004_kani=true&JigyosyoCd=0990101198-00&ServiceCd=730&Type=search", "url2": "http://noz-cons.biz/" }, "geometry": { "type": "Point", "coordinates": [ 139.902781863736919, 36.586376178553806 ] } },
{ "type": "Feature", "properties": { "内容": "小規模多機能型居宅介護コープの家双葉２丁目【小規模多機能型居宅介護】栃木県宇都宮市双葉２丁目11-17", "url": "https://www.kaigokensaku.mhlw.go.jp/09/index.php?action_kouhyou_detail_004_kani=true&JigyosyoCd=0990100042-00&ServiceCd=730&Type=search", "url2": "http://fureai-coop.com/" }, "geometry": { "type": "Point", "coordinates": [ 139.8602297, 36.5259624 ] } },
{ "type": "Feature", "properties": { "内容": "小規模多機能型居宅介護事業所「はるかぜ」【小規模多機能型居宅介護】栃木県宇都宮市宝木町１－６１－４", "url": "https://www.kaigokensaku.mhlw.go.jp/09/index.php?action_kouhyou_detail_004_kani=true&JigyosyoCd=0990100091-00&ServiceCd=730&Type=search", "url2": "http://opus-one.biz/index.html" }, "geometry": { "type": "Point", "coordinates": [ 139.857219100000066, 36.576484 ] } },
{ "type": "Feature", "properties": { "内容": "社会福祉法人　共生会【小規模多機能型居宅介護】栃木県宇都宮市上籠谷3564-2", "url": "https://www.kaigokensaku.mhlw.go.jp/09/index.php?action_kouhyou_detail_004_kani=true&JigyosyoCd=0990100232-00&ServiceCd=730&Type=search", "url2": "http://kamikomoriya.or.jp/" }, "geometry": { "type": "Point", "coordinates": [ 139.963900700000067, 36.5310397 ] } },
{ "type": "Feature", "properties": { "内容": "小規模多機能　ホームタウン上河内【小規模多機能型居宅介護】栃木県宇都宮市下小倉町１２３４－１", "url": "https://www.kaigokensaku.mhlw.go.jp/09/index.php?action_kouhyou_detail_004_kani=true&JigyosyoCd=0990100349-00&ServiceCd=730&Type=search", "url2": "http://www.seikeikai.jp" }, "geometry": { "type": "Point", "coordinates": [ 139.914657, 36.6846144 ] } },
{ "type": "Feature", "properties": { "内容": "はるかぜケアセンターやなぜ【小規模多機能型居宅介護】栃木県宇都宮市簗瀬町２５６７－７", "url": "https://www.kaigokensaku.mhlw.go.jp/09/index.php?action_kouhyou_detail_004_kani=true&JigyosyoCd=0990100398-00&ServiceCd=730&Type=search", "url2": "http://www.opus-one.biz/index.html" }, "geometry": { "type": "Point", "coordinates": [ 139.896409299999959, 36.5384453 ] } },
{ "type": "Feature", "properties": { "内容": "共生家みずほの小規模多機能【小規模多機能型居宅介護】瑞穂2-14-10共生家みずほの", "url": "https://www.kaigokensaku.mhlw.go.jp/09/index.php?action_kouhyou_detail_004_kani=true&JigyosyoCd=0990100547-00&ServiceCd=730&Type=search", "url2": "http://kamikomoriya.or.jp/" }, "geometry": { "type": "Point", "coordinates": [ 139.91864356412583, 36.507678007428304 ] } },
{ "type": "Feature", "properties": { "内容": "コープの家　石井【小規模多機能型居宅介護】栃木県宇都宮市石井町3129-156", "url": "https://www.kaigokensaku.mhlw.go.jp/09/index.php?action_kouhyou_detail_004_kani=true&JigyosyoCd=0990101081-00&ServiceCd=730&Type=search", "url2": "https://fureai-coop.com/" }, "geometry": { "type": "Point", "coordinates": [ 139.925227400000011, 36.5359611 ] } },
{ "type": "Feature", "properties": { "内容": "小規模多機能ホーム　倉詩舎【小規模多機能型居宅介護】栃木県宇都宮市峰１丁目１５番５号", "url": "https://www.kaigokensaku.mhlw.go.jp/09/index.php?action_kouhyou_detail_004_kani=true&JigyosyoCd=0990100240-00&ServiceCd=730&Type=search", "url2": "sousisya.hp.peraichi.com" }, "geometry": { "type": "Point", "coordinates": [ 139.91202181713561, 36.551346653628563 ] } },
{ "type": "Feature", "properties": { "内容": "高齢者複合施設　みのりの里・田島【小規模多機能型居宅介護】栃木県足利市田島町１９５９番地１", "url": "https://www.kaigokensaku.mhlw.go.jp/09/index.php?action_kouhyou_detail_004_kani=true&JigyosyoCd=0990200107-00&ServiceCd=730&Type=search", "url2": "http://seimeien.or.jp" }, "geometry": { "type": "Point", "coordinates": [ 139.465283, 36.3647968 ] } },
{ "type": "Feature", "properties": { "内容": "グランドF＆M　四季采【小規模多機能型居宅介護】足利市新山町2255－7", "url": "https://www.kaigokensaku.mhlw.go.jp/09/index.php?action_kouhyou_detail_004_kani=true&JigyosyoCd=0990200248-00&ServiceCd=730&Type=search", "url2": null }, "geometry": { "type": "Point", "coordinates": [ 139.465716499999985, 36.3458207 ] } },
{ "type": "Feature", "properties": { "内容": "ケアホーム　ひなた日和【小規模多機能型居宅介護】栃木県足利市本城1丁目1578-1", "url": "https://www.kaigokensaku.mhlw.go.jp/09/index.php?action_kouhyou_detail_004_kani=true&JigyosyoCd=0990200230-00&ServiceCd=730&Type=search", "url2": null }, "geometry": { "type": "Point", "coordinates": [ 139.454708900000014, 36.3540835 ] } },
{ "type": "Feature", "properties": { "内容": "ケアホームひなたの広場【小規模多機能型居宅介護】栃木県足利市五十部町490-1", "url": "https://www.kaigokensaku.mhlw.go.jp/09/index.php?action_kouhyou_detail_004_kani=true&JigyosyoCd=0990200164-00&ServiceCd=730&Type=search", "url2": null }, "geometry": { "type": "Point", "coordinates": [ 139.422229499999958, 36.343664 ] } },
{ "type": "Feature", "properties": { "内容": "ケアホーム　ひなた庵【小規模多機能型居宅介護】栃木県足利市小俣町291-3", "url": "https://www.kaigokensaku.mhlw.go.jp/09/index.php?action_kouhyou_detail_004_kani=true&JigyosyoCd=0990200149-00&ServiceCd=730&Type=search", "url2": "http://www.watv.ne.jp/~hinata21/" }, "geometry": { "type": "Point", "coordinates": [ 139.373019500000026, 36.3713938 ] } },
{ "type": "Feature", "properties": { "内容": "ケアホームひなたぼっこ【小規模多機能型居宅介護】栃木県足利市借宿町３９１－２", "url": "https://www.kaigokensaku.mhlw.go.jp/09/index.php?action_kouhyou_detail_004_kani=true&JigyosyoCd=0990200081-00&ServiceCd=730&Type=search", "url2": "http://www.watv.ne.jp/~hinata21" }, "geometry": { "type": "Point", "coordinates": [ 139.435461300000043, 36.3295464 ] } },
{ "type": "Feature", "properties": { "内容": "栃木ケアーズひらい　小規模多機能型居宅介護　つどい【小規模多機能型居宅介護】栃木県栃木市平井町321", "url": "https://www.kaigokensaku.mhlw.go.jp/09/index.php?action_kouhyou_detail_004_kani=true&JigyosyoCd=0990300121-00&ServiceCd=730&Type=search", "url2": "http://www.t-cares.co.jp" }, "geometry": { "type": "Point", "coordinates": [ 139.707640199999986, 36.3664455 ] } },
{ "type": "Feature", "properties": { "内容": "多機能ほーむ　まろにえ四季の里【小規模多機能型居宅介護】栃木県栃木市大宮町２０２３－３", "url": "https://www.kaigokensaku.mhlw.go.jp/09/index.php?action_kouhyou_detail_004_kani=true&JigyosyoCd=0990300022-00&ServiceCd=730&Type=search", "url2": "http://souwakai.or.jp" }, "geometry": { "type": "Point", "coordinates": [ 139.756347900000037, 36.3926993 ] } },
{ "type": "Feature", "properties": { "内容": "小規模多機能型居宅介護事業所みつみねの郷【小規模多機能型居宅介護】栃木県栃木市梅沢町９７０番地", "url": "https://www.kaigokensaku.mhlw.go.jp/09/index.php?action_kouhyou_detail_004_kani=true&JigyosyoCd=0990300030-00&ServiceCd=730&Type=search", "url2": "https://www.suginamikikai.jp/" }, "geometry": { "type": "Point", "coordinates": [ 139.650783100000012, 36.4421321 ] } },
{ "type": "Feature", "properties": { "内容": "小規模多機能型居宅介護事業こすもす　つが【小規模多機能型居宅介護】栃木県栃木市都賀町家中2223-10", "url": "https://www.kaigokensaku.mhlw.go.jp/09/index.php?action_kouhyou_detail_004_kani=true&JigyosyoCd=0990300105-00&ServiceCd=730&Type=search", "url2": "syotaki-tsuga@sfk.or..jp" }, "geometry": { "type": "Point", "coordinates": [ 139.748541700000033, 36.4257562 ] } },
{ "type": "Feature", "properties": { "内容": "ふれんど小規模多機能施設西方【小規模多機能型居宅介護】栃木県栃木市西方町金崎731", "url": "https://www.kaigokensaku.mhlw.go.jp/09/index.php?action_kouhyou_detail_004_kani=true&JigyosyoCd=0992200022-00&ServiceCd=730&Type=search", "url2": null }, "geometry": { "type": "Point", "coordinates": [ 139.750323500000036, 36.4690873 ] } },
{ "type": "Feature", "properties": { "内容": "小規模多機能型居宅介護事業所　しもつけの杜【小規模多機能型居宅介護】栃木県佐野市植下町5696-1", "url": "https://www.kaigokensaku.mhlw.go.jp/09/index.php?action_kouhyou_detail_004_kani=true&JigyosyoCd=0990400152-00&ServiceCd=730&Type=search", "url2": null }, "geometry": { "type": "Point", "coordinates": [ 139.589840800000047, 36.2894994 ] } },
{ "type": "Feature", "properties": { "内容": "小規模多機能型居宅介護事業所　しもつけの故郷【小規模多機能型居宅介護】栃木県佐野市牧町111-1", "url": "https://www.kaigokensaku.mhlw.go.jp/09/index.php?action_kouhyou_detail_004_kani=true&JigyosyoCd=0990400244-00&ServiceCd=730&Type=search", "url2": null }, "geometry": { "type": "Point", "coordinates": [ 139.581454150073228, 36.446622321734715 ] } },
{ "type": "Feature", "properties": { "内容": "小規模多機能居宅介護施設せせらぎ【小規模多機能型居宅介護】佐野市栃本町3270番地", "url": "https://www.kaigokensaku.mhlw.go.jp/09/index.php?action_kouhyou_detail_004_kani=true&JigyosyoCd=0990400178-00&ServiceCd=730&Type=search", "url2": "http://wellaging-group.jp/SESERAGI" }, "geometry": { "type": "Point", "coordinates": [ 139.582389299999932, 36.347557 ] } },
{ "type": "Feature", "properties": { "内容": "小規模多機能型居宅介護やまなみ【小規模多機能型居宅介護】栃木県佐野市町谷町59-1", "url": "https://www.kaigokensaku.mhlw.go.jp/09/index.php?action_kouhyou_detail_004_kani=true&JigyosyoCd=0990400103-00&ServiceCd=730&Type=search", "url2": null }, "geometry": { "type": "Point", "coordinates": [ 139.631026900000052, 36.3257387 ] } },
{ "type": "Feature", "properties": { "内容": "小規模多機能型居宅介護事業所　しもつけの郷【小規模多機能型居宅介護】栃木県佐野市石塚町３９２", "url": "https://www.kaigokensaku.mhlw.go.jp/09/index.php?action_kouhyou_detail_004_kani=true&JigyosyoCd=0990400079-00&ServiceCd=730&Type=search", "url2": null }, "geometry": { "type": "Point", "coordinates": [ 139.561615800000027, 36.3456455 ] } },
{ "type": "Feature", "properties": { "内容": "小規模多機能ホーム万葉堀米の里【小規模多機能型居宅介護】栃木県佐野市堀米町1270-6", "url": "https://www.kaigokensaku.mhlw.go.jp/09/index.php?action_kouhyou_detail_004_kani=true&JigyosyoCd=0990400129-00&ServiceCd=730&Type=search", "url2": "http://www.manyo.or.jp" }, "geometry": { "type": "Point", "coordinates": [ 139.580604200000039, 36.3284396 ] } },
{ "type": "Feature", "properties": { "内容": "小規模多機能型居宅介護事業所　わが家【小規模多機能型居宅介護】栃木県佐野市村上町３２３", "url": "https://www.kaigokensaku.mhlw.go.jp/09/index.php?action_kouhyou_detail_004_kani=true&JigyosyoCd=0990400194-00&ServiceCd=730&Type=search", "url2": "https://sl-silverlife.co.jp" }, "geometry": { "type": "Point", "coordinates": [ 139.54458580000005, 36.3044271 ] } },
{ "type": "Feature", "properties": { "内容": "小規模多機能ホーム温寿苑【小規模多機能型居宅介護】栃木県佐野市馬門町1470番地", "url": "https://www.kaigokensaku.mhlw.go.jp/09/index.php?action_kouhyou_detail_004_kani=true&JigyosyoCd=0990400269-00&ServiceCd=730&Type=search", "url2": "https://onjuen.com" }, "geometry": { "type": "Point", "coordinates": [ 139.602900799999986, 36.2825488 ] } },
{ "type": "Feature", "properties": { "内容": "小規模多機能型施設　飛駒の庄【小規模多機能型居宅介護】栃木県佐野市飛駒町２３５７番地", "url": "https://www.kaigokensaku.mhlw.go.jp/09/index.php?action_kouhyou_detail_004_kani=true&JigyosyoCd=0990400293-00&ServiceCd=730&Type=search", "url2": null }, "geometry": { "type": "Point", "coordinates": [ 139.463617402858858, 36.461163332267773 ] } },
{ "type": "Feature", "properties": { "内容": "小規模多機能型居宅介護　吉水ゆずりは【小規模多機能型居宅介護】栃木県佐野市吉水町７５９－１", "url": "https://www.kaigokensaku.mhlw.go.jp/09/index.php?action_kouhyou_detail_004_kani=true&JigyosyoCd=0990400335-00&ServiceCd=730&Type=search", "url2": "http://www.tochinomi.or.jp/" }, "geometry": { "type": "Point", "coordinates": [ 139.576914904893556, 36.35182983769603 ] } },
{ "type": "Feature", "properties": { "内容": "しもつけの陵【小規模多機能型居宅介護】栃木県佐野市石塚町535", "url": "https://www.kaigokensaku.mhlw.go.jp/09/index.php?action_kouhyou_detail_004_kani=true&JigyosyoCd=0990400350-00&ServiceCd=730&Type=search", "url2": null }, "geometry": { "type": "Point", "coordinates": [ 139.558382700000038, 36.3457371 ] } },
{ "type": "Feature", "properties": { "内容": "小規模多機能ほほえみ鹿沼【小規模多機能型居宅介護】栃木県鹿沼市上南摩町195-9", "url": "https://www.kaigokensaku.mhlw.go.jp/09/index.php?action_kouhyou_detail_004_kani=true&JigyosyoCd=0990500365-00&ServiceCd=730&Type=search", "url2": "https//www.lien-cojp/" }, "geometry": { "type": "Point", "coordinates": [ 139.655412399999989, 36.5498508 ] } },
{ "type": "Feature", "properties": { "内容": "かのん【小規模多機能型居宅介護】鹿沼市口粟野867", "url": "https://www.kaigokensaku.mhlw.go.jp/09/index.php?action_kouhyou_detail_004_kani=true&JigyosyoCd=0990500019-00&ServiceCd=730&Type=search", "url2": "http://yu-shinkai.com/?page_id=26" }, "geometry": { "type": "Point", "coordinates": [ 139.673934199999962, 36.5150778 ] } },
{ "type": "Feature", "properties": { "内容": "小規模多機能ほほえみ鹿沼【小規模多機能型居宅介護】栃木県鹿沼市上南摩町195-9", "url": "https://www.kaigokensaku.mhlw.go.jp/09/index.php?action_kouhyou_detail_004_kani=true&JigyosyoCd=0990500449-00&ServiceCd=730&Type=search", "url2": null }, "geometry": { "type": "Point", "coordinates": [ 139.692700431106374, 36.539645357395408 ] } },
{ "type": "Feature", "properties": { "内容": "陽だまり（平成22年度新規指定事業所）【小規模多機能型居宅介護】栃木県鹿沼市西鹿沼町字橋場　1018-1", "url": "https://www.kaigokensaku.mhlw.go.jp/09/index.php?action_kouhyou_detail_004_kani=true&JigyosyoCd=0990500092-00&ServiceCd=730&Type=search", "url2": "https://hidamari-kanuma.com" }, "geometry": { "type": "Point", "coordinates": [ 139.733392, 36.570202 ] } },
{ "type": "Feature", "properties": { "内容": "花の器【小規模多機能型居宅介護】栃木県鹿沼市北半田1489-3", "url": "https://www.kaigokensaku.mhlw.go.jp/09/index.php?action_kouhyou_detail_004_kani=true&JigyosyoCd=0990500142-00&ServiceCd=730&Type=search", "url2": "http://ｗelfare-hananoki.net/" }, "geometry": { "type": "Point", "coordinates": [ 139.722285599999964, 36.4954758 ] } },
{ "type": "Feature", "properties": { "内容": "ふれんど小規模多機能施設かぬま【小規模多機能型居宅介護】栃木県鹿沼市貝島町5001-4", "url": "https://www.kaigokensaku.mhlw.go.jp/09/index.php?action_kouhyou_detail_004_kani=true&JigyosyoCd=0990500175-00&ServiceCd=730&Type=search", "url2": "http://www.f-pw.jp" }, "geometry": { "type": "Point", "coordinates": [ 139.763780699999984, 36.5619951 ] } },
{ "type": "Feature", "properties": { "内容": "ふれんど小規模多機能施設　楡木【小規模多機能型居宅介護】栃木県鹿沼市楡木町720-1", "url": "https://www.kaigokensaku.mhlw.go.jp/09/index.php?action_kouhyou_detail_004_kani=true&JigyosyoCd=0990500183-00&ServiceCd=730&Type=search", "url2": null }, "geometry": { "type": "Point", "coordinates": [ 139.749844400000029, 36.5105861 ] } },
{ "type": "Feature", "properties": { "内容": "小規模多機能型居宅介護かぬま花の風【小規模多機能型居宅介護】栃木県鹿沼市緑町2-3-23", "url": "https://www.kaigokensaku.mhlw.go.jp/09/index.php?action_kouhyou_detail_004_kani=true&JigyosyoCd=0990500258-00&ServiceCd=730&Type=search", "url2": "http://www.fukushi-asahikai.or.jp/" }, "geometry": { "type": "Point", "coordinates": [ 139.776738006884784, 36.557560651440234 ] } },
{ "type": "Feature", "properties": { "内容": "陽だまり庵【小規模多機能型居宅介護】栃木県鹿沼市武子808-1", "url": "https://www.kaigokensaku.mhlw.go.jp/09/index.php?action_kouhyou_detail_004_kani=true&JigyosyoCd=0990500316-00&ServiceCd=730&Type=search", "url2": "https://hidamarian-kanuma.com" }, "geometry": { "type": "Point", "coordinates": [ 139.749677126740977, 36.586591102542734 ] } },
{ "type": "Feature", "properties": { "内容": "小規模多機能　「芦の子田中さん家」【小規模多機能型居宅介護】栃木県鹿沼市草久９８６－１", "url": "https://www.kaigokensaku.mhlw.go.jp/09/index.php?action_kouhyou_detail_004_kani=true&JigyosyoCd=0990500035-00&ServiceCd=730&Type=search", "url2": "www.kanuma-satsuki.org" }, "geometry": { "type": "Point", "coordinates": [ 139.607885600000031, 36.6405643 ] } },
{ "type": "Feature", "properties": { "内容": "小規模多機能むへん【小規模多機能型居宅介護】栃木県鹿沼市板荷２９７２－１", "url": "https://www.kaigokensaku.mhlw.go.jp/09/index.php?action_kouhyou_detail_004_kani=true&JigyosyoCd=0990500332-00&ServiceCd=730&Type=search", "url2": "http://muryoso.okoshi-yasu.com" }, "geometry": { "type": "Point", "coordinates": [ 139.680928099999988, 36.6464307 ] } },
{ "type": "Feature", "properties": { "内容": "指定小規模多機能型居宅介護事業所　いずみの里【小規模多機能型居宅介護】栃木県鹿沼市泉町2396-3", "url": "https://www.kaigokensaku.mhlw.go.jp/09/index.php?action_kouhyou_detail_004_kani=true&JigyosyoCd=0990500043-00&ServiceCd=730&Type=search", "url2": "http://www.ryokufukai.jp/" }, "geometry": { "type": "Point", "coordinates": [ 139.748175899999978, 36.5759263 ] } },
{ "type": "Feature", "properties": { "内容": "小規模多機能型ホームみょうじん【小規模多機能型居宅介護】栃木県日光市明神1000-1", "url": "https://www.kaigokensaku.mhlw.go.jp/09/index.php?action_kouhyou_detail_004_kani=true&JigyosyoCd=0990600108-00&ServiceCd=730&Type=search", "url2": "http://www.taikei.jp/" }, "geometry": { "type": "Point", "coordinates": [ 139.712872800000042, 36.6797963 ] } },
{ "type": "Feature", "properties": { "内容": "小規模多機能ホーム笑顔の家【小規模多機能型居宅介護】塩野室町１５０４－２３", "url": "https://www.kaigokensaku.mhlw.go.jp/09/index.php?action_kouhyou_detail_004_kani=true&JigyosyoCd=0990600025-00&ServiceCd=730&Type=search", "url2": "http://www14.ocn.ne.jp/~syuwakai" }, "geometry": { "type": "Point", "coordinates": [ 139.7976648, 36.735603 ] } },
{ "type": "Feature", "properties": { "内容": "小規模多機能型居宅介護支援事業きわだの郷【小規模多機能型居宅介護】栃木県日光市木和田島3008-11", "url": "https://www.kaigokensaku.mhlw.go.jp/09/index.php?action_kouhyou_detail_004_kani=true&JigyosyoCd=0990600058-00&ServiceCd=730&Type=search", "url2": "http://nikko-fukueikai.or.jp/" }, "geometry": { "type": "Point", "coordinates": [ 139.753484, 36.6819276 ] } },
{ "type": "Feature", "properties": { "内容": "小規模多機能型居宅介護　風わらう舎【小規模多機能型居宅介護】栃木県　小山市小山111－1", "url": "https://www.kaigokensaku.mhlw.go.jp/09/index.php?action_kouhyou_detail_004_kani=true&JigyosyoCd=0990800047-00&ServiceCd=730&Type=search", "url2": "http://www.nogihosp.or.jp/index.html" }, "geometry": { "type": "Point", "coordinates": [ 139.81852630000003, 36.3009769 ] } },
{ "type": "Feature", "properties": { "内容": "サンフラワーケアセンター【小規模多機能型居宅介護】栃木県小山市大字出井1933-1", "url": "https://www.kaigokensaku.mhlw.go.jp/09/index.php?action_kouhyou_detail_004_kani=true&JigyosyoCd=0990800062-00&ServiceCd=730&Type=search", "url2": "http://www.sensinkai.or.jp/" }, "geometry": { "type": "Point", "coordinates": [ 139.8371555, 36.3355401 ] } },
{ "type": "Feature", "properties": { "内容": "ふれんど小規模多機能施設　羽川【小規模多機能型居宅介護】栃木県小山市羽川524-1", "url": "https://www.kaigokensaku.mhlw.go.jp/09/index.php?action_kouhyou_detail_004_kani=true&JigyosyoCd=0990800070-00&ServiceCd=730&Type=search", "url2": "http://www.f-pw.jp" }, "geometry": { "type": "Point", "coordinates": [ 139.836301899999967, 36.3665697 ] } },
{ "type": "Feature", "properties": { "内容": "小規模多機能事業所　初田郷富士見荘【小規模多機能型居宅介護】栃木県小山市大字下初田537番地２", "url": "https://www.kaigokensaku.mhlw.go.jp/09/index.php?action_kouhyou_detail_004_kani=true&JigyosyoCd=0990800088-00&ServiceCd=730&Type=search", "url2": "http://www.fujimisou.or.jp/" }, "geometry": { "type": "Point", "coordinates": [ 139.7490186, 36.3282846 ] } },
{ "type": "Feature", "properties": { "内容": "小規模多機能型居宅介護いきいき萌丘【小規模多機能型居宅介護】真岡市東郷４５７番地１", "url": "https://www.kaigokensaku.mhlw.go.jp/09/index.php?action_kouhyou_detail_004_kani=true&JigyosyoCd=0990900128-00&ServiceCd=730&Type=search", "url2": null }, "geometry": { "type": "Point", "coordinates": [ 140.0286717, 36.445023 ] } },
{ "type": "Feature", "properties": { "内容": "株式会社ファミリーホームなか小規模多機能きぬの園【小規模多機能型居宅介護】栃木県真岡市中３１３－３", "url": "https://www.kaigokensaku.mhlw.go.jp/09/index.php?action_kouhyou_detail_004_kani=true&JigyosyoCd=0990900045-00&ServiceCd=730&Type=search", "url2": null }, "geometry": { "type": "Point", "coordinates": [ 139.955142499999965, 36.4181189 ] } },
{ "type": "Feature", "properties": { "内容": "小規模多機能型居宅介護施設　ひなたぼっこ【小規模多機能型居宅介護】栃木県大田原市須佐木５３", "url": "https://www.kaigokensaku.mhlw.go.jp/09/index.php?action_kouhyou_detail_004_kani=true&JigyosyoCd=0991000076-00&ServiceCd=730&Type=search", "url2": "http://www.shofukai.or.jp/" }, "geometry": { "type": "Point", "coordinates": [ 140.204254900000024, 36.8442308 ] } },
{ "type": "Feature", "properties": { "内容": "小規模多機能型居宅介護施設　みずばしょう【小規模多機能型居宅介護】大田原市山の手2丁目13-31", "url": "https://www.kaigokensaku.mhlw.go.jp/09/index.php?action_kouhyou_detail_004_kani=true&JigyosyoCd=0991000100-00&ServiceCd=730&Type=search", "url2": "http://www.shofukai.or.jp" }, "geometry": { "type": "Point", "coordinates": [ 140.029417800000033, 36.8693818 ] } },
{ "type": "Feature", "properties": { "内容": "シルバーサロンこころ黒羽【小規模多機能型居宅介護】栃木県大田原市大豆田468-4", "url": "https://www.kaigokensaku.mhlw.go.jp/09/index.php?action_kouhyou_detail_004_kani=true&JigyosyoCd=0991000050-00&ServiceCd=730&Type=search", "url2": null }, "geometry": { "type": "Point", "coordinates": [ 140.113309399999906, 36.8612098 ] } },
{ "type": "Feature", "properties": { "内容": "小規模多機能型居宅介護かをる【小規模多機能型居宅介護】栃木県大田原市寒井１３４４－２", "url": "https://www.kaigokensaku.mhlw.go.jp/09/index.php?action_kouhyou_detail_004_kani=true&JigyosyoCd=0991000027-00&ServiceCd=730&Type=search", "url2": "http://www2.ocn.ne.jp/~makinori/" }, "geometry": { "type": "Point", "coordinates": [ 140.118782199999941, 36.9150239 ] } },
{ "type": "Feature", "properties": { "内容": "小規模多機能型居宅介護事業　四季の風【小規模多機能型居宅介護】栃木県大田原市城山1丁目6-19", "url": "https://www.kaigokensaku.mhlw.go.jp/09/index.php?action_kouhyou_detail_004_kani=true&JigyosyoCd=0991000084-00&ServiceCd=730&Type=search", "url2": "http://three-ai.jp" }, "geometry": { "type": "Point", "coordinates": [ 140.031784600000037, 36.8643269 ] } },
{ "type": "Feature", "properties": { "内容": "清雲台ケアセンター【小規模多機能型居宅介護】大田原市蛭田1985-1", "url": "https://www.kaigokensaku.mhlw.go.jp/09/index.php?action_kouhyou_detail_004_kani=true&JigyosyoCd=0991000035-00&ServiceCd=730&Type=search", "url2": "https://www.mitsui-care.com" }, "geometry": { "type": "Point", "coordinates": [ 140.079630910359924, 36.82302133156599 ] } },
{ "type": "Feature", "properties": { "内容": "小規模多機能晴風園みどりの郷【小規模多機能型居宅介護】栃木県大田原市実取542番地3", "url": "https://www.kaigokensaku.mhlw.go.jp/09/index.php?action_kouhyou_detail_004_kani=true&JigyosyoCd=0991000159-00&ServiceCd=730&Type=search", "url2": "http://shiseikai-seifuen.com" }, "geometry": { "type": "Point", "coordinates": [ 139.993673700000045, 36.8315268 ] } },
{ "type": "Feature", "properties": { "内容": "小規模多機能型居宅介護　かねだの里【小規模多機能型居宅介護】栃木県大田原市市野沢　1843-1", "url": "https://www.kaigokensaku.mhlw.go.jp/09/index.php?action_kouhyou_detail_004_kani=true&JigyosyoCd=0991000175-00&ServiceCd=730&Type=search", "url2": "http://three-ai.jp" }, "geometry": { "type": "Point", "coordinates": [ 140.051064600000018, 36.91715 ] } },
{ "type": "Feature", "properties": { "内容": "にちにちそうかじや【小規模多機能型居宅介護】大田原市加治屋83-818", "url": "https://www.kaigokensaku.mhlw.go.jp/09/index.php?action_kouhyou_detail_004_kani=true&JigyosyoCd=0991000266-00&ServiceCd=730&Type=search", "url2": "kensinkai.or.jp" }, "geometry": { "type": "Point", "coordinates": [ 139.998399599999971, 36.8566713 ] } },
{ "type": "Feature", "properties": { "内容": "にちにちそうもとまち【小規模多機能型居宅介護】栃木県大田原市元町1-2-33", "url": "https://www.kaigokensaku.mhlw.go.jp/09/index.php?action_kouhyou_detail_004_kani=true&JigyosyoCd=0991000274-00&ServiceCd=730&Type=search", "url2": "kenshinkai.or.jp" }, "geometry": { "type": "Point", "coordinates": [ 140.030098149073751, 36.860868883211353 ] } },
{ "type": "Feature", "properties": { "内容": "小規模多機能型居宅介護施設　あかとんぼ【小規模多機能型居宅介護】栃木県矢板市片岡１１７４－２", "url": "https://www.kaigokensaku.mhlw.go.jp/09/index.php?action_kouhyou_detail_004_kani=true&JigyosyoCd=0991100082-00&ServiceCd=730&Type=search", "url2": null }, "geometry": { "type": "Point", "coordinates": [ 139.945704200000023, 36.7572733 ] } },
{ "type": "Feature", "properties": { "内容": "小規模多機能型居宅介護施設こもれび【小規模多機能型居宅介護】栃木県矢板市泉558", "url": "https://www.kaigokensaku.mhlw.go.jp/09/index.php?action_kouhyou_detail_004_kani=true&JigyosyoCd=0991100058-00&ServiceCd=730&Type=search", "url2": "http://www.shofukai.or.jp/yaita/" }, "geometry": { "type": "Point", "coordinates": [ 139.911578400000053, 36.8434286 ] } },
{ "type": "Feature", "properties": { "内容": "ニチイケアセンター矢板【小規模多機能型居宅介護】栃木県矢板市東町1203-2", "url": "https://www.kaigokensaku.mhlw.go.jp/09/index.php?action_kouhyou_detail_004_kani=true&JigyosyoCd=0991100074-00&ServiceCd=730&Type=search", "url2": "http://www.nichiigakkan.co.jp" }, "geometry": { "type": "Point", "coordinates": [ 139.943014, 36.795435 ] } },
{ "type": "Feature", "properties": { "内容": "小規模多機能型居宅介護事業所　みんなの家【小規模多機能型居宅介護】栃木県那須塩原市南郷屋４丁目３２－３６", "url": "https://www.kaigokensaku.mhlw.go.jp/09/index.php?action_kouhyou_detail_004_kani=true&JigyosyoCd=0991300062-00&ServiceCd=730&Type=search", "url2": null }, "geometry": { "type": "Point", "coordinates": [ 139.991573300000027, 36.8920975 ] } },
{ "type": "Feature", "properties": { "内容": "小規模多機能型居宅介護事業所「マリモの家」【小規模多機能型居宅介護】栃木県那須塩原市関谷2059-1", "url": "https://www.kaigokensaku.mhlw.go.jp/09/index.php?action_kouhyou_detail_004_kani=true&JigyosyoCd=0991300070-00&ServiceCd=730&Type=search", "url2": null }, "geometry": { "type": "Point", "coordinates": [ 139.904357600000026, 36.9446342 ] } },
{ "type": "Feature", "properties": { "内容": "小規模多機能型居宅介護施設　ほのぼの【小規模多機能型居宅介護】栃木県那須塩原市鍋掛1087-270", "url": "https://www.kaigokensaku.mhlw.go.jp/09/index.php?action_kouhyou_detail_004_kani=true&JigyosyoCd=0991300278-00&ServiceCd=730&Type=search", "url2": null }, "geometry": { "type": "Point", "coordinates": [ 140.070383799999945, 36.9606846 ] } },
{ "type": "Feature", "properties": { "内容": "小規模多機能ホームよろずや【小規模多機能型居宅介護】黒磯652-1", "url": "https://www.kaigokensaku.mhlw.go.jp/09/index.php?action_kouhyou_detail_004_kani=true&JigyosyoCd=0991300021-00&ServiceCd=730&Type=search", "url2": "http://www.keifukukai.com" }, "geometry": { "type": "Point", "coordinates": [ 140.03654359709779, 36.985267414665451 ] } },
{ "type": "Feature", "properties": { "内容": "小規模多機能型居宅介護事業所　うぐいす荘【小規模多機能型居宅介護】栃木県那須塩原市佐野89-4", "url": "https://www.kaigokensaku.mhlw.go.jp/09/index.php?action_kouhyou_detail_004_kani=true&JigyosyoCd=0991300039-00&ServiceCd=730&Type=search", "url2": "http://www.nasu-kaigo.or.jp/" }, "geometry": { "type": "Point", "coordinates": [ 140.036678568122852, 36.94329474007921 ] } },
{ "type": "Feature", "properties": { "内容": "四季の花【小規模多機能型居宅介護】栃木県那須塩原市一区町２８１－７１", "url": "https://www.kaigokensaku.mhlw.go.jp/09/index.php?action_kouhyou_detail_004_kani=true&JigyosyoCd=0991300047-00&ServiceCd=730&Type=search", "url2": "http://three-ai.jp" }, "geometry": { "type": "Point", "coordinates": [ 139.969883500000037, 36.8525126 ] } },
{ "type": "Feature", "properties": { "内容": "小規模多機能型居宅介護施設　さくら荘【小規模多機能型居宅介護】栃木県那須塩原市桜町2-3", "url": "https://www.kaigokensaku.mhlw.go.jp/09/index.php?action_kouhyou_detail_004_kani=true&JigyosyoCd=0991300054-00&ServiceCd=730&Type=search", "url2": "http://www.nasu-kaigo.or.jp" }, "geometry": { "type": "Point", "coordinates": [ 140.050713136106879, 36.975912939308849 ] } },
{ "type": "Feature", "properties": { "内容": "小規模多機能型居宅介護事業所　さくらハウス【小規模多機能型居宅介護】栃木県那須塩原市高林1931番1", "url": "https://www.kaigokensaku.mhlw.go.jp/09/index.php?action_kouhyou_detail_004_kani=true&JigyosyoCd=0991300088-00&ServiceCd=730&Type=search", "url2": null }, "geometry": { "type": "Point", "coordinates": [ 139.958058950926187, 36.987421009545216 ] } },
{ "type": "Feature", "properties": { "内容": "よろずや三島の杜【小規模多機能型居宅介護】栃木県那須塩原市東三島1-104-223", "url": "https://www.kaigokensaku.mhlw.go.jp/09/index.php?action_kouhyou_detail_004_kani=true&JigyosyoCd=0991300120-00&ServiceCd=730&Type=search", "url2": "http://www.keifukukai.com" }, "geometry": { "type": "Point", "coordinates": [ 139.981254499999977, 36.9013404 ] } },
{ "type": "Feature", "properties": { "内容": "小規模多機能型居宅介護事業所まつばら荘【小規模多機能型居宅介護】栃木県那須塩原市黒磯647-4", "url": "https://www.kaigokensaku.mhlw.go.jp/09/index.php?action_kouhyou_detail_004_kani=true&JigyosyoCd=0991300179-00&ServiceCd=730&Type=search", "url2": "http://www.nasu-kaigo.or.jp/" }, "geometry": { "type": "Point", "coordinates": [ 140.0389692, 36.9846147 ] } },
{ "type": "Feature", "properties": { "内容": "小規模多機能型居宅介護事業所第2まつばら荘【小規模多機能型居宅介護】栃木県那須塩原市黒磯647－5", "url": "https://www.kaigokensaku.mhlw.go.jp/09/index.php?action_kouhyou_detail_004_kani=true&JigyosyoCd=0991300344-00&ServiceCd=730&Type=search", "url2": "www.nasu-kaigo.or.jp" }, "geometry": { "type": "Point", "coordinates": [ 140.03834689800874, 36.984567585084243 ] } },
{ "type": "Feature", "properties": { "内容": "小規模多機能型居宅介護事業所　たじまの杜【小規模多機能型居宅介護】栃木県那須塩原市二区町500番5", "url": "https://www.kaigokensaku.mhlw.go.jp/09/index.php?action_kouhyou_detail_004_kani=true&JigyosyoCd=0991300146-00&ServiceCd=730&Type=search", "url2": "http://elm-fukushikai.com/" }, "geometry": { "type": "Point", "coordinates": [ 139.9609041, 36.8699475 ] } },
{ "type": "Feature", "properties": { "内容": "小規模多機能型居宅介護　城下庵【小規模多機能型居宅介護】栃木県さくら市喜連川3609", "url": "https://www.kaigokensaku.mhlw.go.jp/09/index.php?action_kouhyou_detail_004_kani=true&JigyosyoCd=0991400011-00&ServiceCd=730&Type=search", "url2": "https://www.hoaikai.or.jp/home/" }, "geometry": { "type": "Point", "coordinates": [ 140.022823199999948, 36.721229 ] } },
{ "type": "Feature", "properties": { "内容": "小規模多機能ホーム　なごみ【小規模多機能型居宅介護】栃木県那須烏山市滝田1772-1", "url": "https://www.kaigokensaku.mhlw.go.jp/09/index.php?action_kouhyou_detail_004_kani=true&JigyosyoCd=0991500059-00&ServiceCd=730&Type=search", "url2": "https://keiaikai-nasukarasuyama.com" }, "geometry": { "type": "Point", "coordinates": [ 140.1446836, 36.6755742 ] } },
{ "type": "Feature", "properties": { "内容": "ふれんど小規模多機能施設下野【小規模多機能型居宅介護】栃木県下野市薬師寺3178-55", "url": "https://www.kaigokensaku.mhlw.go.jp/09/index.php?action_kouhyou_detail_004_kani=true&JigyosyoCd=0991600065-00&ServiceCd=730&Type=search", "url2": "https：//www.f-pw.jp" }, "geometry": { "type": "Point", "coordinates": [ 139.8642659, 36.3949308 ] } },
{ "type": "Feature", "properties": { "内容": "小規模多機能型ぽぷら【小規模多機能型居宅介護】栃木県河内郡上三川町大字石田１２３１番地３", "url": "https://www.kaigokensaku.mhlw.go.jp/09/index.php?action_kouhyou_detail_004_kani=true&JigyosyoCd=0992100024-00&ServiceCd=730&Type=search", "url2": "http://sakura-popura.jp" }, "geometry": { "type": "Point", "coordinates": [ 139.900340400524897, 36.468642198320957 ] } },
{ "type": "Feature", "properties": { "内容": "多機能ホームましこの里星の宮【小規模多機能型居宅介護】栃木県芳賀郡益子町塙3385番地", "url": "https://www.kaigokensaku.mhlw.go.jp/09/index.php?action_kouhyou_detail_004_kani=true&JigyosyoCd=0992700153-00&ServiceCd=730&Type=search", "url2": "http://www.minagawa-sakura.com/kojin.html" }, "geometry": { "type": "Point", "coordinates": [ 140.0748083, 36.4755256 ] } },
{ "type": "Feature", "properties": { "内容": "小規模多機能型居宅介護　グリーンハウスやまうち【小規模多機能型居宅介護】栃木県芳賀郡茂木町山内２２１５番地", "url": "https://www.kaigokensaku.mhlw.go.jp/09/index.php?action_kouhyou_detail_004_kani=true&JigyosyoCd=0992700047-00&ServiceCd=730&Type=search", "url2": "http://www.shoseikai.com" }, "geometry": { "type": "Point", "coordinates": [ 140.243498100000011, 36.5883866 ] } },
{ "type": "Feature", "properties": { "内容": "小規模多機能型施設　みささかん【小規模多機能型居宅介護】栃木県芳賀郡芳賀町東水沼2928", "url": "https://www.kaigokensaku.mhlw.go.jp/09/index.php?action_kouhyou_detail_004_kani=true&JigyosyoCd=0992700021-00&ServiceCd=730&Type=search", "url2": "http://www.f-pw.jp" }, "geometry": { "type": "Point", "coordinates": [ 139.998360528697191, 36.557420826362879 ] } },
{ "type": "Feature", "properties": { "内容": "ふれんど小規模多機能施設　壬生【小規模多機能型居宅介護】栃木県下都賀郡壬生町大字壬生甲591-2", "url": "https://www.kaigokensaku.mhlw.go.jp/09/index.php?action_kouhyou_detail_004_kani=true&JigyosyoCd=0992300061-00&ServiceCd=730&Type=search", "url2": "http://friendmibu.web.fc2.com/toi.html" }, "geometry": { "type": "Point", "coordinates": [ 139.808212200000071, 36.4302102 ] } },
{ "type": "Feature", "properties": { "内容": "小規模多機能型居宅介護事業所こもれびの舎【小規模多機能型居宅介護】栃木県下都賀郡野木町野木２６３９", "url": "https://www.kaigokensaku.mhlw.go.jp/09/index.php?action_kouhyou_detail_004_kani=true&JigyosyoCd=0992300046-00&ServiceCd=730&Type=search", "url2": "http://www.nogihosp.or.jp" }, "geometry": { "type": "Point", "coordinates": [ 139.707348200000069, 36.214303 ] } },
{ "type": "Feature", "properties": { "内容": "小規模多機能ホーム　かわむら【小規模多機能型居宅介護】栃木県塩谷郡塩谷町大字船生3844番地46", "url": "https://www.kaigokensaku.mhlw.go.jp/09/index.php?action_kouhyou_detail_004_kani=true&JigyosyoCd=0992600056-00&ServiceCd=730&Type=search", "url2": "https://asunaro-swc.jp" }, "geometry": { "type": "Point", "coordinates": [ 139.790025900000046, 36.7607192 ] } },
{ "type": "Feature", "properties": { "内容": "小規模多機能型居宅介護　大空【小規模多機能型居宅介護】栃木県高根沢町宝積寺２４２４－１８", "url": "https://www.kaigokensaku.mhlw.go.jp/09/index.php?action_kouhyou_detail_004_kani=true&JigyosyoCd=0992600031-00&ServiceCd=730&Type=search", "url2": "http://houm.jp" }, "geometry": { "type": "Point", "coordinates": [ 139.97805649999998, 36.6320255 ] } },
{ "type": "Feature", "properties": { "内容": "小規模多機能型居宅介護施設　なでしこ【小規模多機能型居宅介護】栃木県那須郡那須町大字寺子乙3972-2", "url": "https://www.kaigokensaku.mhlw.go.jp/09/index.php?action_kouhyou_detail_004_kani=true&JigyosyoCd=0992500140-00&ServiceCd=730&Type=search", "url2": null }, "geometry": { "type": "Point", "coordinates": [ 140.119925587766261, 37.017814959455229 ] } },
{ "type": "Feature", "properties": { "内容": "小規模多機能型居宅介護事業所　ひまわり苑【小規模多機能型居宅介護】栃木県那須郡那須町大字芦野２１９２－１", "url": "https://www.kaigokensaku.mhlw.go.jp/09/index.php?action_kouhyou_detail_004_kani=true&JigyosyoCd=0992500033-00&ServiceCd=730&Type=search", "url2": null }, "geometry": { "type": "Point", "coordinates": [ 140.1580629, 36.9932662 ] } },
{ "type": "Feature", "properties": { "内容": "小規模多機能型居宅介護施設　ひだまり【小規模多機能型居宅介護】栃木県那須郡那珂川町馬頭2050番地1", "url": "https://www.kaigokensaku.mhlw.go.jp/09/index.php?action_kouhyou_detail_004_kani=true&JigyosyoCd=0992500058-00&ServiceCd=730&Type=search", "url2": "http://www.shofukai.or.jp/nakagawa/" }, "geometry": { "type": "Point", "coordinates": [ 140.161726700000031, 36.7355701 ] } },
{ "type": "Feature", "properties": { "内容": "小規模多機能型ホームえにし苑【小規模多機能型居宅介護】栃木県那珂川町谷川1609", "url": "https://www.kaigokensaku.mhlw.go.jp/09/index.php?action_kouhyou_detail_004_kani=true&JigyosyoCd=0992500082-00&ServiceCd=730&Type=search", "url2": "https://www.mitsui-care.com" }, "geometry": { "type": "Point", "coordinates": [ 140.235167600000011, 36.7721768 ] } }
]
}
