{
"type": "FeatureCollection",
"name": "geo_09_訪問看護",
"crs": { "type": "name", "properties": { "name": "urn:ogc:def:crs:OGC:1.3:CRS84" } },
"features": [
{ "type": "Feature", "properties": { "内容": "フレアス訪問看護ステーション宇都宮【訪問看護】栃木県宇都宮市東今泉２－３－３３宇都宮グリーンハイツ１号棟１０２号", "url2": "https://www.kaigokensaku.mhlw.go.jp/09/index.php?action_kouhyou_detail_004_kani=true&JigyosyoCd=0960190288-00&ServiceCd=130&Type=search" }, "geometry": { "type": "Point", "coordinates": [ 139.919586500000037, 36.5600663 ] } },
{ "type": "Feature", "properties": { "内容": "アドバンスケア訪問看護ステーション【訪問看護】栃木県宇都宮市御幸ヶ原町１３６－６９", "url2": "https://www.kaigokensaku.mhlw.go.jp/09/index.php?action_kouhyou_detail_004_kani=true&JigyosyoCd=0960190148-00&ServiceCd=130&Type=search" }, "geometry": { "type": "Point", "coordinates": [ 139.923717500000066, 36.5920018 ] } },
{ "type": "Feature", "properties": { "内容": "社会医療法人中山会宇都宮記念訪問看護ステーション【訪問看護】宇都宮市大通り1丁目4番22号MSC第２ビル９階", "url2": "https://www.kaigokensaku.mhlw.go.jp/09/index.php?action_kouhyou_detail_004_kani=true&JigyosyoCd=0960190510-00&ServiceCd=130&Type=search" }, "geometry": { "type": "Point", "coordinates": [ 139.892407300000059, 36.5607688 ] } },
{ "type": "Feature", "properties": { "内容": "訪問看護ステーションあいのて【訪問看護】栃木県宇都宮市江曽島3-2577-1", "url2": "https://www.kaigokensaku.mhlw.go.jp/09/index.php?action_kouhyou_detail_004_kani=true&JigyosyoCd=0960190601-00&ServiceCd=130&Type=search" }, "geometry": { "type": "Point", "coordinates": [ 139.867076, 36.5286526 ] } },
{ "type": "Feature", "properties": { "内容": "訪問看護かえりえ駒生【訪問看護】栃木県宇都宮市駒生町1027-3", "url2": "https://www.kaigokensaku.mhlw.go.jp/09/index.php?action_kouhyou_detail_004_kani=true&JigyosyoCd=0960190742-00&ServiceCd=130&Type=search" }, "geometry": { "type": "Point", "coordinates": [ 139.8456497, 36.5763174 ] } },
{ "type": "Feature", "properties": { "内容": "訪問看護思いやり【訪問看護】宇都宮市さつき2丁目３－５", "url2": "https://www.kaigokensaku.mhlw.go.jp/09/index.php?action_kouhyou_detail_004_kani=true&JigyosyoCd=0960190825-00&ServiceCd=130&Type=search" }, "geometry": { "type": "Point", "coordinates": [ 139.8622059, 36.4869146 ] } },
{ "type": "Feature", "properties": { "内容": "訪問看護ステーションあやめ宇都宮瑞穂【訪問看護】栃木県宇都宮市瑞穂1丁目26番5号ハイツプラネット　2階203号室", "url2": "https://www.kaigokensaku.mhlw.go.jp/09/index.php?action_kouhyou_detail_004_kani=true&JigyosyoCd=0960190841-00&ServiceCd=130&Type=search" }, "geometry": { "type": "Point", "coordinates": [ 139.9183558, 36.5108524 ] } },
{ "type": "Feature", "properties": { "内容": "訪問看護ステーションハート【訪問看護】栃木県宇都宮市石井町３２６１－４", "url2": "https://www.kaigokensaku.mhlw.go.jp/09/index.php?action_kouhyou_detail_004_kani=true&JigyosyoCd=0960190122-00&ServiceCd=130&Type=search" }, "geometry": { "type": "Point", "coordinates": [ 139.927798199999984, 36.537352 ] } },
{ "type": "Feature", "properties": { "内容": "訪問看護ステーションMGK24栃木【訪問看護】栃木県宇都宮市宮町3－5プランドール宮町", "url2": "https://www.kaigokensaku.mhlw.go.jp/09/index.php?action_kouhyou_detail_004_kani=true&JigyosyoCd=0960190775-00&ServiceCd=130&Type=search" }, "geometry": { "type": "Point", "coordinates": [ 139.888831, 36.5625059 ] } },
{ "type": "Feature", "properties": { "内容": "宮の橋訪問看護ステーション【訪問看護】栃木県宇都宮市今泉3-13-1喜多川マンション202", "url2": "https://www.kaigokensaku.mhlw.go.jp/09/index.php?action_kouhyou_detail_004_kani=true&JigyosyoCd=0960190064-00&ServiceCd=130&Type=search" }, "geometry": { "type": "Point", "coordinates": [ 139.89418366042463, 36.567042864150707 ] } },
{ "type": "Feature", "properties": { "内容": "訪問看護ステーションみやの杜【訪問看護】栃木県宇都宮市陽東２丁目４－５", "url2": "https://www.kaigokensaku.mhlw.go.jp/09/index.php?action_kouhyou_detail_004_kani=true&JigyosyoCd=0960190130-00&ServiceCd=130&Type=search" }, "geometry": { "type": "Point", "coordinates": [ 139.924383600000027, 36.553431 ] } },
{ "type": "Feature", "properties": { "内容": "訪問看護ステーションここあ【訪問看護】栃木県宇都宮市八幡台18-11", "url2": "https://www.kaigokensaku.mhlw.go.jp/09/index.php?action_kouhyou_detail_004_kani=true&JigyosyoCd=0960190155-00&ServiceCd=130&Type=search" }, "geometry": { "type": "Point", "coordinates": [ 139.8874475, 36.5787766 ] } },
{ "type": "Feature", "properties": { "内容": "訪問看護ステーションみかん【訪問看護】栃木県宇都宮市御幸ヶ原町135-8", "url2": "https://www.kaigokensaku.mhlw.go.jp/09/index.php?action_kouhyou_detail_004_kani=true&JigyosyoCd=0960190270-00&ServiceCd=130&Type=search" }, "geometry": { "type": "Point", "coordinates": [ 139.922333176781308, 36.591221128275272 ] } },
{ "type": "Feature", "properties": { "内容": "TOPS（トップス）うつのみや訪問看護リハビリステーション【訪問看護】栃木県宇都宮市吉野二丁目8番23号ＴＯＰＳビル2F", "url2": "https://www.kaigokensaku.mhlw.go.jp/09/index.php?action_kouhyou_detail_004_kani=true&JigyosyoCd=0960190312-00&ServiceCd=130&Type=search" }, "geometry": { "type": "Point", "coordinates": [ 139.871745543516568, 36.544152407419112 ] } },
{ "type": "Feature", "properties": { "内容": "訪問看護ステーション悠楽々宇都宮【訪問看護】栃木県宇都宮市宝木本町1253-12ハートランド宇都宮Ⅱ", "url2": "https://www.kaigokensaku.mhlw.go.jp/09/index.php?action_kouhyou_detail_004_kani=true&JigyosyoCd=0960190932-00&ServiceCd=130&Type=search" }, "geometry": { "type": "Point", "coordinates": [ 139.8511665, 36.6062493 ] } },
{ "type": "Feature", "properties": { "内容": "ツクイ・ポピルスガーデン宇都宮　訪問看護ステーション【訪問看護】細谷町２８３－１", "url2": "https://www.kaigokensaku.mhlw.go.jp/09/index.php?action_kouhyou_detail_004_kani=true&JigyosyoCd=0960190981-00&ServiceCd=130&Type=search" }, "geometry": { "type": "Point", "coordinates": [ 139.85434570000001, 36.5832437 ] } },
{ "type": "Feature", "properties": { "内容": "曙訪問看護ステーション【訪問看護】栃木県宇都宮市平出町413", "url2": "https://www.kaigokensaku.mhlw.go.jp/09/index.php?action_kouhyou_detail_004_kani=true&JigyosyoCd=0960190015-00&ServiceCd=130&Type=search" }, "geometry": { "type": "Point", "coordinates": [ 139.946911099999966, 36.5702412 ] } },
{ "type": "Feature", "properties": { "内容": "とちぎ訪問看護ステーションうつのみや【訪問看護】栃木県宇都宮市下砥上町643番地1", "url2": "https://www.kaigokensaku.mhlw.go.jp/09/index.php?action_kouhyou_detail_004_kani=true&JigyosyoCd=0960190023-00&ServiceCd=130&Type=search" }, "geometry": { "type": "Point", "coordinates": [ 139.849711658569305, 36.532138063298362 ] } },
{ "type": "Feature", "properties": { "内容": "訪問看護ステーション星が丘【訪問看護】栃木県宇都宮市星が丘1-7-38", "url2": "https://www.kaigokensaku.mhlw.go.jp/09/index.php?action_kouhyou_detail_004_kani=true&JigyosyoCd=0960190049-00&ServiceCd=130&Type=search" }, "geometry": { "type": "Point", "coordinates": [ 139.875257199999965, 36.568005 ] } },
{ "type": "Feature", "properties": { "内容": "訪問看護ステーションほっと【訪問看護】栃木県宇都宮市竹林町958", "url2": "https://www.kaigokensaku.mhlw.go.jp/09/index.php?action_kouhyou_detail_004_kani=true&JigyosyoCd=0960190072-00&ServiceCd=130&Type=search" }, "geometry": { "type": "Point", "coordinates": [ 139.894133147329711, 36.577770714446345 ] } },
{ "type": "Feature", "properties": { "内容": "訪問看護ステーション虹【訪問看護】栃木県宇都宮市宝木町2丁目1028-17", "url2": "https://www.kaigokensaku.mhlw.go.jp/09/index.php?action_kouhyou_detail_004_kani=true&JigyosyoCd=0960190080-00&ServiceCd=130&Type=search" }, "geometry": { "type": "Point", "coordinates": [ 139.845736145023551, 36.592262673906326 ] } },
{ "type": "Feature", "properties": { "内容": "訪問看護ステーションあるく【訪問看護】栃木県宇都宮市滝谷町17-16", "url2": "https://www.kaigokensaku.mhlw.go.jp/09/index.php?action_kouhyou_detail_004_kani=true&JigyosyoCd=0960190254-00&ServiceCd=130&Type=search" }, "geometry": { "type": "Point", "coordinates": [ 139.868131352941447, 36.552091323981998 ] } },
{ "type": "Feature", "properties": { "内容": "リハビリ訪問看護ステーションライブ【訪問看護】幕田町41番地", "url2": "https://www.kaigokensaku.mhlw.go.jp/09/index.php?action_kouhyou_detail_004_kani=true&JigyosyoCd=0960190304-00&ServiceCd=130&Type=search" }, "geometry": { "type": "Point", "coordinates": [ 139.842498182522576, 36.489232668654864 ] } },
{ "type": "Feature", "properties": { "内容": "訪問看護ステーション　花みずき【訪問看護】上戸祭3-3-24KSハイツⅢ101号", "url2": "https://www.kaigokensaku.mhlw.go.jp/09/index.php?action_kouhyou_detail_004_kani=true&JigyosyoCd=0960190338-00&ServiceCd=130&Type=search" }, "geometry": { "type": "Point", "coordinates": [ 139.861208380951012, 36.592777393383876 ] } },
{ "type": "Feature", "properties": { "内容": "訪問看護ステーション青い鳥【訪問看護】栃木県宇都宮市宝木本町1785番地12", "url2": "https://www.kaigokensaku.mhlw.go.jp/09/index.php?action_kouhyou_detail_004_kani=true&JigyosyoCd=0960190346-00&ServiceCd=130&Type=search" }, "geometry": { "type": "Point", "coordinates": [ 139.837952328836053, 36.610518360625058 ] } },
{ "type": "Feature", "properties": { "内容": "うつのみや訪問看護リハビリステーションにこっと【訪問看護】栃木県宇都宮市平出町１７７７番地３", "url2": "https://www.kaigokensaku.mhlw.go.jp/09/index.php?action_kouhyou_detail_004_kani=true&JigyosyoCd=0960190353-00&ServiceCd=130&Type=search" }, "geometry": { "type": "Point", "coordinates": [ 139.943618923530323, 36.559651992240944 ] } },
{ "type": "Feature", "properties": { "内容": "はなまる訪問看護リハビリステーション【訪問看護】栃木県宇都宮市下岡本町4520-13みなみハイツ102号", "url2": "https://www.kaigokensaku.mhlw.go.jp/09/index.php?action_kouhyou_detail_004_kani=true&JigyosyoCd=0960190403-00&ServiceCd=130&Type=search" }, "geometry": { "type": "Point", "coordinates": [ 139.933051272867459, 36.601473579449589 ] } },
{ "type": "Feature", "properties": { "内容": "医心館訪問看護ステーション宇都宮【訪問看護】栃木県宇都宮市西一の沢町12-22", "url2": "https://www.kaigokensaku.mhlw.go.jp/09/index.php?action_kouhyou_detail_004_kani=true&JigyosyoCd=0960190445-00&ServiceCd=130&Type=search" }, "geometry": { "type": "Point", "coordinates": [ 139.85907229999998, 36.5639245 ] } },
{ "type": "Feature", "properties": { "内容": "訪問看護ステーションFullness（ふるねす）【訪問看護】陽南２丁目14‐14", "url2": "https://www.kaigokensaku.mhlw.go.jp/09/index.php?action_kouhyou_detail_004_kani=true&JigyosyoCd=0960190452-00&ServiceCd=130&Type=search" }, "geometry": { "type": "Point", "coordinates": [ 139.8746003, 36.5339479 ] } },
{ "type": "Feature", "properties": { "内容": "医心館訪問看護ステーション宇都宮Ⅱ【訪問看護】栃木県宇都宮市鶴田町552", "url2": "https://www.kaigokensaku.mhlw.go.jp/09/index.php?action_kouhyou_detail_004_kani=true&JigyosyoCd=0960190494-00&ServiceCd=130&Type=search" }, "geometry": { "type": "Point", "coordinates": [ 139.856962773525026, 36.558616586841055 ] } },
{ "type": "Feature", "properties": { "内容": "訪問看護ステーション孫の手・うつのみや【訪問看護】栃木県宇都宮市元今泉7-32-16", "url2": "https://www.kaigokensaku.mhlw.go.jp/09/index.php?action_kouhyou_detail_004_kani=true&JigyosyoCd=0960190528-00&ServiceCd=130&Type=search" }, "geometry": { "type": "Point", "coordinates": [ 139.914747300000045, 36.5668523 ] } },
{ "type": "Feature", "properties": { "内容": "訪問看護あかり【訪問看護】栃木県宇都宮市駒生町1224", "url2": "https://www.kaigokensaku.mhlw.go.jp/09/index.php?action_kouhyou_detail_004_kani=true&JigyosyoCd=0960190536-00&ServiceCd=130&Type=search" }, "geometry": { "type": "Point", "coordinates": [ 139.840687537434405, 36.575516452887427 ] } },
{ "type": "Feature", "properties": { "内容": "ツクイ宇都宮訪問看護ステーション【訪問看護】栃木県宇都宮市一の沢２丁目16-21IDビル102号", "url2": "https://www.kaigokensaku.mhlw.go.jp/09/index.php?action_kouhyou_detail_004_kani=true&JigyosyoCd=0960190585-00&ServiceCd=130&Type=search" }, "geometry": { "type": "Point", "coordinates": [ 139.857309169981619, 36.572212336486608 ] } },
{ "type": "Feature", "properties": { "内容": "訪問看護ステーション　花みずきプラス【訪問看護】栃木県宇都宮市下荒針町3614-4", "url2": "https://www.kaigokensaku.mhlw.go.jp/09/index.php?action_kouhyou_detail_004_kani=true&JigyosyoCd=0960190593-00&ServiceCd=130&Type=search" }, "geometry": { "type": "Point", "coordinates": [ 139.835632700000019, 36.560797 ] } },
{ "type": "Feature", "properties": { "内容": "みずほナーシングステーション【訪問看護】栃木県宇都宮市瑞穂2丁目14-7", "url2": "https://www.kaigokensaku.mhlw.go.jp/09/index.php?action_kouhyou_detail_004_kani=true&JigyosyoCd=0960190668-00&ServiceCd=130&Type=search" }, "geometry": { "type": "Point", "coordinates": [ 139.9185896, 36.5079926 ] } },
{ "type": "Feature", "properties": { "内容": "ホウモンカンゴステーションリメンテ【訪問看護】宇都宮市東今泉１丁目1-38カーサジュン101号", "url2": "https://www.kaigokensaku.mhlw.go.jp/09/index.php?action_kouhyou_detail_004_kani=true&JigyosyoCd=0960190676-00&ServiceCd=130&Type=search" }, "geometry": { "type": "Point", "coordinates": [ 139.9157682, 36.5580038 ] } },
{ "type": "Feature", "properties": { "内容": "独立行政法人地域医療機能推進機構うつのみや病院附属訪問看護ステーション【訪問看護】栃木県宇都宮市南高砂町11-17", "url2": "https://www.kaigokensaku.mhlw.go.jp/09/index.php?action_kouhyou_detail_004_kani=true&JigyosyoCd=0960190734-00&ServiceCd=130&Type=search" }, "geometry": { "type": "Point", "coordinates": [ 139.8710174, 36.4826706 ] } },
{ "type": "Feature", "properties": { "内容": "訪問看護リハビリステーション　スマイルうつのみや【訪問看護】宿郷3-18-11SSビル宿郷2F", "url2": "https://www.kaigokensaku.mhlw.go.jp/09/index.php?action_kouhyou_detail_004_kani=true&JigyosyoCd=0960190759-00&ServiceCd=130&Type=search" }, "geometry": { "type": "Point", "coordinates": [ 139.907601699999987, 36.5542529 ] } },
{ "type": "Feature", "properties": { "内容": "訪問看護ステーションきずな【訪問看護】栃木県宇都宮市川田町1008-6リジェール21206号", "url2": "https://www.kaigokensaku.mhlw.go.jp/09/index.php?action_kouhyou_detail_004_kani=true&JigyosyoCd=0960190809-00&ServiceCd=130&Type=search" }, "geometry": { "type": "Point", "coordinates": [ 139.88780460000001, 36.5355723 ] } },
{ "type": "Feature", "properties": { "内容": "平松訪問看護ステーション　Trust【訪問看護】栃木県宇都宮市平松本町359-5A106", "url2": "https://www.kaigokensaku.mhlw.go.jp/09/index.php?action_kouhyou_detail_004_kani=true&JigyosyoCd=0960190817-00&ServiceCd=130&Type=search" }, "geometry": { "type": "Point", "coordinates": [ 139.910586228835854, 36.543045766982885 ] } },
{ "type": "Feature", "properties": { "内容": "福笑訪問看護ステーション【訪問看護】栃木県宇都宮市駒生町3367-52", "url2": "https://www.kaigokensaku.mhlw.go.jp/09/index.php?action_kouhyou_detail_004_kani=true&JigyosyoCd=0960190833-00&ServiceCd=130&Type=search" }, "geometry": { "type": "Point", "coordinates": [ 139.848599799999988, 36.584249 ] } },
{ "type": "Feature", "properties": { "内容": "訪問看護ステーションルーチェ宇都宮砥上【訪問看護】下砥上町1431-4", "url2": "https://www.kaigokensaku.mhlw.go.jp/09/index.php?action_kouhyou_detail_004_kani=true&JigyosyoCd=0960190866-00&ServiceCd=130&Type=search" }, "geometry": { "type": "Point", "coordinates": [ 139.849465, 36.5404924 ] } },
{ "type": "Feature", "properties": { "内容": "ご長寿くらぶ宇都宮・上戸祭訪問看護事業所【訪問看護】栃木県宇都宮市上戸祭町339", "url2": "https://www.kaigokensaku.mhlw.go.jp/09/index.php?action_kouhyou_detail_004_kani=true&JigyosyoCd=0960190890-00&ServiceCd=130&Type=search" }, "geometry": { "type": "Point", "coordinates": [ 139.864272799999981, 36.5897929 ] } },
{ "type": "Feature", "properties": { "内容": "訪問看護ステーション　さぎそう【訪問看護】栃木県宇都宮市白沢町1813-16", "url2": "https://www.kaigokensaku.mhlw.go.jp/09/index.php?action_kouhyou_detail_004_kani=true&JigyosyoCd=0962190013-00&ServiceCd=130&Type=search" }, "geometry": { "type": "Point", "coordinates": [ 139.9453564, 36.6315916 ] } },
{ "type": "Feature", "properties": { "内容": "訪問看護ステーションはりがや【訪問看護】栃木県宇都宮市針ヶ谷町1001-1", "url2": "https://www.kaigokensaku.mhlw.go.jp/09/index.php?action_kouhyou_detail_004_kani=true&JigyosyoCd=0960191039-00&ServiceCd=130&Type=search" }, "geometry": { "type": "Point", "coordinates": [ 139.84968760000001, 36.4897964 ] } },
{ "type": "Feature", "properties": { "内容": "訪問看護リベル　宇都宮【訪問看護】栃木県宇都宮市簗瀬町１８９４−１０", "url2": "https://www.kaigokensaku.mhlw.go.jp/09/index.php?action_kouhyou_detail_004_kani=true&JigyosyoCd=0960191062-00&ServiceCd=130&Type=search" }, "geometry": { "type": "Point", "coordinates": [ 139.888334, 36.5454193 ] } },
{ "type": "Feature", "properties": { "内容": "訪問看護あやは【訪問看護】栃木県宇都宮市西川田南1-22-4-104", "url2": "https://www.kaigokensaku.mhlw.go.jp/09/index.php?action_kouhyou_detail_004_kani=true&JigyosyoCd=0960191070-00&ServiceCd=130&Type=search" }, "geometry": { "type": "Point", "coordinates": [ 139.8490534, 36.5088571 ] } },
{ "type": "Feature", "properties": { "内容": "サンウェルズ宇都宮細谷町訪問看護ステーション【訪問看護】栃木県宇都宮市細谷町475番地14", "url2": "https://www.kaigokensaku.mhlw.go.jp/09/index.php?action_kouhyou_detail_004_kani=true&JigyosyoCd=0960191088-00&ServiceCd=130&Type=search" }, "geometry": { "type": "Point", "coordinates": [ 139.8532793, 36.5919333 ] } },
{ "type": "Feature", "properties": { "内容": "WADEWADE訪問看護ステーション宇都宮【訪問看護】栃木県宇都宮市下栗町2912-17", "url2": "https://www.kaigokensaku.mhlw.go.jp/09/index.php?action_kouhyou_detail_004_kani=true&JigyosyoCd=0960190296-00&ServiceCd=130&Type=search" }, "geometry": { "type": "Point", "coordinates": [ 139.908154751481561, 36.537155910636464 ] } },
{ "type": "Feature", "properties": { "内容": "エンズウェル訪問看護ステーション【訪問看護】栃木県宇都宮市雀の宮7丁目23-40サンロイヤルⅡ103号室", "url2": "https://www.kaigokensaku.mhlw.go.jp/09/index.php?action_kouhyou_detail_004_kani=true&JigyosyoCd=0960190791-00&ServiceCd=130&Type=search" }, "geometry": { "type": "Point", "coordinates": [ 139.863985899999989, 36.4914548 ] } },
{ "type": "Feature", "properties": { "内容": "YOKODUNA訪問看護ステーション【訪問看護】栃木県宇都宮市大寛２－５－７", "url2": "https://www.kaigokensaku.mhlw.go.jp/09/index.php?action_kouhyou_detail_004_kani=true&JigyosyoCd=0960190916-00&ServiceCd=130&Type=search" }, "geometry": { "type": "Point", "coordinates": [ 139.873879599999981, 36.558845600000019 ] } },
{ "type": "Feature", "properties": { "内容": "さつき訪問看護ステーション【訪問看護】栃木県宇都宮市花園町2番2号リリー花園ビル1階", "url2": "https://www.kaigokensaku.mhlw.go.jp/09/index.php?action_kouhyou_detail_004_kani=true&JigyosyoCd=0960190577-00&ServiceCd=130&Type=search" }, "geometry": { "type": "Point", "coordinates": [ 139.872494892753195, 36.550530690319555 ] } },
{ "type": "Feature", "properties": { "内容": "社会福祉法人　豊岡福祉会　訪問看護ステーション天王【訪問看護】栃木県足利市福居町542アルヴェアーレ天王605号室", "url2": "https://www.kaigokensaku.mhlw.go.jp/09/index.php?action_kouhyou_detail_004_kani=true&JigyosyoCd=0960290153-00&ServiceCd=130&Type=search" }, "geometry": { "type": "Point", "coordinates": [ 139.450780900000012, 36.3130115 ] } },
{ "type": "Feature", "properties": { "内容": "訪問看護ステーションあやめ足利【訪問看護】栃木県足利市葉鹿町103-1カーサアルモ103", "url2": "https://www.kaigokensaku.mhlw.go.jp/09/index.php?action_kouhyou_detail_004_kani=true&JigyosyoCd=0960290179-00&ServiceCd=130&Type=search" }, "geometry": { "type": "Point", "coordinates": [ 139.384058399999986, 36.3603876 ] } },
{ "type": "Feature", "properties": { "内容": "訪問看護ステーション藍燦々【訪問看護】栃木県足利市小俣町898", "url2": "https://www.kaigokensaku.mhlw.go.jp/09/index.php?action_kouhyou_detail_004_kani=true&JigyosyoCd=0970203329-00&ServiceCd=130&Type=search" }, "geometry": { "type": "Point", "coordinates": [ 139.368519099999958, 36.3825206 ] } },
{ "type": "Feature", "properties": { "内容": "とちぎ訪問看護ステーションあしかが【訪問看護】栃木県足利市福居町977-4", "url2": "https://www.kaigokensaku.mhlw.go.jp/09/index.php?action_kouhyou_detail_004_kani=true&JigyosyoCd=0960290021-00&ServiceCd=130&Type=search" }, "geometry": { "type": "Point", "coordinates": [ 139.453033238118252, 36.314129584792447 ] } },
{ "type": "Feature", "properties": { "内容": "中央ケアサポート　訪問看護ステーション【訪問看護】栃木県足利市五十部町499-3　　2Ｆ2F", "url2": "https://www.kaigokensaku.mhlw.go.jp/09/index.php?action_kouhyou_detail_004_kani=true&JigyosyoCd=0960290047-00&ServiceCd=130&Type=search" }, "geometry": { "type": "Point", "coordinates": [ 139.421647636492906, 36.342683878621536 ] } },
{ "type": "Feature", "properties": { "内容": "訪問看護ステーション　あんず【訪問看護】栃木県足利市田中町100", "url2": "https://www.kaigokensaku.mhlw.go.jp/09/index.php?action_kouhyou_detail_004_kani=true&JigyosyoCd=0960290054-00&ServiceCd=130&Type=search" }, "geometry": { "type": "Point", "coordinates": [ 139.4511708, 36.3243695 ] } },
{ "type": "Feature", "properties": { "内容": "足利ケアサービス【訪問看護】栃木県足利市五十部町８０９番地３", "url2": "https://www.kaigokensaku.mhlw.go.jp/09/index.php?action_kouhyou_detail_004_kani=true&JigyosyoCd=0960290096-00&ServiceCd=130&Type=search" }, "geometry": { "type": "Point", "coordinates": [ 139.423690399999941, 36.3463333 ] } },
{ "type": "Feature", "properties": { "内容": "あおい訪問看護ステーション【訪問看護】栃木県足利市八幡町２４７－２８", "url2": "https://www.kaigokensaku.mhlw.go.jp/09/index.php?action_kouhyou_detail_004_kani=true&JigyosyoCd=0960290104-00&ServiceCd=130&Type=search" }, "geometry": { "type": "Point", "coordinates": [ 139.439819923851786, 36.326209539741534 ] } },
{ "type": "Feature", "properties": { "内容": "訪問看護ステーション　とことこ【訪問看護】栃木県足利市山下町876-2", "url2": "https://www.kaigokensaku.mhlw.go.jp/09/index.php?action_kouhyou_detail_004_kani=true&JigyosyoCd=0960290138-00&ServiceCd=130&Type=search" }, "geometry": { "type": "Point", "coordinates": [ 139.403450192590299, 36.353342851750114 ] } },
{ "type": "Feature", "properties": { "内容": "足利東訪問看護ステーション【訪問看護】栃木県足利市稲岡町８３６", "url2": "https://www.kaigokensaku.mhlw.go.jp/09/index.php?action_kouhyou_detail_004_kani=true&JigyosyoCd=0960290161-00&ServiceCd=130&Type=search" }, "geometry": { "type": "Point", "coordinates": [ 139.5398731, 36.3330767 ] } },
{ "type": "Feature", "properties": { "内容": "訪問看護ステーションベル【訪問看護】栃木県足利市芳町42-1", "url2": "https://www.kaigokensaku.mhlw.go.jp/09/index.php?action_kouhyou_detail_004_kani=true&JigyosyoCd=0960290195-00&ServiceCd=130&Type=search" }, "geometry": { "type": "Point", "coordinates": [ 139.4701182, 36.335308 ] } },
{ "type": "Feature", "properties": { "内容": "栃木県足利市福居町511番地１【訪問看護】栃木県足利市福居町511番地1", "url2": "https://www.kaigokensaku.mhlw.go.jp/09/index.php?action_kouhyou_detail_004_kani=true&JigyosyoCd=0970203303-00&ServiceCd=130&Type=search" }, "geometry": { "type": "Point", "coordinates": [ 139.452081032788072, 36.311681076514638 ] } },
{ "type": "Feature", "properties": { "内容": "SOMPOケア　足利　訪問看護【訪問看護】栃木県足利市有楽町841番地3岩崎ビル2階", "url2": "https://www.kaigokensaku.mhlw.go.jp/09/index.php?action_kouhyou_detail_004_kani=true&JigyosyoCd=0970203584-00&ServiceCd=130&Type=search" }, "geometry": { "type": "Point", "coordinates": [ 139.456074, 36.3416604 ] } },
{ "type": "Feature", "properties": { "内容": "訪問看護ステーションぽらりす【訪問看護】栃木県足利市山川町722-4100号室", "url2": "https://www.kaigokensaku.mhlw.go.jp/09/index.php?action_kouhyou_detail_004_kani=true&JigyosyoCd=0970203907-00&ServiceCd=130&Type=search" }, "geometry": { "type": "Point", "coordinates": [ 139.4762475, 36.3291205 ] } },
{ "type": "Feature", "properties": { "内容": "ライフ訪問看護リハビリステーション【訪問看護】栃木県足利市堀込町2656-7ASKビル301", "url2": "https://www.kaigokensaku.mhlw.go.jp/09/index.php?action_kouhyou_detail_004_kani=true&JigyosyoCd=0970202636-00&ServiceCd=130&Type=search" }, "geometry": { "type": "Point", "coordinates": [ 139.446701665451087, 36.315148400343112 ] } },
{ "type": "Feature", "properties": { "内容": "訪問看護ステーション　harustyle栃木【訪問看護】栃木県栃木市野中町1367-7グリーンジャケット303号", "url2": "https://www.kaigokensaku.mhlw.go.jp/09/index.php?action_kouhyou_detail_004_kani=true&JigyosyoCd=0970302394-00&ServiceCd=130&Type=search" }, "geometry": { "type": "Point", "coordinates": [ 139.723432100000053, 36.39675424141867 ] } },
{ "type": "Feature", "properties": { "内容": "訪問看護ステーション　えん【訪問看護】栃木県栃木市大平町富田1674-2", "url2": "https://www.kaigokensaku.mhlw.go.jp/09/index.php?action_kouhyou_detail_004_kani=true&JigyosyoCd=0960390078-00&ServiceCd=130&Type=search" }, "geometry": { "type": "Point", "coordinates": [ 139.699461503284169, 36.343268300382896 ] } },
{ "type": "Feature", "properties": { "内容": "訪問看護ステーション八州苑【訪問看護】栃木県栃木市藤岡町太田1386-1", "url2": "https://www.kaigokensaku.mhlw.go.jp/09/index.php?action_kouhyou_detail_004_kani=true&JigyosyoCd=0960390086-00&ServiceCd=130&Type=search" }, "geometry": { "type": "Point", "coordinates": [ 139.6484374, 36.3083838 ] } },
{ "type": "Feature", "properties": { "内容": "星風会訪問看護ステーション【訪問看護】栃木県栃木市惣社町94番地", "url2": "https://www.kaigokensaku.mhlw.go.jp/09/index.php?action_kouhyou_detail_004_kani=true&JigyosyoCd=0960390037-00&ServiceCd=130&Type=search" }, "geometry": { "type": "Point", "coordinates": [ 139.78202639999995, 36.4000631 ] } },
{ "type": "Feature", "properties": { "内容": "はまリハ訪問看護リハビリステーション大平【訪問看護】栃木県栃木市大平町西野田202-1", "url2": "https://www.kaigokensaku.mhlw.go.jp/09/index.php?action_kouhyou_detail_004_kani=true&JigyosyoCd=0960390102-00&ServiceCd=130&Type=search" }, "geometry": { "type": "Point", "coordinates": [ 139.7133569, 36.3254252 ] } },
{ "type": "Feature", "properties": { "内容": "訪問看護リハビリステーションTSUNAGU【訪問看護】栃木県栃木市河合町6-2102号", "url2": "https://www.kaigokensaku.mhlw.go.jp/09/index.php?action_kouhyou_detail_004_kani=true&JigyosyoCd=0960390128-00&ServiceCd=130&Type=search" }, "geometry": { "type": "Point", "coordinates": [ 139.7327583, 36.3753207 ] } },
{ "type": "Feature", "properties": { "内容": "訪問看護ステーション　オリーブ【訪問看護】栃木県栃木市今泉町１－１７－２９", "url2": "https://www.kaigokensaku.mhlw.go.jp/09/index.php?action_kouhyou_detail_004_kani=true&JigyosyoCd=0970301172-00&ServiceCd=130&Type=search" }, "geometry": { "type": "Point", "coordinates": [ 139.7491099, 36.3868775 ] } },
{ "type": "Feature", "properties": { "内容": "とちぎメディカルセンター訪問看護ステーション【訪問看護】栃木県栃木市境町２７番２１号", "url2": "https://www.kaigokensaku.mhlw.go.jp/09/index.php?action_kouhyou_detail_004_kani=true&JigyosyoCd=0970301420-00&ServiceCd=130&Type=search" }, "geometry": { "type": "Point", "coordinates": [ 139.7268186, 36.3685957 ] } },
{ "type": "Feature", "properties": { "内容": "訪問看護ステーションさくらんぼ【訪問看護】栃木県栃木市大町6-2", "url2": "https://www.kaigokensaku.mhlw.go.jp/09/index.php?action_kouhyou_detail_004_kani=true&JigyosyoCd=0970301750-00&ServiceCd=130&Type=search" }, "geometry": { "type": "Point", "coordinates": [ 139.731655100000012, 36.391092200000017 ] } },
{ "type": "Feature", "properties": { "内容": "訪問看護　ヴィーナス【訪問看護】栃木県栃木市万町6-11栃木グランドホテル3階八汐の間", "url2": "https://www.kaigokensaku.mhlw.go.jp/09/index.php?action_kouhyou_detail_004_kani=true&JigyosyoCd=0970301818-00&ServiceCd=130&Type=search" }, "geometry": { "type": "Point", "coordinates": [ 139.734768667012077, 36.381782298175075 ] } },
{ "type": "Feature", "properties": { "内容": "WADEWADE訪問看護ステーションリカバリー栃木【訪問看護】栃木県栃木市室町1-23BBBBアペックス203", "url2": "https://www.kaigokensaku.mhlw.go.jp/09/index.php?action_kouhyou_detail_004_kani=true&JigyosyoCd=0960390169-00&ServiceCd=130&Type=search" }, "geometry": { "type": "Point", "coordinates": [ 139.732232, 36.3762118 ] } },
{ "type": "Feature", "properties": { "内容": "訪問看護ステーション孫の手・とちぎ【訪問看護】栃木県栃木市野中町1365-5オーガスタハイツ401号", "url2": "https://www.kaigokensaku.mhlw.go.jp/09/index.php?action_kouhyou_detail_004_kani=true&JigyosyoCd=0960390193-00&ServiceCd=130&Type=search" }, "geometry": { "type": "Point", "coordinates": [ 139.7240951, 36.3963415 ] } },
{ "type": "Feature", "properties": { "内容": "ツクイ栃木訪問看護ステーション【訪問看護】栃木県栃木市大平町富田376-8１階", "url2": "https://www.kaigokensaku.mhlw.go.jp/09/index.php?action_kouhyou_detail_004_kani=true&JigyosyoCd=0960390201-00&ServiceCd=130&Type=search" }, "geometry": { "type": "Point", "coordinates": [ 139.6990791, 36.3370002 ] } },
{ "type": "Feature", "properties": { "内容": "訪問看護ステーションかえで田沼【訪問看護】栃木県佐野市山越町238番地1", "url2": "https://www.kaigokensaku.mhlw.go.jp/09/index.php?action_kouhyou_detail_004_kani=true&JigyosyoCd=0960490159-00&ServiceCd=130&Type=search" }, "geometry": { "type": "Point", "coordinates": [ 139.589475257091834, 36.375866009793128 ] } },
{ "type": "Feature", "properties": { "内容": "フォーチュン・サークル訪問看護リハビリステーション佐野【訪問看護】栃木県佐野市天神町774-22メープルハイツ101", "url2": "https://www.kaigokensaku.mhlw.go.jp/09/index.php?action_kouhyou_detail_004_kani=true&JigyosyoCd=0960490076-00&ServiceCd=130&Type=search" }, "geometry": { "type": "Point", "coordinates": [ 139.574727704893462, 36.319170109639963 ] } },
{ "type": "Feature", "properties": { "内容": "栃木県佐野市奈良渕町309-16【訪問看護】栃木県佐野市奈良渕町309-16安藤アパートE安藤アパートE", "url2": "https://www.kaigokensaku.mhlw.go.jp/09/index.php?action_kouhyou_detail_004_kani=true&JigyosyoCd=0970402368-00&ServiceCd=130&Type=search" }, "geometry": { "type": "Point", "coordinates": [ 139.582584, 36.337563 ] } },
{ "type": "Feature", "properties": { "内容": "佐野市医師会訪問看護ステーション【訪問看護】栃木県佐野市植上町1677", "url2": "https://www.kaigokensaku.mhlw.go.jp/09/index.php?action_kouhyou_detail_004_kani=true&JigyosyoCd=0960490019-00&ServiceCd=130&Type=search" }, "geometry": { "type": "Point", "coordinates": [ 139.582157700000039, 36.3040918 ] } },
{ "type": "Feature", "properties": { "内容": "JA佐野厚　訪問看護ステーションかたくり【訪問看護】栃木県佐野市堀米町1728", "url2": "https://www.kaigokensaku.mhlw.go.jp/09/index.php?action_kouhyou_detail_004_kani=true&JigyosyoCd=0960490027-00&ServiceCd=130&Type=search" }, "geometry": { "type": "Point", "coordinates": [ 139.573463899999979, 36.3251205 ] } },
{ "type": "Feature", "properties": { "内容": "訪問看護ステーション　くずの葉【訪問看護】栃木県佐野市葛生東1-15-6", "url2": "https://www.kaigokensaku.mhlw.go.jp/09/index.php?action_kouhyou_detail_004_kani=true&JigyosyoCd=0960490068-00&ServiceCd=130&Type=search" }, "geometry": { "type": "Point", "coordinates": [ 139.614058500000027, 36.4014811 ] } },
{ "type": "Feature", "properties": { "内容": "訪問看護リハビリステーション　マザーの家【訪問看護】佐野市中町９４２－１", "url2": "https://www.kaigokensaku.mhlw.go.jp/09/index.php?action_kouhyou_detail_004_kani=true&JigyosyoCd=0960490092-00&ServiceCd=130&Type=search" }, "geometry": { "type": "Point", "coordinates": [ 139.609393, 36.3895994 ] } },
{ "type": "Feature", "properties": { "内容": "アルト訪問看護リハビリテーション佐野【訪問看護】栃木県佐野市黒袴町498-3", "url2": "https://www.kaigokensaku.mhlw.go.jp/09/index.php?action_kouhyou_detail_004_kani=true&JigyosyoCd=0970402681-00&ServiceCd=130&Type=search" }, "geometry": { "type": "Point", "coordinates": [ 139.6167318, 36.3124532 ] } },
{ "type": "Feature", "properties": { "内容": "訪問看護ステーション　あその郷【訪問看護】栃木県佐野市田沼町1832番地1", "url2": "https://www.kaigokensaku.mhlw.go.jp/09/index.php?action_kouhyou_detail_004_kani=true&JigyosyoCd=0960490118-00&ServiceCd=130&Type=search" }, "geometry": { "type": "Point", "coordinates": [ 139.582195899999988, 36.3725134 ] } },
{ "type": "Feature", "properties": { "内容": "訪問看護ステーションひばり【訪問看護】栃木県鹿沼市下田町1丁目1033番地", "url2": "https://www.kaigokensaku.mhlw.go.jp/09/index.php?action_kouhyou_detail_004_kani=true&JigyosyoCd=0960590016-00&ServiceCd=130&Type=search" }, "geometry": { "type": "Point", "coordinates": [ 139.750570700000026, 36.5613475 ] } },
{ "type": "Feature", "properties": { "内容": "訪問看護「暖らいふ」【訪問看護】栃木県鹿沼市北半田１４８９番地１", "url2": "https://www.kaigokensaku.mhlw.go.jp/09/index.php?action_kouhyou_detail_004_kani=true&JigyosyoCd=0960590040-00&ServiceCd=130&Type=search" }, "geometry": { "type": "Point", "coordinates": [ 139.720379400000013, 36.4960458 ] } },
{ "type": "Feature", "properties": { "内容": "株式会社川上シンシアハート訪問看護ステーション【訪問看護】栃木県鹿沼市北半田1302-13", "url2": "https://www.kaigokensaku.mhlw.go.jp/09/index.php?action_kouhyou_detail_004_kani=true&JigyosyoCd=0970501524-00&ServiceCd=130&Type=search" }, "geometry": { "type": "Point", "coordinates": [ 139.735123299999941, 36.4969235 ] } },
{ "type": "Feature", "properties": { "内容": "訪問看護ステーション鹿沼【訪問看護】栃木県鹿沼市千渡1110-1", "url2": "https://www.kaigokensaku.mhlw.go.jp/09/index.php?action_kouhyou_detail_004_kani=true&JigyosyoCd=0970501029-00&ServiceCd=130&Type=search" }, "geometry": { "type": "Point", "coordinates": [ 139.782762440162685, 36.566909167967985 ] } },
{ "type": "Feature", "properties": { "内容": "訪問看護ステーションるりの里【訪問看護】栃木県鹿沼市麻苧町1559-1住宅型有料老人ホーム瑠璃の里", "url2": "https://www.kaigokensaku.mhlw.go.jp/09/index.php?action_kouhyou_detail_004_kani=true&JigyosyoCd=0970501466-00&ServiceCd=130&Type=search" }, "geometry": { "type": "Point", "coordinates": [ 139.74458580000001, 36.5628481 ] } },
{ "type": "Feature", "properties": { "内容": "有限会社　岩出　Hurrayケアステーション【訪問看護】栃木県鹿沼市茂呂2527番地9", "url2": "https://www.kaigokensaku.mhlw.go.jp/09/index.php?action_kouhyou_detail_004_kani=true&JigyosyoCd=0970501656-00&ServiceCd=130&Type=search" }, "geometry": { "type": "Point", "coordinates": [ 139.794183499999974, 36.5496077 ] } },
{ "type": "Feature", "properties": { "内容": "ご長寿くらぶ鹿沼　訪問看護事業所【訪問看護】栃木県鹿沼市茂呂２６０-１３", "url2": "https://www.kaigokensaku.mhlw.go.jp/09/index.php?action_kouhyou_detail_004_kani=true&JigyosyoCd=0960590057-00&ServiceCd=130&Type=search" }, "geometry": { "type": "Point", "coordinates": [ 139.797004664418068, 36.53370105531684 ] } },
{ "type": "Feature", "properties": { "内容": "訪問看護ステーションあやめ今市【訪問看護】栃木県日光市瀬尾368-2アーバンハイネス岩鼻　2-B号室", "url2": "https://www.kaigokensaku.mhlw.go.jp/09/index.php?action_kouhyou_detail_004_kani=true&JigyosyoCd=0960690055-00&ServiceCd=130&Type=search" }, "geometry": { "type": "Point", "coordinates": [ 139.693351, 36.7367394 ] } },
{ "type": "Feature", "properties": { "内容": "クラシオテラス訪問看護ステーション【訪問看護】栃木県日光市今市本町21-10-2", "url2": "https://www.kaigokensaku.mhlw.go.jp/09/index.php?action_kouhyou_detail_004_kani=true&JigyosyoCd=0960690030-00&ServiceCd=130&Type=search" }, "geometry": { "type": "Point", "coordinates": [ 139.695564699999977, 36.716806 ] } },
{ "type": "Feature", "properties": { "内容": "社団医療法人明倫会今市病院【訪問看護】栃木県日光市今市381番地", "url2": "https://www.kaigokensaku.mhlw.go.jp/09/index.php?action_kouhyou_detail_004_kani=true&JigyosyoCd=0910710086-00&ServiceCd=130&Type=search" }, "geometry": { "type": "Point", "coordinates": [ 139.6854396, 36.7228962 ] } },
{ "type": "Feature", "properties": { "内容": "とちぎ訪問看護ステーションいまいち【訪問看護】栃木県日光市今市本町２５－３", "url2": "https://www.kaigokensaku.mhlw.go.jp/09/index.php?action_kouhyou_detail_004_kani=true&JigyosyoCd=0960790012-00&ServiceCd=130&Type=search" }, "geometry": { "type": "Point", "coordinates": [ 139.697788599999967, 36.7170667 ] } },
{ "type": "Feature", "properties": { "内容": "訪問看護ステーションフォレスト日光【訪問看護】栃木県日光市根室607-5", "url2": "https://www.kaigokensaku.mhlw.go.jp/09/index.php?action_kouhyou_detail_004_kani=true&JigyosyoCd=0970600748-00&ServiceCd=130&Type=search" }, "geometry": { "type": "Point", "coordinates": [ 139.779072, 36.7084002 ] } },
{ "type": "Feature", "properties": { "内容": "訪問看護ステーションいちご【訪問看護】栃木県小山市羽川70-1サンスカイ小山401", "url2": "https://www.kaigokensaku.mhlw.go.jp/09/index.php?action_kouhyou_detail_004_kani=true&JigyosyoCd=0970803193-00&ServiceCd=130&Type=search" }, "geometry": { "type": "Point", "coordinates": [ 139.825878100000011, 36.350768 ] } },
{ "type": "Feature", "properties": { "内容": "訪問看護ステーション　琴音【訪問看護】栃木県小山市駅南町5-5-1エムロード102", "url2": "https://www.kaigokensaku.mhlw.go.jp/09/index.php?action_kouhyou_detail_004_kani=true&JigyosyoCd=0970301297-00&ServiceCd=130&Type=search" }, "geometry": { "type": "Point", "coordinates": [ 139.815126, 36.304763700000017 ] } },
{ "type": "Feature", "properties": { "内容": "ソフィアホームケアクリニック【訪問看護】栃木県小山市土塔175-24", "url2": "https://www.kaigokensaku.mhlw.go.jp/09/index.php?action_kouhyou_detail_004_kani=true&JigyosyoCd=0910811371-00&ServiceCd=130&Type=search" }, "geometry": { "type": "Point", "coordinates": [ 139.8194814, 36.3053074 ] } },
{ "type": "Feature", "properties": { "内容": "わくわく訪問看護ステーションおやま【訪問看護】栃木県小山市駅東通り3-9-6", "url2": "https://www.kaigokensaku.mhlw.go.jp/09/index.php?action_kouhyou_detail_004_kani=true&JigyosyoCd=0960890051-00&ServiceCd=130&Type=search" }, "geometry": { "type": "Point", "coordinates": [ 139.812040799999949, 36.3198715 ] } },
{ "type": "Feature", "properties": { "内容": "訪問看護フィーカ小山【訪問看護】栃木県小山市犬塚3-8-2ピーノ・ヴィオラ105", "url2": "https://www.kaigokensaku.mhlw.go.jp/09/index.php?action_kouhyou_detail_004_kani=true&JigyosyoCd=0960890135-00&ServiceCd=130&Type=search" }, "geometry": { "type": "Point", "coordinates": [ 139.834262055819693, 36.312151038680256 ] } },
{ "type": "Feature", "properties": { "内容": "訪問看護ステーションみどり【訪問看護】栃木県小山市乙女７９５", "url2": "https://www.kaigokensaku.mhlw.go.jp/09/index.php?action_kouhyou_detail_004_kani=true&JigyosyoCd=0960890036-00&ServiceCd=130&Type=search" }, "geometry": { "type": "Point", "coordinates": [ 139.745735096295221, 36.252131860762717 ] } },
{ "type": "Feature", "properties": { "内容": "とちぎ訪問看護ステーションおやま【訪問看護】栃木県小山市神鳥谷2251-7", "url2": "https://www.kaigokensaku.mhlw.go.jp/09/index.php?action_kouhyou_detail_004_kani=true&JigyosyoCd=0960890044-00&ServiceCd=130&Type=search" }, "geometry": { "type": "Point", "coordinates": [ 139.801741941761691, 36.275920656629424 ] } },
{ "type": "Feature", "properties": { "内容": "訪問看護ステーション　カトレア【訪問看護】栃木県小山市南飯田317-8", "url2": "https://www.kaigokensaku.mhlw.go.jp/09/index.php?action_kouhyou_detail_004_kani=true&JigyosyoCd=0960890127-00&ServiceCd=130&Type=search" }, "geometry": { "type": "Point", "coordinates": [ 139.768708800000013, 36.2459145 ] } },
{ "type": "Feature", "properties": { "内容": "ほ～ぷ訪問看護ステーション【訪問看護】栃木県小山市雨ヶ谷141-1", "url2": "https://www.kaigokensaku.mhlw.go.jp/09/index.php?action_kouhyou_detail_004_kani=true&JigyosyoCd=0960890150-00&ServiceCd=130&Type=search" }, "geometry": { "type": "Point", "coordinates": [ 139.8079836, 36.2809462 ] } },
{ "type": "Feature", "properties": { "内容": "訪問看護ステーションTOMONI【訪問看護】栃木県小山市羽川１４８－３１", "url2": "https://www.kaigokensaku.mhlw.go.jp/09/index.php?action_kouhyou_detail_004_kani=true&JigyosyoCd=0960890184-00&ServiceCd=130&Type=search" }, "geometry": { "type": "Point", "coordinates": [ 139.8280868, 36.3568301 ] } },
{ "type": "Feature", "properties": { "内容": "訪問看護ステーション【訪問看護】栃木県小山市宮本町２丁目３番１２号", "url2": "https://www.kaigokensaku.mhlw.go.jp/09/index.php?action_kouhyou_detail_004_kani=true&JigyosyoCd=0970803052-00&ServiceCd=130&Type=search" }, "geometry": { "type": "Point", "coordinates": [ 139.8026209, 36.3115538 ] } },
{ "type": "Feature", "properties": { "内容": "訪問看護ステーションYell【訪問看護】栃木県小山市神鳥谷2-21-15", "url2": "https://www.kaigokensaku.mhlw.go.jp/09/index.php?action_kouhyou_detail_004_kani=true&JigyosyoCd=0970803086-00&ServiceCd=130&Type=search" }, "geometry": { "type": "Point", "coordinates": [ 139.792981300000037, 36.300356 ] } },
{ "type": "Feature", "properties": { "内容": "訪問看護ステーション孫の手・おやま【訪問看護】栃木県小山市城東6丁目18番17号", "url2": "https://www.kaigokensaku.mhlw.go.jp/09/index.php?action_kouhyou_detail_004_kani=true&JigyosyoCd=0970803185-00&ServiceCd=130&Type=search" }, "geometry": { "type": "Point", "coordinates": [ 139.8209371, 36.310173 ] } },
{ "type": "Feature", "properties": { "内容": "ハンディフォレスト【訪問看護】栃木県小山市西城南6-3-9", "url2": "https://www.kaigokensaku.mhlw.go.jp/09/index.php?action_kouhyou_detail_004_kani=true&JigyosyoCd=0970803201-00&ServiceCd=130&Type=search" }, "geometry": { "type": "Point", "coordinates": [ 139.80401040000001, 36.2912018 ] } },
{ "type": "Feature", "properties": { "内容": "なないろ在宅ケアステーション【訪問看護】栃木県小山市羽川313番地21", "url2": "https://www.kaigokensaku.mhlw.go.jp/09/index.php?action_kouhyou_detail_004_kani=true&JigyosyoCd=0970803011-00&ServiceCd=130&Type=search" }, "geometry": { "type": "Point", "coordinates": [ 139.830892791401681, 36.363418321644176 ] } },
{ "type": "Feature", "properties": { "内容": "看護クラーク小山【訪問看護】栃木県小山市城東2丁目18番25号", "url2": "https://www.kaigokensaku.mhlw.go.jp/09/index.php?action_kouhyou_detail_004_kani=true&JigyosyoCd=0960890226-00&ServiceCd=130&Type=search" }, "geometry": { "type": "Point", "coordinates": [ 139.8149861, 36.3146637 ] } },
{ "type": "Feature", "properties": { "内容": "訪問看護ステーションあやめ小山南【訪問看護】栃木県小山市大字神鳥谷863-1小山宮武マンション102", "url2": "https://www.kaigokensaku.mhlw.go.jp/09/index.php?action_kouhyou_detail_004_kani=true&JigyosyoCd=0960890218-00&ServiceCd=130&Type=search" }, "geometry": { "type": "Point", "coordinates": [ 139.7965151, 36.3057982 ] } },
{ "type": "Feature", "properties": { "内容": "訪問看護ステーションあやめ真岡東【訪問看護】栃木県真岡市荒町3-1-1藤田ビル1F", "url2": "https://www.kaigokensaku.mhlw.go.jp/09/index.php?action_kouhyou_detail_004_kani=true&JigyosyoCd=0960990075-00&ServiceCd=130&Type=search" }, "geometry": { "type": "Point", "coordinates": [ 140.0122691, 36.4431697 ] } },
{ "type": "Feature", "properties": { "内容": "真岡訪問看護ステーション【訪問看護】栃木県真岡市並木町1-10-12ファーストビル２Ｆ", "url2": "https://www.kaigokensaku.mhlw.go.jp/09/index.php?action_kouhyou_detail_004_kani=true&JigyosyoCd=0970900874-00&ServiceCd=130&Type=search" }, "geometry": { "type": "Point", "coordinates": [ 140.001784, 36.4400376 ] } },
{ "type": "Feature", "properties": { "内容": "芳賀赤十字訪問看護ステーション【訪問看護】栃木県真岡市中萩二丁目10番地1", "url2": "https://www.kaigokensaku.mhlw.go.jp/09/index.php?action_kouhyou_detail_004_kani=true&JigyosyoCd=0960990018-00&ServiceCd=130&Type=search" }, "geometry": { "type": "Point", "coordinates": [ 140.011861472555864, 36.451832655725745 ] } },
{ "type": "Feature", "properties": { "内容": "訪問看護ステーションこすもす【訪問看護】栃木県真岡市上高間木2-24-4", "url2": "https://www.kaigokensaku.mhlw.go.jp/09/index.php?action_kouhyou_detail_004_kani=true&JigyosyoCd=0960990026-00&ServiceCd=130&Type=search" }, "geometry": { "type": "Point", "coordinates": [ 139.985813499999949, 36.441604 ] } },
{ "type": "Feature", "properties": { "内容": "医療法人徳真会真岡病院訪問看護ステーション【訪問看護】栃木県真岡市荒町3-45-16真岡病院１階", "url2": "https://www.kaigokensaku.mhlw.go.jp/09/index.php?action_kouhyou_detail_004_kani=true&JigyosyoCd=0960990083-00&ServiceCd=130&Type=search" }, "geometry": { "type": "Point", "coordinates": [ 140.017483701852427, 36.446057069547571 ] } },
{ "type": "Feature", "properties": { "内容": "さくら訪問看護ステーション【訪問看護】栃木県大田原市下石上１４５２", "url2": "https://www.kaigokensaku.mhlw.go.jp/09/index.php?action_kouhyou_detail_004_kani=true&JigyosyoCd=0961090016-00&ServiceCd=130&Type=search" }, "geometry": { "type": "Point", "coordinates": [ 139.948071700000014, 36.8564476 ] } },
{ "type": "Feature", "properties": { "内容": "訪問看護ステーションリヤンド那須【訪問看護】栃木県大田原市南金丸1406-1", "url2": "https://www.kaigokensaku.mhlw.go.jp/09/index.php?action_kouhyou_detail_004_kani=true&JigyosyoCd=0971001482-00&ServiceCd=130&Type=search" }, "geometry": { "type": "Point", "coordinates": [ 140.09581270000001, 36.8548331 ] } },
{ "type": "Feature", "properties": { "内容": "だいな訪問看護ステ－ション【訪問看護】栃木県大田原市紫塚３丁目２６３３番地１２", "url2": "https://www.kaigokensaku.mhlw.go.jp/09/index.php?action_kouhyou_detail_004_kani=true&JigyosyoCd=0961090008-00&ServiceCd=130&Type=search" }, "geometry": { "type": "Point", "coordinates": [ 140.021669484655831, 36.877754221556415 ] } },
{ "type": "Feature", "properties": { "内容": "訪問看護ステーション花はな【訪問看護】栃木県大田原市黒羽田町802-10", "url2": "https://www.kaigokensaku.mhlw.go.jp/09/index.php?action_kouhyou_detail_004_kani=true&JigyosyoCd=0961090073-00&ServiceCd=130&Type=search" }, "geometry": { "type": "Point", "coordinates": [ 140.120352, 36.8618041 ] } },
{ "type": "Feature", "properties": { "内容": "とちぎ訪問看護ステーションくろばね【訪問看護】栃木県大田原市黒羽向町142番地", "url2": "https://www.kaigokensaku.mhlw.go.jp/09/index.php?action_kouhyou_detail_004_kani=true&JigyosyoCd=0962590022-00&ServiceCd=130&Type=search" }, "geometry": { "type": "Point", "coordinates": [ 140.117111354102917, 36.864142348241614 ] } },
{ "type": "Feature", "properties": { "内容": "那須赤十字訪問看護ステーション【訪問看護】栃木県大田原市中田原1081番地9", "url2": "https://www.kaigokensaku.mhlw.go.jp/09/index.php?action_kouhyou_detail_004_kani=true&JigyosyoCd=0965190028-00&ServiceCd=130&Type=search" }, "geometry": { "type": "Point", "coordinates": [ 140.037121454078289, 36.881172451845586 ] } },
{ "type": "Feature", "properties": { "内容": "訪問看護ステーションやいた【訪問看護】栃木県矢板市中2011番地４ケアプラザ矢板", "url2": "https://www.kaigokensaku.mhlw.go.jp/09/index.php?action_kouhyou_detail_004_kani=true&JigyosyoCd=0961190030-00&ServiceCd=130&Type=search" }, "geometry": { "type": "Point", "coordinates": [ 139.940599330857793, 36.805439792784 ] } },
{ "type": "Feature", "properties": { "内容": "しおや訪問看護ステーション【訪問看護】栃木県矢板市富田７７番地しおや総合在宅ケアセンター", "url2": "https://www.kaigokensaku.mhlw.go.jp/09/index.php?action_kouhyou_detail_004_kani=true&JigyosyoCd=0971100359-00&ServiceCd=130&Type=search" }, "geometry": { "type": "Point", "coordinates": [ 139.925348799999938, 36.7981734 ] } },
{ "type": "Feature", "properties": { "内容": "訪問看護ステーションあやめ西那須野【訪問看護】栃木県那須塩原市東三島3丁目41-6サンハイツ木下B棟　201号室", "url2": "https://www.kaigokensaku.mhlw.go.jp/09/index.php?action_kouhyou_detail_004_kani=true&JigyosyoCd=0961390077-00&ServiceCd=130&Type=search" }, "geometry": { "type": "Point", "coordinates": [ 139.978613700000011, 36.8952463 ] } },
{ "type": "Feature", "properties": { "内容": "訪問看護ステーション春日和那須塩原【訪問看護】栃木県那須塩原市埼玉13-110worldaggregation那須", "url2": "https://www.kaigokensaku.mhlw.go.jp/09/index.php?action_kouhyou_detail_004_kani=true&JigyosyoCd=0961090115-00&ServiceCd=130&Type=search" }, "geometry": { "type": "Point", "coordinates": [ 140.021249141021826, 36.971609416591875 ] } },
{ "type": "Feature", "properties": { "内容": "株式会社KINOMI【訪問看護】栃木県那須塩原市井口1177-388", "url2": "https://www.kaigokensaku.mhlw.go.jp/09/index.php?action_kouhyou_detail_004_kani=true&JigyosyoCd=0961090057-00&ServiceCd=130&Type=search" }, "geometry": { "type": "Point", "coordinates": [ 139.972461, 36.9185489 ] } },
{ "type": "Feature", "properties": { "内容": "ひなた訪問看護ステーション【訪問看護】栃木県那須塩原市鍋掛1091-43わかまつテナント202号", "url2": "https://www.kaigokensaku.mhlw.go.jp/09/index.php?action_kouhyou_detail_004_kani=true&JigyosyoCd=0961390044-00&ServiceCd=130&Type=search" }, "geometry": { "type": "Point", "coordinates": [ 140.0639184, 36.9617011 ] } },
{ "type": "Feature", "properties": { "内容": "医療法人社団弘徳会　訪問看護ステーション那須【訪問看護】栃木県那須塩原市佐野2-19", "url2": "https://www.kaigokensaku.mhlw.go.jp/09/index.php?action_kouhyou_detail_004_kani=true&JigyosyoCd=0971301502-00&ServiceCd=130&Type=search" }, "geometry": { "type": "Point", "coordinates": [ 140.03757669999996, 36.943257 ] } },
{ "type": "Feature", "properties": { "内容": "ほほえみ訪問看護ステーション【訪問看護】栃木県那須塩原市大黒町2-5菅間記念病院東棟2階", "url2": "https://www.kaigokensaku.mhlw.go.jp/09/index.php?action_kouhyou_detail_004_kani=true&JigyosyoCd=0961290038-00&ServiceCd=130&Type=search" }, "geometry": { "type": "Point", "coordinates": [ 140.0494099, 36.9714777 ] } },
{ "type": "Feature", "properties": { "内容": "西那須野マロニエ訪問看護ステーション【訪問看護】栃木県那須塩原市井口533-11にしなすの総合在宅ケアセンター内", "url2": "https://www.kaigokensaku.mhlw.go.jp/09/index.php?action_kouhyou_detail_004_kani=true&JigyosyoCd=0961390002-00&ServiceCd=130&Type=search" }, "geometry": { "type": "Point", "coordinates": [ 139.973224746835257, 36.911791899999983 ] } },
{ "type": "Feature", "properties": { "内容": "訪問看護ステーションつぼみ【訪問看護】栃木県那須塩原市橋本町8番50号", "url2": "https://www.kaigokensaku.mhlw.go.jp/09/index.php?action_kouhyou_detail_004_kani=true&JigyosyoCd=0961390028-00&ServiceCd=130&Type=search" }, "geometry": { "type": "Point", "coordinates": [ 140.055748, 36.977079 ] } },
{ "type": "Feature", "properties": { "内容": "なすの訪問看護ステーション【訪問看護】栃木県那須塩原市緑1丁目8番43号坂本事務所１", "url2": "https://www.kaigokensaku.mhlw.go.jp/09/index.php?action_kouhyou_detail_004_kani=true&JigyosyoCd=0961390036-00&ServiceCd=130&Type=search" }, "geometry": { "type": "Point", "coordinates": [ 140.006559804077199, 36.869620960952012 ] } },
{ "type": "Feature", "properties": { "内容": "訪問看護ステーションおりーぶ【訪問看護】野間453-14", "url2": "https://www.kaigokensaku.mhlw.go.jp/09/index.php?action_kouhyou_detail_004_kani=true&JigyosyoCd=0961390069-00&ServiceCd=130&Type=search" }, "geometry": { "type": "Point", "coordinates": [ 140.079231289935308, 36.930768863796061 ] } },
{ "type": "Feature", "properties": { "内容": "だるま訪問看護リハビリステーション【訪問看護】氏家2560-2", "url2": "https://www.kaigokensaku.mhlw.go.jp/09/index.php?action_kouhyou_detail_004_kani=true&JigyosyoCd=0961490026-00&ServiceCd=130&Type=search" }, "geometry": { "type": "Point", "coordinates": [ 139.966672534536372, 36.681310844948122 ] } },
{ "type": "Feature", "properties": { "内容": "訪問看護ステーション　卯の郷【訪問看護】栃木県さくら市氏家2650", "url2": "https://www.kaigokensaku.mhlw.go.jp/09/index.php?action_kouhyou_detail_004_kani=true&JigyosyoCd=0962690012-00&ServiceCd=130&Type=search" }, "geometry": { "type": "Point", "coordinates": [ 139.968174699999963, 36.67968 ] } },
{ "type": "Feature", "properties": { "内容": "さくら訪問看護ステーションcocoa【訪問看護】栃木県さくら市櫻野952-2サクラレジデンス102号室", "url2": "https://www.kaigokensaku.mhlw.go.jp/09/index.php?action_kouhyou_detail_004_kani=true&JigyosyoCd=0971400460-00&ServiceCd=130&Type=search" }, "geometry": { "type": "Point", "coordinates": [ 139.9777537, 36.685473400000014 ] } },
{ "type": "Feature", "properties": { "内容": "訪問看護ステーションこころの和【訪問看護】栃木県那須烏山市金井二丁目１２番９号", "url2": "https://www.kaigokensaku.mhlw.go.jp/09/index.php?action_kouhyou_detail_004_kani=true&JigyosyoCd=0961590023-00&ServiceCd=130&Type=search" }, "geometry": { "type": "Point", "coordinates": [ 140.154660350926207, 36.65250389354825 ] } },
{ "type": "Feature", "properties": { "内容": "訪問看護ステーションあい【訪問看護】栃木県那須烏山市神長422‐1", "url2": "https://www.kaigokensaku.mhlw.go.jp/09/index.php?action_kouhyou_detail_004_kani=true&JigyosyoCd=0961590015-00&ServiceCd=130&Type=search" }, "geometry": { "type": "Point", "coordinates": [ 140.132784688455217, 36.665924840595757 ] } },
{ "type": "Feature", "properties": { "内容": "月明り訪問看護ステーション【訪問看護】栃木県那須烏山市神長474-1", "url2": "https://www.kaigokensaku.mhlw.go.jp/09/index.php?action_kouhyou_detail_004_kani=true&JigyosyoCd=0961590031-00&ServiceCd=130&Type=search" }, "geometry": { "type": "Point", "coordinates": [ 140.1345729, 36.6635149 ] } },
{ "type": "Feature", "properties": { "内容": "訪問看護ステーション春風【訪問看護】栃木県那須烏山市田野倉8-1", "url2": "https://www.kaigokensaku.mhlw.go.jp/09/index.php?action_kouhyou_detail_004_kani=true&JigyosyoCd=0961590049-00&ServiceCd=130&Type=search" }, "geometry": { "type": "Point", "coordinates": [ 140.0934436, 36.661769 ] } },
{ "type": "Feature", "properties": { "内容": "訪問看護ステーションつばさ【訪問看護】栃木県下野市駅東3-5-7", "url2": "https://www.kaigokensaku.mhlw.go.jp/09/index.php?action_kouhyou_detail_004_kani=true&JigyosyoCd=0961690013-00&ServiceCd=130&Type=search" }, "geometry": { "type": "Point", "coordinates": [ 139.845841602776659, 36.375398096608791 ] } },
{ "type": "Feature", "properties": { "内容": "LC訪問看護リハビリステーション【訪問看護】栃木県下野市医大前3-7-7", "url2": "https://www.kaigokensaku.mhlw.go.jp/09/index.php?action_kouhyou_detail_004_kani=true&JigyosyoCd=0961690021-00&ServiceCd=130&Type=search" }, "geometry": { "type": "Point", "coordinates": [ 139.856833649215332, 36.395847771045474 ] } },
{ "type": "Feature", "properties": { "内容": "訪問看護ステーション石橋【訪問看護】栃木県下野市下古山1丁目15-4", "url2": "https://www.kaigokensaku.mhlw.go.jp/09/index.php?action_kouhyou_detail_004_kani=true&JigyosyoCd=0971600374-00&ServiceCd=130&Type=search" }, "geometry": { "type": "Point", "coordinates": [ 139.854524807416794, 36.441919324290154 ] } },
{ "type": "Feature", "properties": { "内容": "訪問看護ステーションABCリビング下野【訪問看護】栃木県下野市小金井2282-7", "url2": "https://www.kaigokensaku.mhlw.go.jp/09/index.php?action_kouhyou_detail_004_kani=true&JigyosyoCd=0961690039-00&ServiceCd=130&Type=search" }, "geometry": { "type": "Point", "coordinates": [ 139.8517971, 36.4039038 ] } },
{ "type": "Feature", "properties": { "内容": "ひなた訪問看護ステーション【訪問看護】栃木県河内郡上三川町上蒲生３－１５　２F", "url2": "https://www.kaigokensaku.mhlw.go.jp/09/index.php?action_kouhyou_detail_004_kani=true&JigyosyoCd=0962190047-00&ServiceCd=130&Type=search" }, "geometry": { "type": "Point", "coordinates": [ 139.911705399999988, 36.4337533 ] } },
{ "type": "Feature", "properties": { "内容": "訪問看護ステーションたねまき【訪問看護】河内郡上三川町しらさぎ１丁目43-13第一たかはしハイツ101", "url2": "https://www.kaigokensaku.mhlw.go.jp/09/index.php?action_kouhyou_detail_004_kani=true&JigyosyoCd=0972100739-00&ServiceCd=130&Type=search" }, "geometry": { "type": "Point", "coordinates": [ 139.9117048, 36.4402776 ] } },
{ "type": "Feature", "properties": { "内容": "青空訪問看護ステーション【訪問看護】栃木県河内郡上三川町上蒲生2203番地10", "url2": "https://www.kaigokensaku.mhlw.go.jp/09/index.php?action_kouhyou_detail_004_kani=true&JigyosyoCd=0962190054-00&ServiceCd=130&Type=search" }, "geometry": { "type": "Point", "coordinates": [ 139.9042294, 36.4491677 ] } },
{ "type": "Feature", "properties": { "内容": "けやき訪問看護ステーション【訪問看護】栃木県芳賀郡益子町生田目5-6MTコーポ201", "url2": "https://www.kaigokensaku.mhlw.go.jp/09/index.php?action_kouhyou_detail_004_kani=true&JigyosyoCd=0962790077-00&ServiceCd=130&Type=search" }, "geometry": { "type": "Point", "coordinates": [ 140.085036381874488, 36.442047226820321 ] } },
{ "type": "Feature", "properties": { "内容": "訪問看護ふらみんご【訪問看護】栃木県下都賀郡壬生町緑町1-11-5", "url2": "https://www.kaigokensaku.mhlw.go.jp/09/index.php?action_kouhyou_detail_004_kani=true&JigyosyoCd=0972301626-00&ServiceCd=130&Type=search" }, "geometry": { "type": "Point", "coordinates": [ 139.8278369, 36.465425099999969 ] } },
{ "type": "Feature", "properties": { "内容": "とちぎ訪問看護ステーションみぶ【訪問看護】栃木県下都賀郡壬生町落合1-18-12", "url2": "https://www.kaigokensaku.mhlw.go.jp/09/index.php?action_kouhyou_detail_004_kani=true&JigyosyoCd=0962390043-00&ServiceCd=130&Type=search" }, "geometry": { "type": "Point", "coordinates": [ 139.81896340000003, 36.448692 ] } },
{ "type": "Feature", "properties": { "内容": "栃木ソーシャルサービス株式会社　訪問看護ステーションこころ【訪問看護】栃木県下都賀郡壬生町通町5-34", "url2": "https://www.kaigokensaku.mhlw.go.jp/09/index.php?action_kouhyou_detail_004_kani=true&JigyosyoCd=0972301220-00&ServiceCd=130&Type=search" }, "geometry": { "type": "Point", "coordinates": [ 139.801105186637074, 36.429764345998862 ] } },
{ "type": "Feature", "properties": { "内容": "ナースステーション　りの【訪問看護】栃木県下都賀郡壬生町本丸1丁目10-70", "url2": "https://www.kaigokensaku.mhlw.go.jp/09/index.php?action_kouhyou_detail_004_kani=true&JigyosyoCd=0972301634-00&ServiceCd=130&Type=search" }, "geometry": { "type": "Point", "coordinates": [ 139.7955653, 36.4284827 ] } },
{ "type": "Feature", "properties": { "内容": "訪問看護ステーションしるく【訪問看護】栃木県下都賀郡壬生町落合2丁目2-1パークサイドC　108号室", "url2": "https://www.kaigokensaku.mhlw.go.jp/09/index.php?action_kouhyou_detail_004_kani=true&JigyosyoCd=0972301675-00&ServiceCd=130&Type=search" }, "geometry": { "type": "Point", "coordinates": [ 139.8216414, 36.4537624 ] } },
{ "type": "Feature", "properties": { "内容": "訪問看護ステーションたんぽぽ【訪問看護】栃木県下都賀郡野木町友沼5982-5", "url2": "https://www.kaigokensaku.mhlw.go.jp/09/index.php?action_kouhyou_detail_004_kani=true&JigyosyoCd=0962390027-00&ServiceCd=130&Type=search" }, "geometry": { "type": "Point", "coordinates": [ 139.725842868392306, 36.228097093505326 ] } },
{ "type": "Feature", "properties": { "内容": "訪問看護ステーション　たいよう【訪問看護】栃木県塩谷郡塩谷町玉生838-1", "url2": "https://www.kaigokensaku.mhlw.go.jp/09/index.php?action_kouhyou_detail_004_kani=true&JigyosyoCd=0962690053-00&ServiceCd=130&Type=search" }, "geometry": { "type": "Point", "coordinates": [ 139.8537868, 36.7782889 ] } },
{ "type": "Feature", "properties": { "内容": "とちぎ訪問看護ステーション　たかねざわ【訪問看護】栃木県塩谷郡高根沢町光陽台3-15-1", "url2": "https://www.kaigokensaku.mhlw.go.jp/09/index.php?action_kouhyou_detail_004_kani=true&JigyosyoCd=0962690020-00&ServiceCd=130&Type=search" }, "geometry": { "type": "Point", "coordinates": [ 139.988850248500825, 36.61741979690801 ] } },
{ "type": "Feature", "properties": { "内容": "訪問看護ステーションひだまり【訪問看護】高根沢町石末２８０６－８", "url2": "https://www.kaigokensaku.mhlw.go.jp/09/index.php?action_kouhyou_detail_004_kani=true&JigyosyoCd=0972600787-00&ServiceCd=130&Type=search" }, "geometry": { "type": "Point", "coordinates": [ 139.988264500000014, 36.6144047 ] } },
{ "type": "Feature", "properties": { "内容": "訪問看護ステーションりんりん【訪問看護】栃木県那須郡那須町大字寺子丙2番地129", "url2": "https://www.kaigokensaku.mhlw.go.jp/09/index.php?action_kouhyou_detail_004_kani=true&JigyosyoCd=0962590055-00&ServiceCd=130&Type=search" }, "geometry": { "type": "Point", "coordinates": [ 140.118789846024043, 37.024838568614605 ] } }
]
}
