{
"type": "FeatureCollection",
"name": "geo_09_特定施設入居者生活介護（軽費老人ホーム）",
"crs": { "type": "name", "properties": { "name": "urn:ogc:def:crs:OGC:1.3:CRS84" } },
"features": [
{ "type": "Feature", "properties": { "内容": "ケアハウス　エバーグリーンみずほの【特定施設入居者生活介護（軽費老人ホーム）】栃木県宇都宮市上桑島町1339番地2", "url2": "https://www.kaigokensaku.mhlw.go.jp/09/index.php?action_kouhyou_detail_004_kani=true&JigyosyoCd=0970103578-00&ServiceCd=332&Type=search" }, "geometry": { "type": "Point", "coordinates": [ 139.923637161346505, 36.517380294497123 ] } },
{ "type": "Feature", "properties": { "内容": "ケアハウス　　宮の里【特定施設入居者生活介護（軽費老人ホーム）】栃木県宇都宮市田野町666-2", "url2": "https://www.kaigokensaku.mhlw.go.jp/09/index.php?action_kouhyou_detail_004_kani=true&JigyosyoCd=0970103818-00&ServiceCd=332&Type=search" }, "geometry": { "type": "Point", "coordinates": [ 139.801938299999961, 36.5961791 ] } },
{ "type": "Feature", "properties": { "内容": "ケアハウス　ケアプラザ而今【特定施設入居者生活介護（軽費老人ホーム）】栃木県宇都宮市砥上町54-1", "url2": "https://www.kaigokensaku.mhlw.go.jp/09/index.php?action_kouhyou_detail_004_kani=true&JigyosyoCd=0970103073-00&ServiceCd=332&Type=search" }, "geometry": { "type": "Point", "coordinates": [ 139.845309, 36.5441891 ] } },
{ "type": "Feature", "properties": { "内容": "ケアハウスジョイナス長岡【特定施設入居者生活介護（軽費老人ホーム）】栃木県宇都宮市長岡町１６３番地５", "url2": "https://www.kaigokensaku.mhlw.go.jp/09/index.php?action_kouhyou_detail_004_kani=true&JigyosyoCd=0970102687-00&ServiceCd=332&Type=search" }, "geometry": { "type": "Point", "coordinates": [ 139.877783200000067, 36.6007157 ] } },
{ "type": "Feature", "properties": { "内容": "ケアハウス南の里【特定施設入居者生活介護（軽費老人ホーム）】栃木県宇都宮市花房３－３－１６", "url2": "https://www.kaigokensaku.mhlw.go.jp/09/index.php?action_kouhyou_detail_004_kani=true&JigyosyoCd=0970103040-00&ServiceCd=332&Type=search" }, "geometry": { "type": "Point", "coordinates": [ 139.878160500000035, 36.5486741 ] } },
{ "type": "Feature", "properties": { "内容": "ケアハウス　元気の里【特定施設入居者生活介護（軽費老人ホーム）】栃木県宇都宮市幕田町1456番地1", "url2": "https://www.kaigokensaku.mhlw.go.jp/09/index.php?action_kouhyou_detail_004_kani=true&JigyosyoCd=0970104030-00&ServiceCd=332&Type=search" }, "geometry": { "type": "Point", "coordinates": [ 139.851895099999979, 36.4965601 ] } },
{ "type": "Feature", "properties": { "内容": "第２ジョイナス長岡【特定施設入居者生活介護（軽費老人ホーム）】栃木県宇都宮市長岡町１５８番地１", "url2": "https://www.kaigokensaku.mhlw.go.jp/09/index.php?action_kouhyou_detail_004_kani=true&JigyosyoCd=0970104949-00&ServiceCd=332&Type=search" }, "geometry": { "type": "Point", "coordinates": [ 139.8784081, 36.6001769 ] } },
{ "type": "Feature", "properties": { "内容": "ケアハウス公孫樹【特定施設入居者生活介護（軽費老人ホーム）】栃木県宇都宮市徳次郎町2632－1", "url2": "https://www.kaigokensaku.mhlw.go.jp/09/index.php?action_kouhyou_detail_004_kani=true&JigyosyoCd=0970105003-00&ServiceCd=332&Type=search" }, "geometry": { "type": "Point", "coordinates": [ 139.839883900000018, 36.6586634 ] } },
{ "type": "Feature", "properties": { "内容": "ケアハウスアオーラ而今【特定施設入居者生活介護（軽費老人ホーム）】栃木県宇都宮市陽東３丁目１５－１５", "url2": "https://www.kaigokensaku.mhlw.go.jp/09/index.php?action_kouhyou_detail_004_kani=true&JigyosyoCd=0970105318-00&ServiceCd=332&Type=search" }, "geometry": { "type": "Point", "coordinates": [ 139.92253089999997, 36.5556057 ] } },
{ "type": "Feature", "properties": { "内容": "ケアハウス　ひこやの里【特定施設入居者生活介護（軽費老人ホーム）】栃木県足利市葉鹿町１９２１番地４", "url2": "https://www.kaigokensaku.mhlw.go.jp/09/index.php?action_kouhyou_detail_004_kani=true&JigyosyoCd=0970201802-00&ServiceCd=332&Type=search" }, "geometry": { "type": "Point", "coordinates": [ 139.3857547, 36.3741269 ] } },
{ "type": "Feature", "properties": { "内容": "星風会ケアハウスケアルネッサンス【特定施設入居者生活介護（軽費老人ホーム）】栃木県栃木市惣社町１２３－１", "url2": "https://www.kaigokensaku.mhlw.go.jp/09/index.php?action_kouhyou_detail_004_kani=true&JigyosyoCd=0970300836-00&ServiceCd=332&Type=search" }, "geometry": { "type": "Point", "coordinates": [ 139.781018099999983, 36.3989438 ] } },
{ "type": "Feature", "properties": { "内容": "ケアハウス　グレープホーム【特定施設入居者生活介護（軽費老人ホーム）】栃木県小山市中久喜1643-1", "url2": "https://www.kaigokensaku.mhlw.go.jp/09/index.php?action_kouhyou_detail_004_kani=true&JigyosyoCd=0970801676-00&ServiceCd=332&Type=search" }, "geometry": { "type": "Point", "coordinates": [ 139.839610900000054, 36.318660412246786 ] } },
{ "type": "Feature", "properties": { "内容": "ケアハウス　ハッピーオーシャン【特定施設入居者生活介護（軽費老人ホーム）】栃木県那須塩原市塩野崎新田１番１号", "url2": "https://www.kaigokensaku.mhlw.go.jp/09/index.php?action_kouhyou_detail_004_kani=true&JigyosyoCd=0971200225-00&ServiceCd=332&Type=search" }, "geometry": { "type": "Point", "coordinates": [ 139.999265199999968, 36.9659012 ] } },
{ "type": "Feature", "properties": { "内容": "ケアハウス　もちが丘【特定施設入居者生活介護（軽費老人ホーム）】栃木県那須塩原市東赤田385番地11", "url2": "https://www.kaigokensaku.mhlw.go.jp/09/index.php?action_kouhyou_detail_004_kani=true&JigyosyoCd=0971301056-00&ServiceCd=332&Type=search" }, "geometry": { "type": "Point", "coordinates": [ 139.967144400000052, 36.9136472 ] } }
]
}
