{
"type": "FeatureCollection",
"name": "geo_09_地域密着型通所介護",
"crs": { "type": "name", "properties": { "name": "urn:ogc:def:crs:OGC:1.3:CRS84" } },
"features": [
{ "type": "Feature", "properties": { "内容": "リハプライド岡本【地域密着型通所介護】栃木県宇都宮市下岡本町2115-50", "url2": "https://www.kaigokensaku.mhlw.go.jp/09/index.php?action_kouhyou_detail_004_kani=true&JigyosyoCd=0990100752-00&ServiceCd=780&Type=search" }, "geometry": { "type": "Point", "coordinates": [ 139.940406825303654, 36.603700408553046 ] } },
{ "type": "Feature", "properties": { "内容": "デイリハにしはら【地域密着型通所介護】栃木県宇都宮市新町１丁目２番２１号", "url2": "https://www.kaigokensaku.mhlw.go.jp/09/index.php?action_kouhyou_detail_004_kani=true&JigyosyoCd=0990101008-00&ServiceCd=780&Type=search" }, "geometry": { "type": "Point", "coordinates": [ 139.873626699999988, 36.5504416 ] } },
{ "type": "Feature", "properties": { "内容": "六道デイサービスセンターみやスマイル【地域密着型通所介護】栃木県宇都宮市六道町13-3", "url2": "https://www.kaigokensaku.mhlw.go.jp/09/index.php?action_kouhyou_detail_004_kani=true&JigyosyoCd=0990101107-00&ServiceCd=780&Type=search" }, "geometry": { "type": "Point", "coordinates": [ 139.868710600000014, 36.5537841 ] } },
{ "type": "Feature", "properties": { "内容": "ミネルヴァリハビリセンター【地域密着型通所介護】栃木県宇都宮市峰町258－55", "url2": "https://www.kaigokensaku.mhlw.go.jp/09/index.php?action_kouhyou_detail_004_kani=true&JigyosyoCd=0990100935-00&ServiceCd=780&Type=search" }, "geometry": { "type": "Point", "coordinates": [ 139.918194, 36.5497175 ] } },
{ "type": "Feature", "properties": { "内容": "デイサービスセンターかすがい【地域密着型通所介護】栃木県宇都宮市野沢町335-4", "url2": "https://www.kaigokensaku.mhlw.go.jp/09/index.php?action_kouhyou_detail_004_kani=true&JigyosyoCd=0970105094-00&ServiceCd=780&Type=search" }, "geometry": { "type": "Point", "coordinates": [ 139.855586499999987, 36.611390030066175 ] } },
{ "type": "Feature", "properties": { "内容": "株式会社ゆうあんどあい【地域密着型通所介護】宝木町１丁目４０－３", "url2": "https://www.kaigokensaku.mhlw.go.jp/09/index.php?action_kouhyou_detail_004_kani=true&JigyosyoCd=0990100729-00&ServiceCd=780&Type=search" }, "geometry": { "type": "Point", "coordinates": [ 139.8522271, 36.5785432 ] } },
{ "type": "Feature", "properties": { "内容": "デイサービスひまわりの会　台新田の家【地域密着型通所介護】栃木県宇都宮市台新田1－13－24", "url2": "https://www.kaigokensaku.mhlw.go.jp/09/index.php?action_kouhyou_detail_004_kani=true&JigyosyoCd=0990100638-00&ServiceCd=780&Type=search" }, "geometry": { "type": "Point", "coordinates": [ -8.24389, 53.41291 ] } },
{ "type": "Feature", "properties": { "内容": "デイサービス太陽ケ丘【地域密着型通所介護】栃木県宇都宮市上田原町950-20", "url2": "https://www.kaigokensaku.mhlw.go.jp/09/index.php?action_kouhyou_detail_004_kani=true&JigyosyoCd=0970105979-00&ServiceCd=780&Type=search" }, "geometry": { "type": "Point", "coordinates": [ 139.89285, 36.646175 ] } },
{ "type": "Feature", "properties": { "内容": "デイサービスセンター南の里【地域密着型通所介護】栃木県宇都宮市花房3-3-16", "url2": "https://www.kaigokensaku.mhlw.go.jp/09/index.php?action_kouhyou_detail_004_kani=true&JigyosyoCd=0970100426-00&ServiceCd=780&Type=search" }, "geometry": { "type": "Point", "coordinates": [ 139.878160500000035, 36.5486741 ] } },
{ "type": "Feature", "properties": { "内容": "デイサービスセンターハート【地域密着型通所介護】石井町3261-4", "url2": "https://www.kaigokensaku.mhlw.go.jp/09/index.php?action_kouhyou_detail_004_kani=true&JigyosyoCd=0970104170-00&ServiceCd=780&Type=search" }, "geometry": { "type": "Point", "coordinates": [ 134.4407484, 34.0742086 ] } },
{ "type": "Feature", "properties": { "内容": "高齢者支援サービスかがやき通所介護センター【地域密着型通所介護】栃木県宇都宮市西川田町1020番地15", "url2": "https://www.kaigokensaku.mhlw.go.jp/09/index.php?action_kouhyou_detail_004_kani=true&JigyosyoCd=0970102190-00&ServiceCd=780&Type=search" }, "geometry": { "type": "Point", "coordinates": [ 139.855680799999988, 36.5347273 ] } },
{ "type": "Feature", "properties": { "内容": "デイサービスセンターアクロス【地域密着型通所介護】栃木県宇都宮市鐺山町６７番地１", "url2": "https://www.kaigokensaku.mhlw.go.jp/09/index.php?action_kouhyou_detail_004_kani=true&JigyosyoCd=0970106407-00&ServiceCd=780&Type=search" }, "geometry": { "type": "Point", "coordinates": [ 139.973499, 36.5365142 ] } },
{ "type": "Feature", "properties": { "内容": "機能訓練特化型デイサ－ビス　なごみ【地域密着型通所介護】栃木県宇都宮市砥上町５９－９河津整骨院　砥上院　併設", "url2": "https://www.kaigokensaku.mhlw.go.jp/09/index.php?action_kouhyou_detail_004_kani=true&JigyosyoCd=0970107009-00&ServiceCd=780&Type=search" }, "geometry": { "type": "Point", "coordinates": [ 139.846069503687488, 36.543341716691451 ] } },
{ "type": "Feature", "properties": { "内容": "リハビリデイサービスえがお桜店【地域密着型通所介護】栃木県宇都宮市六道町13-3", "url2": "https://www.kaigokensaku.mhlw.go.jp/09/index.php?action_kouhyou_detail_004_kani=true&JigyosyoCd=0990100703-00&ServiceCd=780&Type=search" }, "geometry": { "type": "Point", "coordinates": [ 139.868651735619778, 36.553746158698679 ] } },
{ "type": "Feature", "properties": { "内容": "ステップぱーとなー宇都宮駅東【地域密着型通所介護】元今泉５丁目４－８ダイコクビル１階", "url2": "https://www.kaigokensaku.mhlw.go.jp/09/index.php?action_kouhyou_detail_004_kani=true&JigyosyoCd=0990100737-00&ServiceCd=780&Type=search" }, "geometry": { "type": "Point", "coordinates": [ 139.911473, 36.5625158 ] } },
{ "type": "Feature", "properties": { "内容": "ご長寿くらぶ　宇都宮・御幸ケ原ﾃﾞｲｻｰﾋﾞｽｾﾝﾀｰ【地域密着型通所介護】栃木県宇都宮市御幸ヶ原町36-51ご長寿くらぶ　宇都宮・御幸ケ原", "url2": "https://www.kaigokensaku.mhlw.go.jp/09/index.php?action_kouhyou_detail_004_kani=true&JigyosyoCd=0990100794-00&ServiceCd=780&Type=search" }, "geometry": { "type": "Point", "coordinates": [ 139.927821599999987, 36.5889868 ] } },
{ "type": "Feature", "properties": { "内容": "機能訓練レクレーション特化型デイサービス　ココロからだケア　とうや店【地域密着型通所介護】栃木県宇都宮市東谷町510-10", "url2": "https://www.kaigokensaku.mhlw.go.jp/09/index.php?action_kouhyou_detail_004_kani=true&JigyosyoCd=0990100851-00&ServiceCd=780&Type=search" }, "geometry": { "type": "Point", "coordinates": [ 139.897075, 36.4824847 ] } },
{ "type": "Feature", "properties": { "内容": "運動型デイサービス　モーション東塙田【地域密着型通所介護】栃木県宇都宮市東塙田２丁目５番14号", "url2": "https://www.kaigokensaku.mhlw.go.jp/09/index.php?action_kouhyou_detail_004_kani=true&JigyosyoCd=0990101032-00&ServiceCd=780&Type=search" }, "geometry": { "type": "Point", "coordinates": [ 139.891092, 36.566953 ] } },
{ "type": "Feature", "properties": { "内容": "デイサービスきたえるーむ宇都宮下栗【地域密着型通所介護】栃木県宇都宮下栗1丁目22番3号船田ハイツ１０１号室", "url2": "https://www.kaigokensaku.mhlw.go.jp/09/index.php?action_kouhyou_detail_004_kani=true&JigyosyoCd=0990101115-00&ServiceCd=780&Type=search" }, "geometry": { "type": "Point", "coordinates": [ 139.90159723558196, 36.536100600000047 ] } },
{ "type": "Feature", "properties": { "内容": "デイサービスセンターすずめ【地域密着型通所介護】栃木県宇都宮市高砂町9-8", "url2": "https://www.kaigokensaku.mhlw.go.jp/09/index.php?action_kouhyou_detail_004_kani=true&JigyosyoCd=0970100434-00&ServiceCd=780&Type=search" }, "geometry": { "type": "Point", "coordinates": [ 139.87046620000001, 36.4875591 ] } },
{ "type": "Feature", "properties": { "内容": "デイサービスセンターあざみ【地域密着型通所介護】栃木県宇都宮市川俣町61-3", "url2": "https://www.kaigokensaku.mhlw.go.jp/09/index.php?action_kouhyou_detail_004_kani=true&JigyosyoCd=0970101390-00&ServiceCd=780&Type=search" }, "geometry": { "type": "Point", "coordinates": [ 139.9177623, 36.604702 ] } },
{ "type": "Feature", "properties": { "内容": "駒生ふれあいデイサービスセンターえがお【地域密着型通所介護】栃木県宇都宮市大谷町697-1", "url2": "https://www.kaigokensaku.mhlw.go.jp/09/index.php?action_kouhyou_detail_004_kani=true&JigyosyoCd=0970102018-00&ServiceCd=780&Type=search" }, "geometry": { "type": "Point", "coordinates": [ 139.831752200000011, 36.5970069 ] } },
{ "type": "Feature", "properties": { "内容": "つばめの郷デイサービスセンター【地域密着型通所介護】下桑島町400番地2", "url2": "https://www.kaigokensaku.mhlw.go.jp/09/index.php?action_kouhyou_detail_004_kani=true&JigyosyoCd=0970103560-00&ServiceCd=780&Type=search" }, "geometry": { "type": "Point", "coordinates": [ 139.9430562, 36.5052685 ] } },
{ "type": "Feature", "properties": { "内容": "ハートポイント宇都宮デイサービス【地域密着型通所介護】今泉町134-3", "url2": "https://www.kaigokensaku.mhlw.go.jp/09/index.php?action_kouhyou_detail_004_kani=true&JigyosyoCd=0970103800-00&ServiceCd=780&Type=search" }, "geometry": { "type": "Point", "coordinates": [ 139.898606199999989, 36.5675395 ] } },
{ "type": "Feature", "properties": { "内容": "コープデイサービスセンター緑３丁目【地域密着型通所介護】栃木県宇都宮市緑3-10-8", "url2": "https://www.kaigokensaku.mhlw.go.jp/09/index.php?action_kouhyou_detail_004_kani=true&JigyosyoCd=0970103883-00&ServiceCd=780&Type=search" }, "geometry": { "type": "Point", "coordinates": [ 139.8585267, 36.5191051 ] } },
{ "type": "Feature", "properties": { "内容": "宇都宮市社会福祉協議会河内事業所【地域密着型通所介護】白沢町385河内総合福祉センター", "url2": "https://www.kaigokensaku.mhlw.go.jp/09/index.php?action_kouhyou_detail_004_kani=true&JigyosyoCd=0970103941-00&ServiceCd=780&Type=search" }, "geometry": { "type": "Point", "coordinates": [ 139.941576, 36.6276163 ] } },
{ "type": "Feature", "properties": { "内容": "ケアねっとデイサービスセンター【地域密着型通所介護】宇都宮市兵庫塚2-8-18", "url2": "https://www.kaigokensaku.mhlw.go.jp/09/index.php?action_kouhyou_detail_004_kani=true&JigyosyoCd=0970104485-00&ServiceCd=780&Type=search" }, "geometry": { "type": "Point", "coordinates": [ 139.856160628172262, 36.501655315514434 ] } },
{ "type": "Feature", "properties": { "内容": "デイサービスゆいの杜【地域密着型通所介護】栃木県宇都宮市ゆいの杜6-29-18", "url2": "https://www.kaigokensaku.mhlw.go.jp/09/index.php?action_kouhyou_detail_004_kani=true&JigyosyoCd=0970104634-00&ServiceCd=780&Type=search" }, "geometry": { "type": "Point", "coordinates": [ 139.998707, 36.5708276 ] } },
{ "type": "Feature", "properties": { "内容": "デイサービスセンターさくらがおか【地域密着型通所介護】西原町3534-2", "url2": "https://www.kaigokensaku.mhlw.go.jp/09/index.php?action_kouhyou_detail_004_kani=true&JigyosyoCd=0970104857-00&ServiceCd=780&Type=search" }, "geometry": { "type": "Point", "coordinates": [ 139.8844364, 36.544868 ] } },
{ "type": "Feature", "properties": { "内容": "GENKINEXT宇都宮御幸ヶ原町【地域密着型通所介護】栃木県宇都宮市御幸ケ原町１３６", "url2": "https://www.kaigokensaku.mhlw.go.jp/09/index.php?action_kouhyou_detail_004_kani=true&JigyosyoCd=0970105284-00&ServiceCd=780&Type=search" }, "geometry": { "type": "Point", "coordinates": [ 139.923354773016342, 36.593148535102472 ] } },
{ "type": "Feature", "properties": { "内容": "ハートフルサポートとちぎデイサービス【地域密着型通所介護】柳田町1771-1", "url2": "https://www.kaigokensaku.mhlw.go.jp/09/index.php?action_kouhyou_detail_004_kani=true&JigyosyoCd=0970105615-00&ServiceCd=780&Type=search" }, "geometry": { "type": "Point", "coordinates": [ 135.59067490000001, 34.7302691 ] } },
{ "type": "Feature", "properties": { "内容": "茶話本舗デイサービス若草亭【地域密着型通所介護】若草3-11-12", "url2": "https://www.kaigokensaku.mhlw.go.jp/09/index.php?action_kouhyou_detail_004_kani=true&JigyosyoCd=0970105656-00&ServiceCd=780&Type=search" }, "geometry": { "type": "Point", "coordinates": [ 130.468977599999988, 33.507056 ] } },
{ "type": "Feature", "properties": { "内容": "あいあいデイサービス宇都宮事業所【地域密着型通所介護】栃木県宇都宮市岩曽町1257-2", "url2": "https://www.kaigokensaku.mhlw.go.jp/09/index.php?action_kouhyou_detail_004_kani=true&JigyosyoCd=0970105755-00&ServiceCd=780&Type=search" }, "geometry": { "type": "Point", "coordinates": [ 139.9114614, 36.5846548 ] } },
{ "type": "Feature", "properties": { "内容": "デイサービスセンター宮の原【地域密着型通所介護】大和3-2-1", "url2": "https://www.kaigokensaku.mhlw.go.jp/09/index.php?action_kouhyou_detail_004_kani=true&JigyosyoCd=0970105912-00&ServiceCd=780&Type=search" }, "geometry": { "type": "Point", "coordinates": [ 139.4722791, 35.4372063 ] } },
{ "type": "Feature", "properties": { "内容": "はりがや健康教室【地域密着型通所介護】針ヶ谷町６４６番地", "url2": "https://www.kaigokensaku.mhlw.go.jp/09/index.php?action_kouhyou_detail_004_kani=true&JigyosyoCd=0970106084-00&ServiceCd=780&Type=search" }, "geometry": { "type": "Point", "coordinates": [ 139.850167499999969, 36.490558900000018 ] } },
{ "type": "Feature", "properties": { "内容": "さつき健康教室【地域密着型通所介護】栃木県宇都宮市さつき1丁目10-7", "url2": "https://www.kaigokensaku.mhlw.go.jp/09/index.php?action_kouhyou_detail_004_kani=true&JigyosyoCd=0970106167-00&ServiceCd=780&Type=search" }, "geometry": { "type": "Point", "coordinates": [ 139.859350400000039, 36.4880418 ] } },
{ "type": "Feature", "properties": { "内容": "機能訓練型デイサービスセンター南の里ハピネス【地域密着型通所介護】鶴田町3668-12", "url2": "https://www.kaigokensaku.mhlw.go.jp/09/index.php?action_kouhyou_detail_004_kani=true&JigyosyoCd=0970106381-00&ServiceCd=780&Type=search" }, "geometry": { "type": "Point", "coordinates": [ 139.847180222771954, 36.568869411960797 ] } },
{ "type": "Feature", "properties": { "内容": "デイサービスセンタ―　オータス【地域密着型通所介護】鶴田町1511-15", "url2": "https://www.kaigokensaku.mhlw.go.jp/09/index.php?action_kouhyou_detail_004_kani=true&JigyosyoCd=0970106662-00&ServiceCd=780&Type=search" }, "geometry": { "type": "Point", "coordinates": [ 139.849227510082045, 36.547648500710302 ] } },
{ "type": "Feature", "properties": { "内容": "泉が丘ケアセンター・デイサービスつちかわ【地域密着型通所介護】栃木県宇都宮市泉が丘6-11-8", "url2": "https://www.kaigokensaku.mhlw.go.jp/09/index.php?action_kouhyou_detail_004_kani=true&JigyosyoCd=0970106787-00&ServiceCd=780&Type=search" }, "geometry": { "type": "Point", "coordinates": [ 139.9196117, 36.570606 ] } },
{ "type": "Feature", "properties": { "内容": "デイサービス　まごころの家　宇都宮砥上【地域密着型通所介護】栃木県宇都宮市砥上町１６３２", "url2": "https://www.kaigokensaku.mhlw.go.jp/09/index.php?action_kouhyou_detail_004_kani=true&JigyosyoCd=0970106936-00&ServiceCd=780&Type=search" }, "geometry": { "type": "Point", "coordinates": [ 139.848802, 36.5427518 ] } },
{ "type": "Feature", "properties": { "内容": "デイトレセンター石井【地域密着型通所介護】栃木県宇都宮市石井町2580-1", "url2": "https://www.kaigokensaku.mhlw.go.jp/09/index.php?action_kouhyou_detail_004_kani=true&JigyosyoCd=0970107181-00&ServiceCd=780&Type=search" }, "geometry": { "type": "Point", "coordinates": [ 139.939744984130812, 36.5440916046335 ] } },
{ "type": "Feature", "properties": { "内容": "デイサービスセンターみずほ【地域密着型通所介護】栃木県宇都宮市上桑島町1476番地2", "url2": "https://www.kaigokensaku.mhlw.go.jp/09/index.php?action_kouhyou_detail_004_kani=true&JigyosyoCd=0990100497-00&ServiceCd=780&Type=search" }, "geometry": { "type": "Point", "coordinates": [ 139.927847218358693, 36.519130726214406 ] } },
{ "type": "Feature", "properties": { "内容": "だんらんの家　西一の沢【地域密着型通所介護】栃木県宇都宮市西一の沢町11-12", "url2": "https://www.kaigokensaku.mhlw.go.jp/09/index.php?action_kouhyou_detail_004_kani=true&JigyosyoCd=0990100612-00&ServiceCd=780&Type=search" }, "geometry": { "type": "Point", "coordinates": [ 139.860146, 36.5647951 ] } },
{ "type": "Feature", "properties": { "内容": "ご長寿くらぶ宇都宮ビオス　デイサービスセンター【地域密着型通所介護】栃木県宇都宮市下岡本町2108-60", "url2": "https://www.kaigokensaku.mhlw.go.jp/09/index.php?action_kouhyou_detail_004_kani=true&JigyosyoCd=0990100646-00&ServiceCd=780&Type=search" }, "geometry": { "type": "Point", "coordinates": [ 139.94618220000001, 36.6011513 ] } },
{ "type": "Feature", "properties": { "内容": "宇都宮・岡本デイサービスセンター【地域密着型通所介護】栃木県宇都宮市下岡本町2115-25ご長寿くらぶ宇都宮・岡本", "url2": "https://www.kaigokensaku.mhlw.go.jp/09/index.php?action_kouhyou_detail_004_kani=true&JigyosyoCd=0990100745-00&ServiceCd=780&Type=search" }, "geometry": { "type": "Point", "coordinates": [ 139.940951399999989, 36.6029534 ] } },
{ "type": "Feature", "properties": { "内容": "デイサービスまごころの家　宇都宮砥上北原【地域密着型通所介護】栃木県宇都宮市砥上町３３７番地２", "url2": "https://www.kaigokensaku.mhlw.go.jp/09/index.php?action_kouhyou_detail_004_kani=true&JigyosyoCd=0990100760-00&ServiceCd=780&Type=search" }, "geometry": { "type": "Point", "coordinates": [ 139.842957100000035, 36.5566362 ] } },
{ "type": "Feature", "properties": { "内容": "機能訓練型デイサービスはっぴーらいふ【地域密着型通所介護】栃木県宇都宮市駒生2-10-20古澤ビル1F", "url2": "https://www.kaigokensaku.mhlw.go.jp/09/index.php?action_kouhyou_detail_004_kani=true&JigyosyoCd=0990100802-00&ServiceCd=780&Type=search" }, "geometry": { "type": "Point", "coordinates": [ 139.849807700000014, 36.5729449 ] } },
{ "type": "Feature", "properties": { "内容": "戸祭リハビリセンター【地域密着型通所介護】栃木県宇都宮市上戸祭町534-4", "url2": "https://www.kaigokensaku.mhlw.go.jp/09/index.php?action_kouhyou_detail_004_kani=true&JigyosyoCd=0990100810-00&ServiceCd=780&Type=search" }, "geometry": { "type": "Point", "coordinates": [ 139.867006, 36.5845253 ] } },
{ "type": "Feature", "properties": { "内容": "上籠谷デイサービス　レザンテラス【地域密着型通所介護】栃木県宇都宮市上籠谷町3566-2", "url2": "https://www.kaigokensaku.mhlw.go.jp/09/index.php?action_kouhyou_detail_004_kani=true&JigyosyoCd=0990100885-00&ServiceCd=780&Type=search" }, "geometry": { "type": "Point", "coordinates": [ 139.964005594442739, 36.531147443514307 ] } },
{ "type": "Feature", "properties": { "内容": "機能訓練型デイサービス　はっぴ-らいふ雀【地域密着型通所介護】栃木県宇都宮市雀の宮2丁目8-10", "url2": "https://www.kaigokensaku.mhlw.go.jp/09/index.php?action_kouhyou_detail_004_kani=true&JigyosyoCd=0990100943-00&ServiceCd=780&Type=search" }, "geometry": { "type": "Point", "coordinates": [ 139.8727465, 36.4961239 ] } },
{ "type": "Feature", "properties": { "内容": "ご長寿くらぶ　宇都宮・西川田デイサービスセンター【地域密着型通所介護】栃木県宇都宮市西川田町1048-6ご長寿くらぶ　宇都宮・西川田", "url2": "https://www.kaigokensaku.mhlw.go.jp/09/index.php?action_kouhyou_detail_004_kani=true&JigyosyoCd=0990101016-00&ServiceCd=780&Type=search" }, "geometry": { "type": "Point", "coordinates": [ 139.8525342, 36.534869600000015 ] } },
{ "type": "Feature", "properties": { "内容": "ﾃﾞｲｻｰﾋﾞｽｾﾝﾀｰARUBE【地域密着型通所介護】駒生町3319-44", "url2": "https://www.kaigokensaku.mhlw.go.jp/09/index.php?action_kouhyou_detail_004_kani=true&JigyosyoCd=0990101024-00&ServiceCd=780&Type=search" }, "geometry": { "type": "Point", "coordinates": [ 139.8459487, 36.6011151 ] } },
{ "type": "Feature", "properties": { "内容": "リハビリデイサービス宇都宮御幸【地域密着型通所介護】栃木県宇都宮市御幸町255-1", "url2": "https://www.kaigokensaku.mhlw.go.jp/09/index.php?action_kouhyou_detail_004_kani=true&JigyosyoCd=0990101065-00&ServiceCd=780&Type=search" }, "geometry": { "type": "Point", "coordinates": [ 139.921417, 36.5800144 ] } },
{ "type": "Feature", "properties": { "内容": "リハビリセンターデイサービス　L-Studio【地域密着型通所介護】栃木県宇都宮市簗瀬町1910-1バーデマンション208", "url2": "https://www.kaigokensaku.mhlw.go.jp/09/index.php?action_kouhyou_detail_004_kani=true&JigyosyoCd=0990101073-00&ServiceCd=780&Type=search" }, "geometry": { "type": "Point", "coordinates": [ 139.886858, 36.5450181 ] } },
{ "type": "Feature", "properties": { "内容": "デイサービスみらいえ【地域密着型通所介護】宇都宮市白沢町2047-10", "url2": "https://www.kaigokensaku.mhlw.go.jp/09/index.php?action_kouhyou_detail_004_kani=true&JigyosyoCd=0990101255-00&ServiceCd=780&Type=search" }, "geometry": { "type": "Point", "coordinates": [ 139.9303826, 36.6166968 ] } },
{ "type": "Feature", "properties": { "内容": "デイテラスみなみ宇都宮【地域密着型通所介護】吉野2+4+17", "url2": "https://www.kaigokensaku.mhlw.go.jp/09/index.php?action_kouhyou_detail_004_kani=true&JigyosyoCd=0990101271-00&ServiceCd=780&Type=search" }, "geometry": { "type": "Point", "coordinates": [ 135.4773097, 34.691161 ] } },
{ "type": "Feature", "properties": { "内容": "地域密着型通所介護事業所　つどいば【地域密着型通所介護】栃木県宇都宮市下川俣町164-11", "url2": "https://www.kaigokensaku.mhlw.go.jp/09/index.php?action_kouhyou_detail_004_kani=true&JigyosyoCd=0990101297-00&ServiceCd=780&Type=search" }, "geometry": { "type": "Point", "coordinates": [ 139.915551906745918, 36.595963020622726 ] } },
{ "type": "Feature", "properties": { "内容": "リハビリデイサービス　一生健明【地域密着型通所介護】上戸祭町258-1KAMITOTERRACEKT-A", "url2": "https://www.kaigokensaku.mhlw.go.jp/09/index.php?action_kouhyou_detail_004_kani=true&JigyosyoCd=0990100695-00&ServiceCd=780&Type=search" }, "geometry": { "type": "Point", "coordinates": [ 139.868481393205002, 36.591115400365055 ] } },
{ "type": "Feature", "properties": { "内容": "アースサポート宇都宮【地域密着型通所介護】栃木県宇都宮市戸祭3丁目5番3号", "url2": "https://www.kaigokensaku.mhlw.go.jp/09/index.php?action_kouhyou_detail_004_kani=true&JigyosyoCd=0990101230-00&ServiceCd=780&Type=search" }, "geometry": { "type": "Point", "coordinates": [ 139.8671412, 36.5763804 ] } },
{ "type": "Feature", "properties": { "内容": "デイサービスセンターお結び【地域密着型通所介護】栃木県宇都宮市下田原町3433-31", "url2": "https://www.kaigokensaku.mhlw.go.jp/09/index.php?action_kouhyou_detail_004_kani=true&JigyosyoCd=0970104873-00&ServiceCd=780&Type=search" }, "geometry": { "type": "Point", "coordinates": [ 139.92399564041159, 36.618534972039583 ] } },
{ "type": "Feature", "properties": { "内容": "めぐみゆいの杜【地域密着型通所介護】栃木県宇都宮市ゆいの杜2-12-16", "url2": "https://www.kaigokensaku.mhlw.go.jp/09/index.php?action_kouhyou_detail_004_kani=true&JigyosyoCd=0990100968-00&ServiceCd=780&Type=search" }, "geometry": { "type": "Point", "coordinates": [ 139.991438384655766, 36.575151392915167 ] } },
{ "type": "Feature", "properties": { "内容": "憩いの家　よってきな【地域密着型通所介護】栃木県宇都宮市さつき1丁目10番18号", "url2": "https://www.kaigokensaku.mhlw.go.jp/09/index.php?action_kouhyou_detail_004_kani=true&JigyosyoCd=0970103222-00&ServiceCd=780&Type=search" }, "geometry": { "type": "Point", "coordinates": [ 139.859106, 36.4885167 ] } },
{ "type": "Feature", "properties": { "内容": "一番町ディサービスセンター【地域密着型通所介護】栃木県宇都宮市一番町1-27", "url2": "https://www.kaigokensaku.mhlw.go.jp/09/index.php?action_kouhyou_detail_004_kani=true&JigyosyoCd=0970105243-00&ServiceCd=780&Type=search" }, "geometry": { "type": "Point", "coordinates": [ 139.888391, 36.5592858 ] } },
{ "type": "Feature", "properties": { "内容": "わたらせリハデイサービス【地域密着型通所介護】栃木県足利市小俣町1113－1", "url2": "https://www.kaigokensaku.mhlw.go.jp/09/index.php?action_kouhyou_detail_004_kani=true&JigyosyoCd=0990200511-00&ServiceCd=780&Type=search" }, "geometry": { "type": "Point", "coordinates": [ 139.3647594, 36.3861139 ] } },
{ "type": "Feature", "properties": { "内容": "デイサービスセンター八雲【地域密着型通所介護】栃木県足利市緑町1-6-1", "url2": "https://www.kaigokensaku.mhlw.go.jp/09/index.php?action_kouhyou_detail_004_kani=true&JigyosyoCd=0990200321-00&ServiceCd=780&Type=search" }, "geometry": { "type": "Point", "coordinates": [ 139.436235, 36.3366978 ] } },
{ "type": "Feature", "properties": { "内容": "有限会社　デイホームまこちゃんち【地域密着型通所介護】栃木県足利市里矢場町1775", "url2": "https://www.kaigokensaku.mhlw.go.jp/09/index.php?action_kouhyou_detail_004_kani=true&JigyosyoCd=0970200978-00&ServiceCd=780&Type=search" }, "geometry": { "type": "Point", "coordinates": [ 139.428422399999988, 36.3088317 ] } },
{ "type": "Feature", "properties": { "内容": "デイホーム華【地域密着型通所介護】栃木県足利市借宿町１丁目21番地15", "url2": "https://www.kaigokensaku.mhlw.go.jp/09/index.php?action_kouhyou_detail_004_kani=true&JigyosyoCd=0970201216-00&ServiceCd=780&Type=search" }, "geometry": { "type": "Point", "coordinates": [ 139.42976250000001, 36.3299013 ] } },
{ "type": "Feature", "properties": { "内容": "まどか苑【地域密着型通所介護】栃木県足利市鹿島町７０９番地４", "url2": "https://www.kaigokensaku.mhlw.go.jp/09/index.php?action_kouhyou_detail_004_kani=true&JigyosyoCd=0970201927-00&ServiceCd=780&Type=search" }, "geometry": { "type": "Point", "coordinates": [ 139.412261199999989, 36.343489 ] } },
{ "type": "Feature", "properties": { "内容": "栃木県足利市大前町838-1【地域密着型通所介護】栃木県足利市大前町838-1", "url2": "https://www.kaigokensaku.mhlw.go.jp/09/index.php?action_kouhyou_detail_004_kani=true&JigyosyoCd=0970201919-00&ServiceCd=780&Type=search" }, "geometry": { "type": "Point", "coordinates": [ 139.396180500000014, 36.3589493 ] } },
{ "type": "Feature", "properties": { "内容": "デイサービス　ひまわり２【地域密着型通所介護】栃木県足利市大久保町753-1", "url2": "https://www.kaigokensaku.mhlw.go.jp/09/index.php?action_kouhyou_detail_004_kani=true&JigyosyoCd=0970201992-00&ServiceCd=780&Type=search" }, "geometry": { "type": "Point", "coordinates": [ 139.500150100000042, 36.3149501 ] } },
{ "type": "Feature", "properties": { "内容": "しゃかいふくしほうじん　りょうがいふくしかい　こうれいしゃふくごうしせつみのりのさと・たじま【地域密着型通所介護】栃木県足利市田島町1959-1", "url2": "https://www.kaigokensaku.mhlw.go.jp/09/index.php?action_kouhyou_detail_004_kani=true&JigyosyoCd=0990200107-00&ServiceCd=780&Type=search" }, "geometry": { "type": "Point", "coordinates": [ 139.465216, 36.3648563 ] } },
{ "type": "Feature", "properties": { "内容": "デイサービス　宮ノ里【地域密着型通所介護】群馬県足利市西砂原後町1210-1", "url2": "https://www.kaigokensaku.mhlw.go.jp/09/index.php?action_kouhyou_detail_004_kani=true&JigyosyoCd=0990200586-00&ServiceCd=780&Type=search" }, "geometry": { "type": "Point", "coordinates": [ 139.457335199999989, 36.3466559 ] } },
{ "type": "Feature", "properties": { "内容": "リーフリハビリステーション【地域密着型通所介護】柳原町859‐14", "url2": "https://www.kaigokensaku.mhlw.go.jp/09/index.php?action_kouhyou_detail_004_kani=true&JigyosyoCd=0990200602-00&ServiceCd=780&Type=search" }, "geometry": { "type": "Point", "coordinates": [ 141.110401599999989, 39.293712 ] } },
{ "type": "Feature", "properties": { "内容": "デイサービスセンター　すずの音【地域密着型通所介護】足利市葉鹿町1丁目8番地37", "url2": "https://www.kaigokensaku.mhlw.go.jp/09/index.php?action_kouhyou_detail_004_kani=true&JigyosyoCd=0990200578-00&ServiceCd=780&Type=search" }, "geometry": { "type": "Point", "coordinates": [ 139.391974200000021, 36.36410690000001 ] } },
{ "type": "Feature", "properties": { "内容": "デイサービス吾亦紅【地域密着型通所介護】栃木県足利市借宿町610-1ケアルネサンスうるしばら", "url2": "https://www.kaigokensaku.mhlw.go.jp/09/index.php?action_kouhyou_detail_004_kani=true&JigyosyoCd=0970202297-00&ServiceCd=780&Type=search" }, "geometry": { "type": "Point", "coordinates": [ 139.4262287, 36.325086 ] } },
{ "type": "Feature", "properties": { "内容": "デイサービスわかくさ【地域密着型通所介護】栃木県足利市若草町8－50", "url2": "https://www.kaigokensaku.mhlw.go.jp/09/index.php?action_kouhyou_detail_004_kani=true&JigyosyoCd=0970202479-00&ServiceCd=780&Type=search" }, "geometry": { "type": "Point", "coordinates": [ 139.472482500000012, 36.3204572 ] } },
{ "type": "Feature", "properties": { "内容": "みんなの家のんびりや【地域密着型通所介護】栃木県足利市江川町4-10-14", "url2": "https://www.kaigokensaku.mhlw.go.jp/09/index.php?action_kouhyou_detail_004_kani=true&JigyosyoCd=0970202487-00&ServiceCd=780&Type=search" }, "geometry": { "type": "Point", "coordinates": [ 139.469061917752072, 36.357810564690098 ] } },
{ "type": "Feature", "properties": { "内容": "デイサービスe-らいふ福【地域密着型通所介護】福居町1287番地1", "url2": "https://www.kaigokensaku.mhlw.go.jp/09/index.php?action_kouhyou_detail_004_kani=true&JigyosyoCd=0970202578-00&ServiceCd=780&Type=search" }, "geometry": { "type": "Point", "coordinates": [ 134.5793348, 34.0134025 ] } },
{ "type": "Feature", "properties": { "内容": "住宅型有料老人ホーム　e-らいふほーむ丘【地域密着型通所介護】栃木県足利市上渋垂町503番地", "url2": "https://www.kaigokensaku.mhlw.go.jp/09/index.php?action_kouhyou_detail_004_kani=true&JigyosyoCd=0970202586-00&ServiceCd=780&Type=search" }, "geometry": { "type": "Point", "coordinates": [ 139.4696017, 36.3037477 ] } },
{ "type": "Feature", "properties": { "内容": "デイサービスe-らいふ　毛野【地域密着型通所介護】栃木県足利市常見町3丁目8-2", "url2": "https://www.kaigokensaku.mhlw.go.jp/09/index.php?action_kouhyou_detail_004_kani=true&JigyosyoCd=0970202719-00&ServiceCd=780&Type=search" }, "geometry": { "type": "Point", "coordinates": [ 139.487723549880144, 36.317379586135424 ] } },
{ "type": "Feature", "properties": { "内容": "デイサービスにっこりケア【地域密着型通所介護】朝倉町3丁目3-14", "url2": "https://www.kaigokensaku.mhlw.go.jp/09/index.php?action_kouhyou_detail_004_kani=true&JigyosyoCd=0970202735-00&ServiceCd=780&Type=search" }, "geometry": { "type": "Point", "coordinates": [ 139.443959299999989, 36.3219133 ] } },
{ "type": "Feature", "properties": { "内容": "デイサービスかかぼ【地域密着型通所介護】栃木県足利市利保町3－14－27", "url2": "https://www.kaigokensaku.mhlw.go.jp/09/index.php?action_kouhyou_detail_004_kani=true&JigyosyoCd=0970202784-00&ServiceCd=780&Type=search" }, "geometry": { "type": "Point", "coordinates": [ 139.473674499999987, 36.3580726 ] } },
{ "type": "Feature", "properties": { "内容": "リハビリデイサービス上気元【地域密着型通所介護】栃木県足利市江川町３丁目５９－１５", "url2": "https://www.kaigokensaku.mhlw.go.jp/09/index.php?action_kouhyou_detail_004_kani=true&JigyosyoCd=0970202958-00&ServiceCd=780&Type=search" }, "geometry": { "type": "Point", "coordinates": [ 139.466592, 36.35771 ] } },
{ "type": "Feature", "properties": { "内容": "GENKI　NEXT足利【地域密着型通所介護】栃木県足利市朝倉町2-21-16ヨークタウン足利敷地内", "url2": "https://www.kaigokensaku.mhlw.go.jp/09/index.php?action_kouhyou_detail_004_kani=true&JigyosyoCd=0970202982-00&ServiceCd=780&Type=search" }, "geometry": { "type": "Point", "coordinates": [ 139.445279699999986, 36.3162166 ] } },
{ "type": "Feature", "properties": { "内容": "デイサービスつくし【地域密着型通所介護】栃木県足利市上渋垂町237番地1", "url2": "https://www.kaigokensaku.mhlw.go.jp/09/index.php?action_kouhyou_detail_004_kani=true&JigyosyoCd=0970203204-00&ServiceCd=780&Type=search" }, "geometry": { "type": "Point", "coordinates": [ 139.463181399999939, 36.303233 ] } },
{ "type": "Feature", "properties": { "内容": "デイサービスたなか【地域密着型通所介護】栃木県足利市田中町776番地2", "url2": "https://www.kaigokensaku.mhlw.go.jp/09/index.php?action_kouhyou_detail_004_kani=true&JigyosyoCd=0990200354-00&ServiceCd=780&Type=search" }, "geometry": { "type": "Point", "coordinates": [ 139.4499042, 36.3254471 ] } },
{ "type": "Feature", "properties": { "内容": "デイサービス　うらら【地域密着型通所介護】栃木県足利市小俣町807番地2", "url2": "https://www.kaigokensaku.mhlw.go.jp/09/index.php?action_kouhyou_detail_004_kani=true&JigyosyoCd=0990200396-00&ServiceCd=780&Type=search" }, "geometry": { "type": "Point", "coordinates": [ 139.369668899999965, 36.3795032 ] } },
{ "type": "Feature", "properties": { "内容": "らくらくデイサービス　あゆの郷【地域密着型通所介護】栃木県足利市利保町2丁目15番地２らくらくほーむあゆの郷", "url2": "https://www.kaigokensaku.mhlw.go.jp/09/index.php?action_kouhyou_detail_004_kani=true&JigyosyoCd=0990200404-00&ServiceCd=780&Type=search" }, "geometry": { "type": "Point", "coordinates": [ 139.4723265, 36.3573174 ] } },
{ "type": "Feature", "properties": { "内容": "らくらくデイサービスしょうようの郷【地域密着型通所介護】栃木県足利市葉鹿町５４０", "url2": "https://www.kaigokensaku.mhlw.go.jp/09/index.php?action_kouhyou_detail_004_kani=true&JigyosyoCd=0990200412-00&ServiceCd=780&Type=search" }, "geometry": { "type": "Point", "coordinates": [ 139.391169590327451, 36.361306906861607 ] } },
{ "type": "Feature", "properties": { "内容": "らくらくデイサービスきりの郷【地域密着型通所介護】栃木県足利市福富町９７６-６", "url2": "https://www.kaigokensaku.mhlw.go.jp/09/index.php?action_kouhyou_detail_004_kani=true&JigyosyoCd=0990200420-00&ServiceCd=780&Type=search" }, "geometry": { "type": "Point", "coordinates": [ 139.476263254114883, 36.306862589661286 ] } },
{ "type": "Feature", "properties": { "内容": "らくらくデイサービスくらの郷【地域密着型通所介護】栃木県足利市福居町1168-7らくらくほーむ倉の郷", "url2": "https://www.kaigokensaku.mhlw.go.jp/09/index.php?action_kouhyou_detail_004_kani=true&JigyosyoCd=0990200438-00&ServiceCd=780&Type=search" }, "geometry": { "type": "Point", "coordinates": [ 139.4584773, 36.30631 ] } },
{ "type": "Feature", "properties": { "内容": "デイサービスあかり【地域密着型通所介護】鹿島町282-5", "url2": "https://www.kaigokensaku.mhlw.go.jp/09/index.php?action_kouhyou_detail_004_kani=true&JigyosyoCd=0990200446-00&ServiceCd=780&Type=search" }, "geometry": { "type": "Point", "coordinates": [ 139.4126217918419, 36.3432330820998 ] } },
{ "type": "Feature", "properties": { "内容": "板通デイサービス湯ざくら【地域密着型通所介護】栃木県足利市常盤町64番地", "url2": "https://www.kaigokensaku.mhlw.go.jp/09/index.php?action_kouhyou_detail_004_kani=true&JigyosyoCd=0990200479-00&ServiceCd=780&Type=search" }, "geometry": { "type": "Point", "coordinates": [ 139.468319400000013, 36.3280852 ] } },
{ "type": "Feature", "properties": { "内容": "足利東部デイサービスセンター【地域密着型通所介護】栃木県足利市山川町824-6", "url2": "https://www.kaigokensaku.mhlw.go.jp/09/index.php?action_kouhyou_detail_004_kani=true&JigyosyoCd=0990200503-00&ServiceCd=780&Type=search" }, "geometry": { "type": "Point", "coordinates": [ 139.4802215, 36.3259487 ] } },
{ "type": "Feature", "properties": { "内容": "デイサービスセンターやなだの杜【地域密着型通所介護】栃木県足利市福富町970-1", "url2": "https://www.kaigokensaku.mhlw.go.jp/09/index.php?action_kouhyou_detail_004_kani=true&JigyosyoCd=0990200594-00&ServiceCd=780&Type=search" }, "geometry": { "type": "Point", "coordinates": [ 139.4758402, 36.309808 ] } },
{ "type": "Feature", "properties": { "内容": "デイサービスおれんじ【地域密着型通所介護】栃木県足利市福富町1147-16", "url2": "https://www.kaigokensaku.mhlw.go.jp/09/index.php?action_kouhyou_detail_004_kani=true&JigyosyoCd=0990200610-00&ServiceCd=780&Type=search" }, "geometry": { "type": "Point", "coordinates": [ 139.469534300000021, 36.3061277 ] } },
{ "type": "Feature", "properties": { "内容": "りはさろんここ【地域密着型通所介護】栃木県足利市錦町11-1リハサロンcoco", "url2": "https://www.kaigokensaku.mhlw.go.jp/09/index.php?action_kouhyou_detail_004_kani=true&JigyosyoCd=0990200636-00&ServiceCd=780&Type=search" }, "geometry": { "type": "Point", "coordinates": [ 139.4639057, 36.3290489 ] } },
{ "type": "Feature", "properties": { "内容": "デイフィット　ラクティ足利【地域密着型通所介護】栃木県足利市田中町24－13", "url2": "https://www.kaigokensaku.mhlw.go.jp/09/index.php?action_kouhyou_detail_004_kani=true&JigyosyoCd=0990200669-00&ServiceCd=780&Type=search" }, "geometry": { "type": "Point", "coordinates": [ 139.451835699999975, 36.324060799999984 ] } },
{ "type": "Feature", "properties": { "内容": "リーフリハビリステーション山川【地域密着型通所介護】栃木県足利市山川町51-7", "url2": "https://www.kaigokensaku.mhlw.go.jp/09/index.php?action_kouhyou_detail_004_kani=true&JigyosyoCd=0990200685-00&ServiceCd=780&Type=search" }, "geometry": { "type": "Point", "coordinates": [ 139.4797252, 36.3195979 ] } },
{ "type": "Feature", "properties": { "内容": "リハプライド栃木平柳【地域密着型通所介護】栃木市平柳町3-10-6", "url2": "https://www.kaigokensaku.mhlw.go.jp/09/index.php?action_kouhyou_detail_004_kani=true&JigyosyoCd=0990300253-00&ServiceCd=780&Type=search" }, "geometry": { "type": "Point", "coordinates": [ 139.743145343516574, 36.394446994308467 ] } },
{ "type": "Feature", "properties": { "内容": "デイサービスセンターみどり　わかば館【地域密着型通所介護】栃木県栃木市平柳町3-42-5", "url2": "https://www.kaigokensaku.mhlw.go.jp/09/index.php?action_kouhyou_detail_004_kani=true&JigyosyoCd=0970301305-00&ServiceCd=780&Type=search" }, "geometry": { "type": "Point", "coordinates": [ 139.744984899999963, 36.3944571 ] } },
{ "type": "Feature", "properties": { "内容": "土与デイサービスセンターなかまの家笑福【地域密着型通所介護】栃木県栃木市大平町土与123-4", "url2": "https://www.kaigokensaku.mhlw.go.jp/09/index.php?action_kouhyou_detail_004_kani=true&JigyosyoCd=0970301065-00&ServiceCd=780&Type=search" }, "geometry": { "type": "Point", "coordinates": [ 139.7247889, 36.3525527 ] } },
{ "type": "Feature", "properties": { "内容": "デイサービスセンターみつみねの郷【地域密着型通所介護】栃木市梅沢町970番地", "url2": "https://www.kaigokensaku.mhlw.go.jp/09/index.php?action_kouhyou_detail_004_kani=true&JigyosyoCd=0970301370-00&ServiceCd=780&Type=search" }, "geometry": { "type": "Point", "coordinates": [ 139.6508287, 36.4420571 ] } },
{ "type": "Feature", "properties": { "内容": "リハビリ特化型デイサービス　ハートフィット【地域密着型通所介護】栃木県栃木市今泉町２丁目８番３１号", "url2": "https://www.kaigokensaku.mhlw.go.jp/09/index.php?action_kouhyou_detail_004_kani=true&JigyosyoCd=0990300311-00&ServiceCd=780&Type=search" }, "geometry": { "type": "Point", "coordinates": [ 139.746215600000028, 36.3894855 ] } },
{ "type": "Feature", "properties": { "内容": "オアシス通所介護事業所【地域密着型通所介護】栃木県栃木市薗部町４丁目２番３２号", "url2": "https://www.kaigokensaku.mhlw.go.jp/09/index.php?action_kouhyou_detail_004_kani=true&JigyosyoCd=0970300513-00&ServiceCd=780&Type=search" }, "geometry": { "type": "Point", "coordinates": [ 139.710883200000012, 36.3760724 ] } },
{ "type": "Feature", "properties": { "内容": "歩行特化型デイサービス・歩行リハビリセンターTSUNAGI【地域密着型通所介護】栃木県栃木市昭和町8-5", "url2": "https://www.kaigokensaku.mhlw.go.jp/09/index.php?action_kouhyou_detail_004_kani=true&JigyosyoCd=0990300402-00&ServiceCd=780&Type=search" }, "geometry": { "type": "Point", "coordinates": [ 139.736025427427336, 36.388530706765749 ] } },
{ "type": "Feature", "properties": { "内容": "たのし荘【地域密着型通所介護】栃木県栃木市泉川町４７９", "url2": "https://www.kaigokensaku.mhlw.go.jp/09/index.php?action_kouhyou_detail_004_kani=true&JigyosyoCd=0970300224-00&ServiceCd=780&Type=search" }, "geometry": { "type": "Point", "coordinates": [ 139.7049987, 36.3934758 ] } },
{ "type": "Feature", "properties": { "内容": "かなで【地域密着型通所介護】栃木県栃木市城内町2-51-51", "url2": "https://www.kaigokensaku.mhlw.go.jp/09/index.php?action_kouhyou_detail_004_kani=true&JigyosyoCd=0970300695-00&ServiceCd=780&Type=search" }, "geometry": { "type": "Point", "coordinates": [ 139.744710620346098, 36.367370672307949 ] } },
{ "type": "Feature", "properties": { "内容": "お茶の間げんきデイサービスセンター【地域密着型通所介護】栃木県栃木市箱森町36-1", "url2": "https://www.kaigokensaku.mhlw.go.jp/09/index.php?action_kouhyou_detail_004_kani=true&JigyosyoCd=0970300828-00&ServiceCd=780&Type=search" }, "geometry": { "type": "Point", "coordinates": [ 139.7286201, 36.3922648 ] } },
{ "type": "Feature", "properties": { "内容": "ハーモネートデイサービス大平【地域密着型通所介護】栃木県栃木市大平町富田5番地230", "url2": "https://www.kaigokensaku.mhlw.go.jp/09/index.php?action_kouhyou_detail_004_kani=true&JigyosyoCd=0970301131-00&ServiceCd=780&Type=search" }, "geometry": { "type": "Point", "coordinates": [ 139.7040213, 36.3358077 ] } },
{ "type": "Feature", "properties": { "内容": "やまとでいせんたー【地域密着型通所介護】栃木県栃木市万町27番9号", "url2": "https://www.kaigokensaku.mhlw.go.jp/09/index.php?action_kouhyou_detail_004_kani=true&JigyosyoCd=0970301198-00&ServiceCd=780&Type=search" }, "geometry": { "type": "Point", "coordinates": [ 139.7374973, 36.383046530595571 ] } },
{ "type": "Feature", "properties": { "内容": "蔵の街リハビリデイサービス【地域密着型通所介護】栃木県栃木市泉町23-17", "url2": "https://www.kaigokensaku.mhlw.go.jp/09/index.php?action_kouhyou_detail_004_kani=true&JigyosyoCd=0970301719-00&ServiceCd=780&Type=search" }, "geometry": { "type": "Point", "coordinates": [ 139.737497813491814, 36.384733725462574 ] } },
{ "type": "Feature", "properties": { "内容": "みすぎの郷【地域密着型通所介護】栃木県栃木市岩舟町小野寺1500みすぎの郷", "url2": "https://www.kaigokensaku.mhlw.go.jp/09/index.php?action_kouhyou_detail_004_kani=true&JigyosyoCd=0970301768-00&ServiceCd=780&Type=search" }, "geometry": { "type": "Point", "coordinates": [ 139.62559712341772, 36.360837633698786 ] } },
{ "type": "Feature", "properties": { "内容": "老人デイサービスセンター蔵の街ひまわり【地域密着型通所介護】栃木県栃木市城内町2-17-23", "url2": "https://www.kaigokensaku.mhlw.go.jp/09/index.php?action_kouhyou_detail_004_kani=true&JigyosyoCd=0970301610-00&ServiceCd=780&Type=search" }, "geometry": { "type": "Point", "coordinates": [ 139.7520179, 36.3709898 ] } },
{ "type": "Feature", "properties": { "内容": "デイサービスみどりの杜【地域密着型通所介護】栃木県栃木市大平町下皆川132-3", "url2": "https://www.kaigokensaku.mhlw.go.jp/09/index.php?action_kouhyou_detail_004_kani=true&JigyosyoCd=0990300345-00&ServiceCd=780&Type=search" }, "geometry": { "type": "Point", "coordinates": [ 139.702086499999979, 36.3507645 ] } },
{ "type": "Feature", "properties": { "内容": "デイサービスセンターみどり　わかば館【地域密着型通所介護】平柳町3-42-5", "url2": "https://www.kaigokensaku.mhlw.go.jp/09/index.php?action_kouhyou_detail_004_kani=true&JigyosyoCd=0990300410-00&ServiceCd=780&Type=search" }, "geometry": { "type": "Point", "coordinates": [ 139.7447655, 36.392875 ] } },
{ "type": "Feature", "properties": { "内容": "スタジオリズム箱森【地域密着型通所介護】栃木県栃木市箱森町14-33", "url2": "https://www.kaigokensaku.mhlw.go.jp/09/index.php?action_kouhyou_detail_004_kani=true&JigyosyoCd=0990300386-00&ServiceCd=780&Type=search" }, "geometry": { "type": "Point", "coordinates": [ 139.719323224536907, 36.388122792236082 ] } },
{ "type": "Feature", "properties": { "内容": "ケアセンターみかも【地域密着型通所介護】栃木県栃木市藤岡町都賀2296-22", "url2": "https://www.kaigokensaku.mhlw.go.jp/09/index.php?action_kouhyou_detail_004_kani=true&JigyosyoCd=0972301097-00&ServiceCd=780&Type=search" }, "geometry": { "type": "Point", "coordinates": [ 139.6233416, 36.2912241 ] } },
{ "type": "Feature", "properties": { "内容": "ハーモネートデイサービス佐野【地域密着型通所介護】栃木県佐野市堀米町1270-17", "url2": "https://www.kaigokensaku.mhlw.go.jp/09/index.php?action_kouhyou_detail_004_kani=true&JigyosyoCd=0970401634-00&ServiceCd=780&Type=search" }, "geometry": { "type": "Point", "coordinates": [ 139.580627600000014, 36.3289918 ] } },
{ "type": "Feature", "properties": { "内容": "ﾃﾞｲｻｰﾋﾞｽｾﾝﾀｰすまいるよろず【地域密着型通所介護】栃木県佐野市万町95", "url2": "https://www.kaigokensaku.mhlw.go.jp/09/index.php?action_kouhyou_detail_004_kani=true&JigyosyoCd=0990400343-00&ServiceCd=780&Type=search" }, "geometry": { "type": "Point", "coordinates": [ 139.576435599999968, 36.3136158 ] } },
{ "type": "Feature", "properties": { "内容": "デイサービスセンター丹頂【地域密着型通所介護】栃木県佐野市栃本町3255", "url2": "https://www.kaigokensaku.mhlw.go.jp/09/index.php?action_kouhyou_detail_004_kani=true&JigyosyoCd=0970400859-00&ServiceCd=780&Type=search" }, "geometry": { "type": "Point", "coordinates": [ 139.5842207, 36.3466186 ] } },
{ "type": "Feature", "properties": { "内容": "あくとプラザデイサービスセンター【地域密着型通所介護】栃木県佐野市あくと町3084", "url2": "https://www.kaigokensaku.mhlw.go.jp/09/index.php?action_kouhyou_detail_004_kani=true&JigyosyoCd=0972400121-00&ServiceCd=780&Type=search" }, "geometry": { "type": "Point", "coordinates": [ 139.605083400000012, 36.407875 ] } },
{ "type": "Feature", "properties": { "内容": "フィットネスケアファースト＜ディサービス＞【地域密着型通所介護】栃木県佐野市堀米町3946-9", "url2": "https://www.kaigokensaku.mhlw.go.jp/09/index.php?action_kouhyou_detail_004_kani=true&JigyosyoCd=0990400400-00&ServiceCd=780&Type=search" }, "geometry": { "type": "Point", "coordinates": [ 139.576244600000024, 36.3273017 ] } },
{ "type": "Feature", "properties": { "内容": "ミントグリーン【地域密着型通所介護】佐野市浅沼町２６９－２", "url2": "https://www.kaigokensaku.mhlw.go.jp/09/index.php?action_kouhyou_detail_004_kani=true&JigyosyoCd=0990400368-00&ServiceCd=780&Type=search" }, "geometry": { "type": "Point", "coordinates": [ 139.5898124, 36.3105693 ] } },
{ "type": "Feature", "properties": { "内容": "介護サービスすずらん【地域密着型通所介護】栃木県佐野市小中町1249-2", "url2": "https://www.kaigokensaku.mhlw.go.jp/09/index.php?action_kouhyou_detail_004_kani=true&JigyosyoCd=0970400503-00&ServiceCd=780&Type=search" }, "geometry": { "type": "Point", "coordinates": [ 139.5593692, 36.3431066 ] } },
{ "type": "Feature", "properties": { "内容": "デイサービスセンターなごみ【地域密着型通所介護】栃木県佐野市田沼町565-2", "url2": "https://www.kaigokensaku.mhlw.go.jp/09/index.php?action_kouhyou_detail_004_kani=true&JigyosyoCd=0970400693-00&ServiceCd=780&Type=search" }, "geometry": { "type": "Point", "coordinates": [ 139.578160900000057, 36.366263 ] } },
{ "type": "Feature", "properties": { "内容": "デイサービスセンター万葉塾【地域密着型通所介護】栃木県佐野市堀米町1336番地１", "url2": "https://www.kaigokensaku.mhlw.go.jp/09/index.php?action_kouhyou_detail_004_kani=true&JigyosyoCd=0970401030-00&ServiceCd=780&Type=search" }, "geometry": { "type": "Point", "coordinates": [ 139.5795736, 36.3305449 ] } },
{ "type": "Feature", "properties": { "内容": "ﾃﾞｲｻｰﾋﾞｽｾﾝﾀｰめだかのさと【地域密着型通所介護】栃木県佐野市朝日町９３５-３", "url2": "https://www.kaigokensaku.mhlw.go.jp/09/index.php?action_kouhyou_detail_004_kani=true&JigyosyoCd=0970401436-00&ServiceCd=780&Type=search" }, "geometry": { "type": "Point", "coordinates": [ 139.571428200000014, 36.3174546 ] } },
{ "type": "Feature", "properties": { "内容": "GENKINEXT佐野堀米町【地域密着型通所介護】栃木県佐野市堀米町3366", "url2": "https://www.kaigokensaku.mhlw.go.jp/09/index.php?action_kouhyou_detail_004_kani=true&JigyosyoCd=0970401683-00&ServiceCd=780&Type=search" }, "geometry": { "type": "Point", "coordinates": [ 139.5682932, 36.3298257 ] } },
{ "type": "Feature", "properties": { "内容": "美と健康　あかみ倶楽部【地域密着型通所介護】栃木県佐野市小見町411-1", "url2": "https://www.kaigokensaku.mhlw.go.jp/09/index.php?action_kouhyou_detail_004_kani=true&JigyosyoCd=0970401766-00&ServiceCd=780&Type=search" }, "geometry": { "type": "Point", "coordinates": [ 139.569624862992214, 36.344428283229121 ] } },
{ "type": "Feature", "properties": { "内容": "リハビリ型デイサービス咲くら【地域密着型通所介護】栃木県佐野市小中町716", "url2": "https://www.kaigokensaku.mhlw.go.jp/09/index.php?action_kouhyou_detail_004_kani=true&JigyosyoCd=0970401790-00&ServiceCd=780&Type=search" }, "geometry": { "type": "Point", "coordinates": [ 139.551634400000012, 36.3326833 ] } },
{ "type": "Feature", "properties": { "内容": "デイサービスつかさ【地域密着型通所介護】栃木県佐野市山形町563番地の11", "url2": "https://www.kaigokensaku.mhlw.go.jp/09/index.php?action_kouhyou_detail_004_kani=true&JigyosyoCd=0970401899-00&ServiceCd=780&Type=search" }, "geometry": { "type": "Point", "coordinates": [ 139.54166330000001, 36.377627 ] } },
{ "type": "Feature", "properties": { "内容": "ご長寿くらぶ佐野・植上デイサービスセンター【地域密着型通所介護】栃木県佐野市植上町1785サービス付き高齢者向け住宅　ご長寿くらぶ佐野・植上", "url2": "https://www.kaigokensaku.mhlw.go.jp/09/index.php?action_kouhyou_detail_004_kani=true&JigyosyoCd=0990400384-00&ServiceCd=780&Type=search" }, "geometry": { "type": "Point", "coordinates": [ 139.579761700000063, 36.3016242 ] } },
{ "type": "Feature", "properties": { "内容": "デイサービスいそべ亭【地域密着型通所介護】栃木県佐野市植上町1357番地2", "url2": "https://www.kaigokensaku.mhlw.go.jp/09/index.php?action_kouhyou_detail_004_kani=true&JigyosyoCd=0990400434-00&ServiceCd=780&Type=search" }, "geometry": { "type": "Point", "coordinates": [ 139.582375, 36.3003998 ] } },
{ "type": "Feature", "properties": { "内容": "心を動かすリハビリ　アスアルク号【地域密着型通所介護】栃木県佐野市大橋町3234-33", "url2": "https://www.kaigokensaku.mhlw.go.jp/09/index.php?action_kouhyou_detail_004_kani=true&JigyosyoCd=0990400376-00&ServiceCd=780&Type=search" }, "geometry": { "type": "Point", "coordinates": [ 139.5645826, 36.3082032 ] } },
{ "type": "Feature", "properties": { "内容": "一般社団法人　みかも高齢者福祉支援センター【地域密着型通所介護】栃木県佐野市富岡町1296-2", "url2": "https://www.kaigokensaku.mhlw.go.jp/09/index.php?action_kouhyou_detail_004_kani=true&JigyosyoCd=0970401873-00&ServiceCd=780&Type=search" }, "geometry": { "type": "Point", "coordinates": [ 139.5962704, 36.3114837 ] } },
{ "type": "Feature", "properties": { "内容": "宅老所はいこんちょ【地域密着型通所介護】御成橋町1丁目2406番地8", "url2": "https://www.kaigokensaku.mhlw.go.jp/09/index.php?action_kouhyou_detail_004_kani=true&JigyosyoCd=0970501128-00&ServiceCd=780&Type=search" }, "geometry": { "type": "Point", "coordinates": [ 139.7474202, 36.5765587 ] } },
{ "type": "Feature", "properties": { "内容": "レッツ倶楽部新鹿沼【地域密着型通所介護】栃木県鹿沼市蓬莱町1370番地2", "url2": "https://www.kaigokensaku.mhlw.go.jp/09/index.php?action_kouhyou_detail_004_kani=true&JigyosyoCd=0990500209-00&ServiceCd=780&Type=search" }, "geometry": { "type": "Point", "coordinates": [ 139.745703600000013, 36.5592551 ] } },
{ "type": "Feature", "properties": { "内容": "鹿沼市社会福祉協議会【地域密着型通所介護】栃木県鹿沼市万町931-1総合福祉センター", "url2": "https://www.kaigokensaku.mhlw.go.jp/09/index.php?action_kouhyou_detail_004_kani=true&JigyosyoCd=0970500112-00&ServiceCd=780&Type=search" }, "geometry": { "type": "Point", "coordinates": [ 139.748065399999973, 36.5579867 ] } },
{ "type": "Feature", "properties": { "内容": "無量荘【地域密着型通所介護】板荷2971-3", "url2": "https://www.kaigokensaku.mhlw.go.jp/09/index.php?action_kouhyou_detail_004_kani=true&JigyosyoCd=0970500062-00&ServiceCd=780&Type=search" }, "geometry": { "type": "Point", "coordinates": [ 139.698646, 36.6433498 ] } },
{ "type": "Feature", "properties": { "内容": "和久井亭【地域密着型通所介護】栃木県鹿沼市千渡１９４９－６４", "url2": "https://www.kaigokensaku.mhlw.go.jp/09/index.php?action_kouhyou_detail_004_kani=true&JigyosyoCd=0970500971-00&ServiceCd=780&Type=search" }, "geometry": { "type": "Point", "coordinates": [ 139.769888199999968, 36.570313700000014 ] } },
{ "type": "Feature", "properties": { "内容": "あわの【地域密着型通所介護】栃木県鹿沼市口粟野862-1", "url2": "https://www.kaigokensaku.mhlw.go.jp/09/index.php?action_kouhyou_detail_004_kani=true&JigyosyoCd=0970500658-00&ServiceCd=780&Type=search" }, "geometry": { "type": "Point", "coordinates": [ 139.673909006011343, 36.515134340335194 ] } },
{ "type": "Feature", "properties": { "内容": "デイサービスかぞく【地域密着型通所介護】栃木県鹿沼市上石川568-10", "url2": "https://www.kaigokensaku.mhlw.go.jp/09/index.php?action_kouhyou_detail_004_kani=true&JigyosyoCd=0970500666-00&ServiceCd=780&Type=search" }, "geometry": { "type": "Point", "coordinates": [ 139.803850900000043, 36.5221059 ] } },
{ "type": "Feature", "properties": { "内容": "デイホームあゆみ【地域密着型通所介護】栃木県鹿沼市上殿町721-1", "url2": "https://www.kaigokensaku.mhlw.go.jp/09/index.php?action_kouhyou_detail_004_kani=true&JigyosyoCd=0970500773-00&ServiceCd=780&Type=search" }, "geometry": { "type": "Point", "coordinates": [ 139.753009499999962, 36.5486552 ] } },
{ "type": "Feature", "properties": { "内容": "デイサービス　なごみ【地域密着型通所介護】栃木県鹿沼市引田1400", "url2": "https://www.kaigokensaku.mhlw.go.jp/09/index.php?action_kouhyou_detail_004_kani=true&JigyosyoCd=0970500781-00&ServiceCd=780&Type=search" }, "geometry": { "type": "Point", "coordinates": [ 139.674568099999988, 36.6046676 ] } },
{ "type": "Feature", "properties": { "内容": "あゆみの家【地域密着型通所介護】栃木県鹿沼市樅山町300-5", "url2": "https://www.kaigokensaku.mhlw.go.jp/09/index.php?action_kouhyou_detail_004_kani=true&JigyosyoCd=0970500955-00&ServiceCd=780&Type=search" }, "geometry": { "type": "Point", "coordinates": [ 139.748708800000031, 36.5388978 ] } },
{ "type": "Feature", "properties": { "内容": "万葉かぬま【地域密着型通所介護】栃木県鹿沼市茂呂216－1万葉かぬま", "url2": "https://www.kaigokensaku.mhlw.go.jp/09/index.php?action_kouhyou_detail_004_kani=true&JigyosyoCd=0970500989-00&ServiceCd=780&Type=search" }, "geometry": { "type": "Point", "coordinates": [ 139.79610525756803, 36.536709683842737 ] } },
{ "type": "Feature", "properties": { "内容": "AtHomeこころ【地域密着型通所介護】栃木県鹿沼市下田町２丁目1050-2", "url2": "https://www.kaigokensaku.mhlw.go.jp/09/index.php?action_kouhyou_detail_004_kani=true&JigyosyoCd=0970501037-00&ServiceCd=780&Type=search" }, "geometry": { "type": "Point", "coordinates": [ 139.750773500000037, 36.5624335 ] } },
{ "type": "Feature", "properties": { "内容": "かぬま花の風健康教室【地域密着型通所介護】栃木県鹿沼市緑町2丁目3-17", "url2": "https://www.kaigokensaku.mhlw.go.jp/09/index.php?action_kouhyou_detail_004_kani=true&JigyosyoCd=0970501144-00&ServiceCd=780&Type=search" }, "geometry": { "type": "Point", "coordinates": [ 139.7768599, 36.5579943 ] } },
{ "type": "Feature", "properties": { "内容": "リハビリ処カーヤ【地域密着型通所介護】栃木県鹿沼市樅山町６０６－２", "url2": "https://www.kaigokensaku.mhlw.go.jp/09/index.php?action_kouhyou_detail_004_kani=true&JigyosyoCd=0990500233-00&ServiceCd=780&Type=search" }, "geometry": { "type": "Point", "coordinates": [ 139.742279661376983, 36.534331027825317 ] } },
{ "type": "Feature", "properties": { "内容": "にこにこデイサービス【地域密着型通所介護】栃木県鹿沼市茂呂字北野2528番地9", "url2": "https://www.kaigokensaku.mhlw.go.jp/09/index.php?action_kouhyou_detail_004_kani=true&JigyosyoCd=0990500308-00&ServiceCd=780&Type=search" }, "geometry": { "type": "Point", "coordinates": [ 139.793792606745882, 36.549930266099295 ] } },
{ "type": "Feature", "properties": { "内容": "第２宅老所はいこんちょ【地域密着型通所介護】栃木県鹿沼市泉町２４０６番地７", "url2": "https://www.kaigokensaku.mhlw.go.jp/09/index.php?action_kouhyou_detail_004_kani=true&JigyosyoCd=0990500399-00&ServiceCd=780&Type=search" }, "geometry": { "type": "Point", "coordinates": [ 139.74726050000001, 36.5761392 ] } },
{ "type": "Feature", "properties": { "内容": "西鹿沼けあけあ【地域密着型通所介護】栃木県鹿沼市西鹿沼町２１－１", "url2": "https://www.kaigokensaku.mhlw.go.jp/09/index.php?action_kouhyou_detail_004_kani=true&JigyosyoCd=0990500407-00&ServiceCd=780&Type=search" }, "geometry": { "type": "Point", "coordinates": [ 139.7421109, 36.5621293 ] } },
{ "type": "Feature", "properties": { "内容": "地域密着型通所介護なないろデイサービス【地域密着型通所介護】栃木県鹿沼市茂呂2526番地8", "url2": "https://www.kaigokensaku.mhlw.go.jp/09/index.php?action_kouhyou_detail_004_kani=true&JigyosyoCd=0990500415-00&ServiceCd=780&Type=search" }, "geometry": { "type": "Point", "coordinates": [ 139.794226900000012, 36.5498187 ] } },
{ "type": "Feature", "properties": { "内容": "ご長寿くらぶ鹿沼デイサービスセンター【地域密着型通所介護】栃木県鹿沼市茂呂２６０-１３", "url2": "https://www.kaigokensaku.mhlw.go.jp/09/index.php?action_kouhyou_detail_004_kani=true&JigyosyoCd=0990500480-00&ServiceCd=780&Type=search" }, "geometry": { "type": "Point", "coordinates": [ 139.79699930000001, 36.5338864 ] } },
{ "type": "Feature", "properties": { "内容": "リハビリデイサービスHarmony鹿沼店【地域密着型通所介護】栃木県鹿沼市西茂呂3‐18‐40", "url2": "https://www.kaigokensaku.mhlw.go.jp/09/index.php?action_kouhyou_detail_004_kani=true&JigyosyoCd=0970501003-00&ServiceCd=780&Type=search" }, "geometry": { "type": "Point", "coordinates": [ 139.766666900000018, 36.5495161 ] } },
{ "type": "Feature", "properties": { "内容": "ふれんど楡木デイサービスセンター【地域密着型通所介護】栃木県鹿沼市楡木町720-1", "url2": "https://www.kaigokensaku.mhlw.go.jp/09/index.php?action_kouhyou_detail_004_kani=true&JigyosyoCd=0990500506-00&ServiceCd=780&Type=search" }, "geometry": { "type": "Point", "coordinates": [ 139.749380731213364, 36.510422027523035 ] } },
{ "type": "Feature", "properties": { "内容": "智光のパワーリハビリ【地域密着型通所介護】栃木県鹿沼市加園2520", "url2": "https://www.kaigokensaku.mhlw.go.jp/09/index.php?action_kouhyou_detail_004_kani=true&JigyosyoCd=0990500498-00&ServiceCd=780&Type=search" }, "geometry": { "type": "Point", "coordinates": [ 139.676176607608795, 36.562707755694994 ] } },
{ "type": "Feature", "properties": { "内容": "デイサービス風舞【地域密着型通所介護】栃木県日光市森友1173", "url2": "https://www.kaigokensaku.mhlw.go.jp/09/index.php?action_kouhyou_detail_004_kani=true&JigyosyoCd=0970600219-00&ServiceCd=780&Type=search" }, "geometry": { "type": "Point", "coordinates": [ 139.724955099999988, 36.7154548 ] } },
{ "type": "Feature", "properties": { "内容": "社団医療法人英静会　デイサービスセンター森の郷【地域密着型通所介護】栃木県日光市塩野室町106-2", "url2": "https://www.kaigokensaku.mhlw.go.jp/09/index.php?action_kouhyou_detail_004_kani=true&JigyosyoCd=0970700282-00&ServiceCd=780&Type=search" }, "geometry": { "type": "Point", "coordinates": [ 139.8081674, 36.730675 ] } },
{ "type": "Feature", "properties": { "内容": "ディサービスなごみの森【地域密着型通所介護】栃木県日光市清滝一丁目1番10号", "url2": "https://www.kaigokensaku.mhlw.go.jp/09/index.php?action_kouhyou_detail_004_kani=true&JigyosyoCd=0970600177-00&ServiceCd=780&Type=search" }, "geometry": { "type": "Point", "coordinates": [ 139.5738762, 36.7477476 ] } },
{ "type": "Feature", "properties": { "内容": "りはふれんず【地域密着型通所介護】豊田330-7", "url2": "https://www.kaigokensaku.mhlw.go.jp/09/index.php?action_kouhyou_detail_004_kani=true&JigyosyoCd=0970600516-00&ServiceCd=780&Type=search" }, "geometry": { "type": "Point", "coordinates": [ 139.69307, 36.722267 ] } },
{ "type": "Feature", "properties": { "内容": "日光リハビリガーデン【地域密着型通所介護】森友1127-62", "url2": "https://www.kaigokensaku.mhlw.go.jp/09/index.php?action_kouhyou_detail_004_kani=true&JigyosyoCd=0970600664-00&ServiceCd=780&Type=search" }, "geometry": { "type": "Point", "coordinates": [ 139.728306323942547, 36.722283384603593 ] } },
{ "type": "Feature", "properties": { "内容": "デイサービスセンターなかよし荘【地域密着型通所介護】栃木県日光市野口739", "url2": "https://www.kaigokensaku.mhlw.go.jp/09/index.php?action_kouhyou_detail_004_kani=true&JigyosyoCd=0970600086-00&ServiceCd=780&Type=search" }, "geometry": { "type": "Point", "coordinates": [ 139.653382599999986, 36.732808 ] } },
{ "type": "Feature", "properties": { "内容": "デイホームつくし【地域密着型通所介護】栃木県日光市土沢201‐1", "url2": "https://www.kaigokensaku.mhlw.go.jp/09/index.php?action_kouhyou_detail_004_kani=true&JigyosyoCd=0970600466-00&ServiceCd=780&Type=search" }, "geometry": { "type": "Point", "coordinates": [ 139.7235024, 36.699374 ] } },
{ "type": "Feature", "properties": { "内容": "ゆたかリハビリステーション【地域密着型通所介護】栃木県日光市瀬尾250‐1", "url2": "https://www.kaigokensaku.mhlw.go.jp/09/index.php?action_kouhyou_detail_004_kani=true&JigyosyoCd=0970600532-00&ServiceCd=780&Type=search" }, "geometry": { "type": "Point", "coordinates": [ 139.6858162, 36.7371854 ] } },
{ "type": "Feature", "properties": { "内容": "デイサービス春の間【地域密着型通所介護】栃木県日光市大室１１３８－７", "url2": "https://www.kaigokensaku.mhlw.go.jp/09/index.php?action_kouhyou_detail_004_kani=true&JigyosyoCd=0970600631-00&ServiceCd=780&Type=search" }, "geometry": { "type": "Point", "coordinates": [ 139.737847500000044, 36.725814 ] } },
{ "type": "Feature", "properties": { "内容": "デイサービス双愛いきいき俱楽部【地域密着型通所介護】栃木県日光市足尾町砂畑4147－2", "url2": "https://www.kaigokensaku.mhlw.go.jp/09/index.php?action_kouhyou_detail_004_kani=true&JigyosyoCd=0970600722-00&ServiceCd=780&Type=search" }, "geometry": { "type": "Point", "coordinates": [ 139.433874899999978, 36.6290214 ] } },
{ "type": "Feature", "properties": { "内容": "デイホームすぎな【地域密着型通所介護】栃木県日光市土沢201‐1", "url2": "https://www.kaigokensaku.mhlw.go.jp/09/index.php?action_kouhyou_detail_004_kani=true&JigyosyoCd=0990600173-00&ServiceCd=780&Type=search" }, "geometry": { "type": "Point", "coordinates": [ 139.7235119, 36.699386 ] } },
{ "type": "Feature", "properties": { "内容": "デイサービスセンターやしお【地域密着型通所介護】栃木県日光市細尾町442", "url2": "https://www.kaigokensaku.mhlw.go.jp/09/index.php?action_kouhyou_detail_004_kani=true&JigyosyoCd=0970600300-00&ServiceCd=780&Type=search" }, "geometry": { "type": "Point", "coordinates": [ 139.546517599999987, 36.7295427 ] } },
{ "type": "Feature", "properties": { "内容": "デイサービスセンターきびたき荘【地域密着型通所介護】栃木県日光市細尾町82番地1", "url2": "https://www.kaigokensaku.mhlw.go.jp/09/index.php?action_kouhyou_detail_004_kani=true&JigyosyoCd=0970600045-00&ServiceCd=780&Type=search" }, "geometry": { "type": "Point", "coordinates": [ 139.551729200000011, 36.7300923 ] } },
{ "type": "Feature", "properties": { "内容": "介護保険事業所くりやま【地域密着型通所介護】栃木県日光市黒部54-1", "url2": "https://www.kaigokensaku.mhlw.go.jp/09/index.php?action_kouhyou_detail_004_kani=true&JigyosyoCd=0970600144-00&ServiceCd=780&Type=search" }, "geometry": { "type": "Point", "coordinates": [ 139.603814011665804, 36.866503472388722 ] } },
{ "type": "Feature", "properties": { "内容": "介護保険事業所小来川デイサービスセンター【地域密着型通所介護】栃木県日光市中小来川2668-1", "url2": "https://www.kaigokensaku.mhlw.go.jp/09/index.php?action_kouhyou_detail_004_kani=true&JigyosyoCd=0970600243-00&ServiceCd=780&Type=search" }, "geometry": { "type": "Point", "coordinates": [ 139.623438399999941, 36.664248 ] } },
{ "type": "Feature", "properties": { "内容": "デイサービスセンター我が家【地域密着型通所介護】栃木県日光市瀬尾2866", "url2": "https://www.kaigokensaku.mhlw.go.jp/09/index.php?action_kouhyou_detail_004_kani=true&JigyosyoCd=0970600250-00&ServiceCd=780&Type=search" }, "geometry": { "type": "Point", "coordinates": [ 139.6611236, 36.7596637 ] } },
{ "type": "Feature", "properties": { "内容": "介護保険事業所西川デイサービスセンター【地域密着型通所介護】栃木県日光市西川206番地7西川デイサービスセンター", "url2": "https://www.kaigokensaku.mhlw.go.jp/09/index.php?action_kouhyou_detail_004_kani=true&JigyosyoCd=0970600326-00&ServiceCd=780&Type=search" }, "geometry": { "type": "Point", "coordinates": [ 139.677966199999986, 36.9323123 ] } },
{ "type": "Feature", "properties": { "内容": "藤原デイサービスセンターななほし【地域密着型通所介護】栃木県日光市藤原２９１番地", "url2": "https://www.kaigokensaku.mhlw.go.jp/09/index.php?action_kouhyou_detail_004_kani=true&JigyosyoCd=0970600383-00&ServiceCd=780&Type=search" }, "geometry": { "type": "Point", "coordinates": [ 139.7320681, 36.8529427 ] } },
{ "type": "Feature", "properties": { "内容": "特別養護老人ホーム　ひらがさ喜の里【地域密着型通所介護】栃木県日光市平ヶ崎６０８-５", "url2": "https://www.kaigokensaku.mhlw.go.jp/09/index.php?action_kouhyou_detail_004_kani=true&JigyosyoCd=0970600458-00&ServiceCd=780&Type=search" }, "geometry": { "type": "Point", "coordinates": [ 139.680687600000027, 36.7157384 ] } },
{ "type": "Feature", "properties": { "内容": "日光市中宮祠介護サービスセンター【地域密着型通所介護】栃木県日光市中宮祠2478-31", "url2": "https://www.kaigokensaku.mhlw.go.jp/09/index.php?action_kouhyou_detail_004_kani=true&JigyosyoCd=0970600573-00&ServiceCd=780&Type=search" }, "geometry": { "type": "Point", "coordinates": [ 139.498107300000015, 36.7403335 ] } },
{ "type": "Feature", "properties": { "内容": "機能訓練特化型デイサービス　多島リハビリテーション【地域密着型通所介護】栃木県日光市今市本町3-8", "url2": "https://www.kaigokensaku.mhlw.go.jp/09/index.php?action_kouhyou_detail_004_kani=true&JigyosyoCd=0970600615-00&ServiceCd=780&Type=search" }, "geometry": { "type": "Point", "coordinates": [ 139.699005, 36.7193463 ] } },
{ "type": "Feature", "properties": { "内容": "ＮＰＯ法人毎日クリスマス【地域密着型通所介護】栃木県日光市佐下部３０５", "url2": "https://www.kaigokensaku.mhlw.go.jp/09/index.php?action_kouhyou_detail_004_kani=true&JigyosyoCd=0970700035-00&ServiceCd=780&Type=search" }, "geometry": { "type": "Point", "coordinates": [ 139.690945400000032, 36.7751961 ] } },
{ "type": "Feature", "properties": { "内容": "ウエーブデイサービスセンター【地域密着型通所介護】栃木県日光市瀬川95番地1", "url2": "https://www.kaigokensaku.mhlw.go.jp/09/index.php?action_kouhyou_detail_004_kani=true&JigyosyoCd=0970700308-00&ServiceCd=780&Type=search" }, "geometry": { "type": "Point", "coordinates": [ 139.6895811, 36.7277527 ] } },
{ "type": "Feature", "properties": { "内容": "宅老所こころ【地域密着型通所介護】栃木県日光市土沢４５-５０", "url2": "https://www.kaigokensaku.mhlw.go.jp/09/index.php?action_kouhyou_detail_004_kani=true&JigyosyoCd=0970700365-00&ServiceCd=780&Type=search" }, "geometry": { "type": "Point", "coordinates": [ 139.732944300000014, 36.6903657 ] } },
{ "type": "Feature", "properties": { "内容": "デイサービスセンターあかね【地域密着型通所介護】栃木県日光市森友1578番地", "url2": "https://www.kaigokensaku.mhlw.go.jp/09/index.php?action_kouhyou_detail_004_kani=true&JigyosyoCd=0990600165-00&ServiceCd=780&Type=search" }, "geometry": { "type": "Point", "coordinates": [ 139.72605980000003, 36.7245809 ] } },
{ "type": "Feature", "properties": { "内容": "福田リハビリセンター【地域密着型通所介護】栃木県日光市鬼怒川温泉滝79-2", "url2": "https://www.kaigokensaku.mhlw.go.jp/09/index.php?action_kouhyou_detail_004_kani=true&JigyosyoCd=0990600199-00&ServiceCd=780&Type=search" }, "geometry": { "type": "Point", "coordinates": [ 139.7120203, 36.8256331 ] } },
{ "type": "Feature", "properties": { "内容": "デイサービスセンター愛泉【地域密着型通所介護】栃木県日光市高徳６１９番地３", "url2": "https://www.kaigokensaku.mhlw.go.jp/09/index.php?action_kouhyou_detail_004_kani=true&JigyosyoCd=0990600231-00&ServiceCd=780&Type=search" }, "geometry": { "type": "Point", "coordinates": [ 139.706853700000011, 36.7823774 ] } },
{ "type": "Feature", "properties": { "内容": "デイサービスセンターのぞみ【地域密着型通所介護】今市本町２５－１", "url2": "https://www.kaigokensaku.mhlw.go.jp/09/index.php?action_kouhyou_detail_004_kani=true&JigyosyoCd=0970600508-00&ServiceCd=780&Type=search" }, "geometry": { "type": "Point", "coordinates": [ 139.697716727647389, 36.716961219869184 ] } },
{ "type": "Feature", "properties": { "内容": "機能訓練型リハビリデイ　ペンギン【地域密着型通所介護】栃木県日光市鬼怒川温泉大原1441-5", "url2": "https://www.kaigokensaku.mhlw.go.jp/09/index.php?action_kouhyou_detail_004_kani=true&JigyosyoCd=0990600256-00&ServiceCd=780&Type=search" }, "geometry": { "type": "Point", "coordinates": [ 139.711421699999988, 36.8188473 ] } },
{ "type": "Feature", "properties": { "内容": "マルチデイみんなリハ【地域密着型通所介護】栃木県日光市猪倉914番20", "url2": "https://www.kaigokensaku.mhlw.go.jp/09/index.php?action_kouhyou_detail_004_kani=true&JigyosyoCd=0990600249-00&ServiceCd=780&Type=search" }, "geometry": { "type": "Point", "coordinates": [ 139.782815199999987, 36.6711643 ] } },
{ "type": "Feature", "properties": { "内容": "かんなデイサービス【地域密着型通所介護】栃木県小山市駅南町4-1-3", "url2": "https://www.kaigokensaku.mhlw.go.jp/09/index.php?action_kouhyou_detail_004_kani=true&JigyosyoCd=0970801528-00&ServiceCd=780&Type=search" }, "geometry": { "type": "Point", "coordinates": [ 139.8095793, 36.3030612 ] } },
{ "type": "Feature", "properties": { "内容": "デイサービスともに【地域密着型通所介護】犬塚5－2－３５ピーノスミレＡ棟", "url2": "https://www.kaigokensaku.mhlw.go.jp/09/index.php?action_kouhyou_detail_004_kani=true&JigyosyoCd=0990800344-00&ServiceCd=780&Type=search" }, "geometry": { "type": "Point", "coordinates": [ 139.835230200000012, 36.3077211 ] } },
{ "type": "Feature", "properties": { "内容": "デイサービスセンターにこにこ元気【地域密着型通所介護】駅南町五丁目１２－２０", "url2": "https://www.kaigokensaku.mhlw.go.jp/09/index.php?action_kouhyou_detail_004_kani=true&JigyosyoCd=0970802351-00&ServiceCd=780&Type=search" }, "geometry": { "type": "Point", "coordinates": [ 139.815046100000018, 36.3029859 ] } },
{ "type": "Feature", "properties": { "内容": "いろはの家【地域密着型通所介護】栃木県小山市大字出井1879番地31", "url2": "https://www.kaigokensaku.mhlw.go.jp/09/index.php?action_kouhyou_detail_004_kani=true&JigyosyoCd=0970801122-00&ServiceCd=780&Type=search" }, "geometry": { "type": "Point", "coordinates": [ 139.829995700000012, 36.3370431 ] } },
{ "type": "Feature", "properties": { "内容": "デイサービスほほえみ【地域密着型通所介護】栃木県小山市乙女3-27-12", "url2": "https://www.kaigokensaku.mhlw.go.jp/09/index.php?action_kouhyou_detail_004_kani=true&JigyosyoCd=0970801494-00&ServiceCd=780&Type=search" }, "geometry": { "type": "Point", "coordinates": [ 139.75824, 36.2559219 ] } },
{ "type": "Feature", "properties": { "内容": "いろはの詩【地域密着型通所介護】栃木県小山市島田１０２", "url2": "https://www.kaigokensaku.mhlw.go.jp/09/index.php?action_kouhyou_detail_004_kani=true&JigyosyoCd=0970801700-00&ServiceCd=780&Type=search" }, "geometry": { "type": "Point", "coordinates": [ 139.7959878, 36.3365791 ] } },
{ "type": "Feature", "properties": { "内容": "GENKINEXT小山城東【地域密着型通所介護】栃木県小山市城東1-8-29", "url2": "https://www.kaigokensaku.mhlw.go.jp/09/index.php?action_kouhyou_detail_004_kani=true&JigyosyoCd=0970802419-00&ServiceCd=780&Type=search" }, "geometry": { "type": "Point", "coordinates": [ 139.813487400000014, 36.311014100000016 ] } },
{ "type": "Feature", "properties": { "内容": "自立支援デイサービス　わんステップ【地域密着型通所介護】栃木県小山市犬塚3-8-10ルネサンスINUZUKA1", "url2": "https://www.kaigokensaku.mhlw.go.jp/09/index.php?action_kouhyou_detail_004_kani=true&JigyosyoCd=0970802427-00&ServiceCd=780&Type=search" }, "geometry": { "type": "Point", "coordinates": [ 139.833741799999984, 36.3109124 ] } },
{ "type": "Feature", "properties": { "内容": "デイサービス　彩【地域密着型通所介護】間々田588-1", "url2": "https://www.kaigokensaku.mhlw.go.jp/09/index.php?action_kouhyou_detail_004_kani=true&JigyosyoCd=0990800310-00&ServiceCd=780&Type=search" }, "geometry": { "type": "Point", "coordinates": [ 139.780058798106865, 36.268843849506425 ] } },
{ "type": "Feature", "properties": { "内容": "株式会社　プラス・A【地域密着型通所介護】栃木県小山市大行寺1028-15", "url2": "https://www.kaigokensaku.mhlw.go.jp/09/index.php?action_kouhyou_detail_004_kani=true&JigyosyoCd=0990800336-00&ServiceCd=780&Type=search" }, "geometry": { "type": "Point", "coordinates": [ 139.791870200000034, 36.317009400000025 ] } },
{ "type": "Feature", "properties": { "内容": "デイサービスハートランド・アイリ小山Ⅱ【地域密着型通所介護】栃木県小山市城北6-2-8", "url2": "https://www.kaigokensaku.mhlw.go.jp/09/index.php?action_kouhyou_detail_004_kani=true&JigyosyoCd=0990800369-00&ServiceCd=780&Type=search" }, "geometry": { "type": "Point", "coordinates": [ 139.814413699999989, 36.3179971 ] } },
{ "type": "Feature", "properties": { "内容": "デイサービスハートランド・アイリ小山Ⅲ【地域密着型通所介護】栃木県小山市東城南1-6-1ハートランド・アイリ小山Ⅲ", "url2": "https://www.kaigokensaku.mhlw.go.jp/09/index.php?action_kouhyou_detail_004_kani=true&JigyosyoCd=0990800377-00&ServiceCd=780&Type=search" }, "geometry": { "type": "Point", "coordinates": [ 139.811987647885132, 36.297534288753837 ] } },
{ "type": "Feature", "properties": { "内容": "デイホームあじさい弐番館【地域密着型通所介護】小山市土塔２４７－３０", "url2": "https://www.kaigokensaku.mhlw.go.jp/09/index.php?action_kouhyou_detail_004_kani=true&JigyosyoCd=0990800401-00&ServiceCd=780&Type=search" }, "geometry": { "type": "Point", "coordinates": [ 139.825844901852435, 36.301560862753689 ] } },
{ "type": "Feature", "properties": { "内容": "かんなデイサービス土塔【地域密着型通所介護】栃木県小山市土塔232-6", "url2": "https://www.kaigokensaku.mhlw.go.jp/09/index.php?action_kouhyou_detail_004_kani=true&JigyosyoCd=0990800385-00&ServiceCd=780&Type=search" }, "geometry": { "type": "Point", "coordinates": [ 139.82308, 36.302090400000019 ] } },
{ "type": "Feature", "properties": { "内容": "自立支援デイサービス　りらいふ【地域密着型通所介護】横倉新田265-2", "url2": "https://www.kaigokensaku.mhlw.go.jp/09/index.php?action_kouhyou_detail_004_kani=true&JigyosyoCd=0990800419-00&ServiceCd=780&Type=search" }, "geometry": { "type": "Point", "coordinates": [ 139.8231936, 36.2776709 ] } },
{ "type": "Feature", "properties": { "内容": "リハビリライフ　すまいるラボ【地域密着型通所介護】荒町2丁目11-1", "url2": "https://www.kaigokensaku.mhlw.go.jp/09/index.php?action_kouhyou_detail_004_kani=true&JigyosyoCd=0990900151-00&ServiceCd=780&Type=search" }, "geometry": { "type": "Point", "coordinates": [ 138.9483916, 37.6399438 ] } },
{ "type": "Feature", "properties": { "内容": "大瀧ホームメディカル　デイサービス未来【地域密着型通所介護】栃木県真岡市寺久保1丁目6番地2", "url2": "https://www.kaigokensaku.mhlw.go.jp/09/index.php?action_kouhyou_detail_004_kani=true&JigyosyoCd=0970900650-00&ServiceCd=780&Type=search" }, "geometry": { "type": "Point", "coordinates": [ 138.252924, 36.204824 ] } },
{ "type": "Feature", "properties": { "内容": "長田リハビリセンター【地域密着型通所介護】長田5-14-33", "url2": "https://www.kaigokensaku.mhlw.go.jp/09/index.php?action_kouhyou_detail_004_kani=true&JigyosyoCd=0970900668-00&ServiceCd=780&Type=search" }, "geometry": { "type": "Point", "coordinates": [ 135.1463807, 34.6732983 ] } },
{ "type": "Feature", "properties": { "内容": "リハビリデイサービスうに【地域密着型通所介護】栃木県真岡市上高間木3丁目24-4", "url2": "https://www.kaigokensaku.mhlw.go.jp/09/index.php?action_kouhyou_detail_004_kani=true&JigyosyoCd=0990900144-00&ServiceCd=780&Type=search" }, "geometry": { "type": "Point", "coordinates": [ 139.984212938870257, 36.439529929006 ] } },
{ "type": "Feature", "properties": { "内容": "デイサービスぽかぽからんど【地域密着型通所介護】さくら2丁目4-4", "url2": "https://www.kaigokensaku.mhlw.go.jp/09/index.php?action_kouhyou_detail_004_kani=true&JigyosyoCd=0972700777-00&ServiceCd=780&Type=search" }, "geometry": { "type": "Point", "coordinates": [ 139.969280700000013, 36.3826497 ] } },
{ "type": "Feature", "properties": { "内容": "デイサービスセンターいろは【地域密着型通所介護】栃木県大田原市北金丸1901-1", "url2": "https://www.kaigokensaku.mhlw.go.jp/09/index.php?action_kouhyou_detail_004_kani=true&JigyosyoCd=0971000989-00&ServiceCd=780&Type=search" }, "geometry": { "type": "Point", "coordinates": [ 140.0699989, 36.8741526 ] } },
{ "type": "Feature", "properties": { "内容": "介護の郷わたぼうしデイサービス【地域密着型通所介護】栃木県大田原市紫塚2-2580-1", "url2": "https://www.kaigokensaku.mhlw.go.jp/09/index.php?action_kouhyou_detail_004_kani=true&JigyosyoCd=0971000633-00&ServiceCd=780&Type=search" }, "geometry": { "type": "Point", "coordinates": [ 140.019145800000018, 36.8729806 ] } },
{ "type": "Feature", "properties": { "内容": "デイサービスセンターほのぼの【地域密着型通所介護】栃木県大田原市蛭田1795", "url2": "https://www.kaigokensaku.mhlw.go.jp/09/index.php?action_kouhyou_detail_004_kani=true&JigyosyoCd=0971000773-00&ServiceCd=780&Type=search" }, "geometry": { "type": "Point", "coordinates": [ 140.079608, 36.823505 ] } },
{ "type": "Feature", "properties": { "内容": "デイサービスカラフルらいふ【地域密着型通所介護】栃木県大田原市城山2-13-6", "url2": "https://www.kaigokensaku.mhlw.go.jp/09/index.php?action_kouhyou_detail_004_kani=true&JigyosyoCd=0991000332-00&ServiceCd=780&Type=search" }, "geometry": { "type": "Point", "coordinates": [ 140.033568931020568, 36.86709577395807 ] } },
{ "type": "Feature", "properties": { "内容": "にちにちそうみはら【地域密着型通所介護】栃木県大田原市美原3-3348-24", "url2": "https://www.kaigokensaku.mhlw.go.jp/09/index.php?action_kouhyou_detail_004_kani=true&JigyosyoCd=0991000340-00&ServiceCd=780&Type=search" }, "geometry": { "type": "Point", "coordinates": [ 139.99785510000001, 36.8591161 ] } },
{ "type": "Feature", "properties": { "内容": "虹の里デイサービスセンター【地域密着型通所介護】栃木県大田原市川田５７０－１", "url2": "https://www.kaigokensaku.mhlw.go.jp/09/index.php?action_kouhyou_detail_004_kani=true&JigyosyoCd=0991000357-00&ServiceCd=780&Type=search" }, "geometry": { "type": "Point", "coordinates": [ 140.131670969450369, 36.913422620581855 ] } },
{ "type": "Feature", "properties": { "内容": "高館の森デイサービスセンター【地域密着型通所介護】栃木県大田原市川田５７０－１", "url2": "https://www.kaigokensaku.mhlw.go.jp/09/index.php?action_kouhyou_detail_004_kani=true&JigyosyoCd=0971000781-00&ServiceCd=780&Type=search" }, "geometry": { "type": "Point", "coordinates": [ 140.131064700000024, 36.9136743 ] } },
{ "type": "Feature", "properties": { "内容": "マイホームコリーナ【地域密着型通所介護】栃木県矢板市大槻2318-68コリーナ矢板Ｃ812", "url2": "https://www.kaigokensaku.mhlw.go.jp/09/index.php?action_kouhyou_detail_004_kani=true&JigyosyoCd=0971100193-00&ServiceCd=780&Type=search" }, "geometry": { "type": "Point", "coordinates": [ 139.915060499999981, 36.747593 ] } },
{ "type": "Feature", "properties": { "内容": "デイサービス助や【地域密着型通所介護】栃木県矢板市末広町17-5", "url2": "https://www.kaigokensaku.mhlw.go.jp/09/index.php?action_kouhyou_detail_004_kani=true&JigyosyoCd=0971100383-00&ServiceCd=780&Type=search" }, "geometry": { "type": "Point", "coordinates": [ 139.9343271, 36.8067666 ] } },
{ "type": "Feature", "properties": { "内容": "デイサービスセンターひだまり【地域密着型通所介護】栃木県矢板市木幡1551-3", "url2": "https://www.kaigokensaku.mhlw.go.jp/09/index.php?action_kouhyou_detail_004_kani=true&JigyosyoCd=0971100524-00&ServiceCd=780&Type=search" }, "geometry": { "type": "Point", "coordinates": [ 139.9258796, 36.7941183 ] } },
{ "type": "Feature", "properties": { "内容": "青木の森静山荘憩いの家【地域密着型通所介護】栃木県那須塩原市青木２７－３７４", "url2": "https://www.kaigokensaku.mhlw.go.jp/09/index.php?action_kouhyou_detail_004_kani=true&JigyosyoCd=0971300652-00&ServiceCd=780&Type=search" }, "geometry": { "type": "Point", "coordinates": [ 139.977373, 37.0075581 ] } },
{ "type": "Feature", "properties": { "内容": "生活機能訓練センター　デイサービス　ゆうり【地域密着型通所介護】大原間西2-10-8", "url2": "https://www.kaigokensaku.mhlw.go.jp/09/index.php?action_kouhyou_detail_004_kani=true&JigyosyoCd=0971300991-00&ServiceCd=780&Type=search" }, "geometry": { "type": "Point", "coordinates": [ 140.014855399999988, 36.9264758 ] } },
{ "type": "Feature", "properties": { "内容": "アットホームめぐみ【地域密着型通所介護】栃木県那須塩原市東栄2丁目12-15", "url2": "https://www.kaigokensaku.mhlw.go.jp/09/index.php?action_kouhyou_detail_004_kani=true&JigyosyoCd=0971300660-00&ServiceCd=780&Type=search" }, "geometry": { "type": "Point", "coordinates": [ 140.06481777857357, 36.969861108643549 ] } },
{ "type": "Feature", "properties": { "内容": "有限会社　ケアプラザ・つくし【地域密着型通所介護】栃木県那須塩原市井口221番地2", "url2": "https://www.kaigokensaku.mhlw.go.jp/09/index.php?action_kouhyou_detail_004_kani=true&JigyosyoCd=0971300777-00&ServiceCd=780&Type=search" }, "geometry": { "type": "Point", "coordinates": [ 139.991929699999986, 36.912751899999982 ] } },
{ "type": "Feature", "properties": { "内容": "ケアセンターきらきらり【地域密着型通所介護】栃木県那須塩原市沓掛1丁目7番地", "url2": "https://www.kaigokensaku.mhlw.go.jp/09/index.php?action_kouhyou_detail_004_kani=true&JigyosyoCd=0971301080-00&ServiceCd=780&Type=search" }, "geometry": { "type": "Point", "coordinates": [ 140.021964644362868, 36.934156311357967 ] } },
{ "type": "Feature", "properties": { "内容": "リハビリデイサービスハート＆ベスト那須【地域密着型通所介護】栃木県那須塩原市上厚崎４７４番地1", "url2": "https://www.kaigokensaku.mhlw.go.jp/09/index.php?action_kouhyou_detail_004_kani=true&JigyosyoCd=0991300393-00&ServiceCd=780&Type=search" }, "geometry": { "type": "Point", "coordinates": [ 140.031599699999987, 36.9583087 ] } },
{ "type": "Feature", "properties": { "内容": "KOHARUWelfarecenter【地域密着型通所介護】栃木県那須塩原市共墾社150", "url2": "https://www.kaigokensaku.mhlw.go.jp/09/index.php?action_kouhyou_detail_004_kani=true&JigyosyoCd=0991300401-00&ServiceCd=780&Type=search" }, "geometry": { "type": "Point", "coordinates": [ 140.050425600000011, 36.953598 ] } },
{ "type": "Feature", "properties": { "内容": "デイサービスゆり【地域密着型通所介護】栃木県那須塩原市東原163-29サービス付き高齢者向け住宅あじさい", "url2": "https://www.kaigokensaku.mhlw.go.jp/09/index.php?action_kouhyou_detail_004_kani=true&JigyosyoCd=0991300419-00&ServiceCd=780&Type=search" }, "geometry": { "type": "Point", "coordinates": [ 140.018631, 36.9989861 ] } },
{ "type": "Feature", "properties": { "内容": "デイサービス協和苑【地域密着型通所介護】栃木県那須塩原市埼玉２０１－２グレートシティ那須", "url2": "https://www.kaigokensaku.mhlw.go.jp/09/index.php?action_kouhyou_detail_004_kani=true&JigyosyoCd=0991300450-00&ServiceCd=780&Type=search" }, "geometry": { "type": "Point", "coordinates": [ 140.0114269, 36.9691223 ] } },
{ "type": "Feature", "properties": { "内容": "デイサービス元気な家【地域密着型通所介護】大原間247-2デイサービス元気な家", "url2": "https://www.kaigokensaku.mhlw.go.jp/09/index.php?action_kouhyou_detail_004_kani=true&JigyosyoCd=0971200415-00&ServiceCd=780&Type=search" }, "geometry": { "type": "Point", "coordinates": [ 140.020951, 36.9276203 ] } },
{ "type": "Feature", "properties": { "内容": "機能訓練特化型デイサービス　さんぽ【地域密着型通所介護】氏家１８８５－１１", "url2": "https://www.kaigokensaku.mhlw.go.jp/09/index.php?action_kouhyou_detail_004_kani=true&JigyosyoCd=0991400086-00&ServiceCd=780&Type=search" }, "geometry": { "type": "Point", "coordinates": [ 139.966233, 36.678121 ] } },
{ "type": "Feature", "properties": { "内容": "リハビリ・ラボもみの手【地域密着型通所介護】栃木県さくら市馬場254番地5", "url2": "https://www.kaigokensaku.mhlw.go.jp/09/index.php?action_kouhyou_detail_004_kani=true&JigyosyoCd=0971400221-00&ServiceCd=780&Type=search" }, "geometry": { "type": "Point", "coordinates": [ 139.9551351, 36.6878919 ] } },
{ "type": "Feature", "properties": { "内容": "赤い屋根【地域密着型通所介護】栃木県さくら市狹間田1973-1", "url2": "https://www.kaigokensaku.mhlw.go.jp/09/index.php?action_kouhyou_detail_004_kani=true&JigyosyoCd=0971400072-00&ServiceCd=780&Type=search" }, "geometry": { "type": "Point", "coordinates": [ 139.9994587, 36.6958187 ] } },
{ "type": "Feature", "properties": { "内容": "よか・げんき【地域密着型通所介護】栃木県さくら市氏家3842", "url2": "https://www.kaigokensaku.mhlw.go.jp/09/index.php?action_kouhyou_detail_004_kani=true&JigyosyoCd=0971400098-00&ServiceCd=780&Type=search" }, "geometry": { "type": "Point", "coordinates": [ 139.9698793, 36.7056498 ] } },
{ "type": "Feature", "properties": { "内容": "よか・さくら【地域密着型通所介護】栃木県さくら市氏家３４９７", "url2": "https://www.kaigokensaku.mhlw.go.jp/09/index.php?action_kouhyou_detail_004_kani=true&JigyosyoCd=0991400060-00&ServiceCd=780&Type=search" }, "geometry": { "type": "Point", "coordinates": [ 139.96935689999998, 36.7041933 ] } },
{ "type": "Feature", "properties": { "内容": "デイホームおとなりさん【地域密着型通所介護】栃木県那須烏山市野上３５８番地", "url2": "https://www.kaigokensaku.mhlw.go.jp/09/index.php?action_kouhyou_detail_004_kani=true&JigyosyoCd=0971500103-00&ServiceCd=780&Type=search" }, "geometry": { "type": "Point", "coordinates": [ 140.1495242, 36.6327475 ] } },
{ "type": "Feature", "properties": { "内容": "寄り所堀ノ内【地域密着型通所介護】栃木県那須烏山市三箇2825番地3", "url2": "https://www.kaigokensaku.mhlw.go.jp/09/index.php?action_kouhyou_detail_004_kani=true&JigyosyoCd=0971500095-00&ServiceCd=780&Type=search" }, "geometry": { "type": "Point", "coordinates": [ 140.062890599999946, 36.6789575 ] } },
{ "type": "Feature", "properties": { "内容": "デイホーム介護ファミリー【地域密着型通所介護】栃木県那須烏山市神長２８２番地１", "url2": "https://www.kaigokensaku.mhlw.go.jp/09/index.php?action_kouhyou_detail_004_kani=true&JigyosyoCd=0972500888-00&ServiceCd=780&Type=search" }, "geometry": { "type": "Point", "coordinates": [ 140.135277199999962, 36.6666178 ] } },
{ "type": "Feature", "properties": { "内容": "デイサービスサンクス石橋【地域密着型通所介護】栃木県下野市石橋２７番地リビングサンクス石橋", "url2": "https://www.kaigokensaku.mhlw.go.jp/09/index.php?action_kouhyou_detail_004_kani=true&JigyosyoCd=0971600747-00&ServiceCd=780&Type=search" }, "geometry": { "type": "Point", "coordinates": [ 139.8639809, 36.4295836 ] } },
{ "type": "Feature", "properties": { "内容": "ふれんどしもつけディサービスセンター【地域密着型通所介護】栃木県下野市薬師寺3178-8", "url2": "https://www.kaigokensaku.mhlw.go.jp/09/index.php?action_kouhyou_detail_004_kani=true&JigyosyoCd=0971600267-00&ServiceCd=780&Type=search" }, "geometry": { "type": "Point", "coordinates": [ 139.863965900000011, 36.394899 ] } },
{ "type": "Feature", "properties": { "内容": "老人デイサービスセンター　つくし【地域密着型通所介護】栃木県下野市仁良川1651-1", "url2": "https://www.kaigokensaku.mhlw.go.jp/09/index.php?action_kouhyou_detail_004_kani=true&JigyosyoCd=0971600556-00&ServiceCd=780&Type=search" }, "geometry": { "type": "Point", "coordinates": [ 139.874871, 36.3720924 ] } },
{ "type": "Feature", "properties": { "内容": "デイサービスセンターゆうがおの丘【地域密着型通所介護】栃木県下野市下石橋501-1", "url2": "https://www.kaigokensaku.mhlw.go.jp/09/index.php?action_kouhyou_detail_004_kani=true&JigyosyoCd=0971600598-00&ServiceCd=780&Type=search" }, "geometry": { "type": "Point", "coordinates": [ 139.860126, 36.4211166 ] } },
{ "type": "Feature", "properties": { "内容": "デイサービスリハ＆ケアえびはら【地域密着型通所介護】栃木県下野市仁良川1651-3", "url2": "https://www.kaigokensaku.mhlw.go.jp/09/index.php?action_kouhyou_detail_004_kani=true&JigyosyoCd=0991600099-00&ServiceCd=780&Type=search" }, "geometry": { "type": "Point", "coordinates": [ 139.873984521951343, 36.37184433939553 ] } },
{ "type": "Feature", "properties": { "内容": "憩のホーム學【地域密着型通所介護】栃木県下野市大光寺1-8-5", "url2": "https://www.kaigokensaku.mhlw.go.jp/09/index.php?action_kouhyou_detail_004_kani=true&JigyosyoCd=0972300776-00&ServiceCd=780&Type=search" }, "geometry": { "type": "Point", "coordinates": [ 139.853296423617991, 36.431274918145398 ] } },
{ "type": "Feature", "properties": { "内容": "デイサービスセンターゆうあい【地域密着型通所介護】栃木県河内郡上三川町大字上三川六ッ渕1635-1", "url2": "https://www.kaigokensaku.mhlw.go.jp/09/index.php?action_kouhyou_detail_004_kani=true&JigyosyoCd=0972100218-00&ServiceCd=780&Type=search" }, "geometry": { "type": "Point", "coordinates": [ 139.9137869, 36.433788 ] } },
{ "type": "Feature", "properties": { "内容": "ふれあいホームたかだ【地域密着型通所介護】栃木県河内郡上三川町上三川2269－6", "url2": "https://www.kaigokensaku.mhlw.go.jp/09/index.php?action_kouhyou_detail_004_kani=true&JigyosyoCd=0992100065-00&ServiceCd=780&Type=search" }, "geometry": { "type": "Point", "coordinates": [ 139.9194515, 36.4349024 ] } },
{ "type": "Feature", "properties": { "内容": "デイサービス　あきやま【地域密着型通所介護】栃木県芳賀郡茂木町茂木1371-1", "url2": "https://www.kaigokensaku.mhlw.go.jp/09/index.php?action_kouhyou_detail_004_kani=true&JigyosyoCd=0972700488-00&ServiceCd=780&Type=search" }, "geometry": { "type": "Point", "coordinates": [ 140.179966805132267, 36.527352864387986 ] } },
{ "type": "Feature", "properties": { "内容": "デイホーム　陽だまりの家【地域密着型通所介護】栃木県芳賀郡茂木町馬門1387番地1", "url2": "https://www.kaigokensaku.mhlw.go.jp/09/index.php?action_kouhyou_detail_004_kani=true&JigyosyoCd=0972700926-00&ServiceCd=780&Type=search" }, "geometry": { "type": "Point", "coordinates": [ 140.218236921887183, 36.553401434784682 ] } },
{ "type": "Feature", "properties": { "内容": "共生型デイサービスセンターはが【地域密着型通所介護】栃木県芳賀郡芳賀町大字東水沼1163-3ショートステイはが", "url2": "https://www.kaigokensaku.mhlw.go.jp/09/index.php?action_kouhyou_detail_004_kani=true&JigyosyoCd=0972700736-00&ServiceCd=780&Type=search" }, "geometry": { "type": "Point", "coordinates": [ 140.027516373016454, 36.551247943774015 ] } },
{ "type": "Feature", "properties": { "内容": "NPO法人のぞみ会【地域密着型通所介護】栃木県下都賀郡壬生町壬生丁１４５－１０", "url2": "https://www.kaigokensaku.mhlw.go.jp/09/index.php?action_kouhyou_detail_004_kani=true&JigyosyoCd=0972300537-00&ServiceCd=780&Type=search" }, "geometry": { "type": "Point", "coordinates": [ 139.824417399999987, 36.4482202 ] } },
{ "type": "Feature", "properties": { "内容": "あいケアステーションあいの杜ひだまり【地域密着型通所介護】栃木県下都賀郡壬生町藤井1645-3", "url2": "https://www.kaigokensaku.mhlw.go.jp/09/index.php?action_kouhyou_detail_004_kani=true&JigyosyoCd=0972301345-00&ServiceCd=780&Type=search" }, "geometry": { "type": "Point", "coordinates": [ 139.8117489, 36.4197567 ] } },
{ "type": "Feature", "properties": { "内容": "短時間型デイサービスきまま【地域密着型通所介護】栃木県下都賀郡壬生町壬生乙2416-2", "url2": "https://www.kaigokensaku.mhlw.go.jp/09/index.php?action_kouhyou_detail_004_kani=true&JigyosyoCd=0992300145-00&ServiceCd=780&Type=search" }, "geometry": { "type": "Point", "coordinates": [ 139.794846039881094, 36.427654681252015 ] } },
{ "type": "Feature", "properties": { "内容": "野木ケアセンターそよ風【地域密着型通所介護】栃木県下都賀郡野木町野木1895-1", "url2": "https://www.kaigokensaku.mhlw.go.jp/09/index.php?action_kouhyou_detail_004_kani=true&JigyosyoCd=0972301535-00&ServiceCd=780&Type=search" }, "geometry": { "type": "Point", "coordinates": [ 139.7129473, 36.2262849 ] } },
{ "type": "Feature", "properties": { "内容": "老人デイサービスセンター　こすもす【地域密着型通所介護】栃木県塩谷郡塩谷町玉生３９５", "url2": "https://www.kaigokensaku.mhlw.go.jp/09/index.php?action_kouhyou_detail_004_kani=true&JigyosyoCd=0972600118-00&ServiceCd=780&Type=search" }, "geometry": { "type": "Point", "coordinates": [ 139.852845300000013, 36.7771178 ] } },
{ "type": "Feature", "properties": { "内容": "デイホームはな【地域密着型通所介護】栃木県塩谷郡高根沢町大字花岡１３７４番地３", "url2": "https://www.kaigokensaku.mhlw.go.jp/09/index.php?action_kouhyou_detail_004_kani=true&JigyosyoCd=0972600480-00&ServiceCd=780&Type=search" }, "geometry": { "type": "Point", "coordinates": [ 140.021432299999987, 36.6534532 ] } },
{ "type": "Feature", "properties": { "内容": "木の香【地域密着型通所介護】栃木県塩谷郡高根沢町花岡1503-9", "url2": "https://www.kaigokensaku.mhlw.go.jp/09/index.php?action_kouhyou_detail_004_kani=true&JigyosyoCd=0992600106-00&ServiceCd=780&Type=search" }, "geometry": { "type": "Point", "coordinates": [ 140.024961600000012, 36.6555812 ] } },
{ "type": "Feature", "properties": { "内容": "デイホーム　照和【地域密着型通所介護】栃木県塩谷郡高根沢町宝積寺1214番地3", "url2": "https://www.kaigokensaku.mhlw.go.jp/09/index.php?action_kouhyou_detail_004_kani=true&JigyosyoCd=0972600647-00&ServiceCd=780&Type=search" }, "geometry": { "type": "Point", "coordinates": [ 139.9824227, 36.6287526 ] } },
{ "type": "Feature", "properties": { "内容": "エプロンデイ【地域密着型通所介護】栃木県塩谷郡高根沢町花岡1503-3", "url2": "https://www.kaigokensaku.mhlw.go.jp/09/index.php?action_kouhyou_detail_004_kani=true&JigyosyoCd=0972600779-00&ServiceCd=780&Type=search" }, "geometry": { "type": "Point", "coordinates": [ 140.025202299999989, 36.6554646 ] } },
{ "type": "Feature", "properties": { "内容": "おひさまデイサービス【地域密着型通所介護】栃木県那須郡那須町高久甲6-1453", "url2": "https://www.kaigokensaku.mhlw.go.jp/09/index.php?action_kouhyou_detail_004_kani=true&JigyosyoCd=0972501308-00&ServiceCd=780&Type=search" }, "geometry": { "type": "Point", "coordinates": [ 140.06403, 37.0024003 ] } },
{ "type": "Feature", "properties": { "内容": "あい・デイサービス那須【地域密着型通所介護】栃木県那須郡那須町大字豊原丙１３４０", "url2": "https://www.kaigokensaku.mhlw.go.jp/09/index.php?action_kouhyou_detail_004_kani=true&JigyosyoCd=0972501357-00&ServiceCd=780&Type=search" }, "geometry": { "type": "Point", "coordinates": [ 140.111418013561263, 37.058341254369843 ] } }
]
}
