{
"type": "FeatureCollection",
"name": "geo_09_認知症対応型通所介護",
"crs": { "type": "name", "properties": { "name": "urn:ogc:def:crs:OGC:1.3:CRS84" } },
"features": [
{ "type": "Feature", "properties": { "内容": "デイセンターすみれ【認知症対応型通所介護】栃木県宇都宮市下砥上町1552-5", "url2": "https://www.kaigokensaku.mhlw.go.jp/09/index.php?action_kouhyou_detail_004_kani=true&JigyosyoCd=0970101895-00&ServiceCd=720&Type=search" }, "geometry": { "type": "Point", "coordinates": [ 139.846088900000041, 36.5302198 ] } },
{ "type": "Feature", "properties": { "内容": "デイホームさくらの家【認知症対応型通所介護】栃木県宇都宮市江曽島1-8-2", "url2": "https://www.kaigokensaku.mhlw.go.jp/09/index.php?action_kouhyou_detail_004_kani=true&JigyosyoCd=0970103362-00&ServiceCd=720&Type=search" }, "geometry": { "type": "Point", "coordinates": [ 139.865643099999943, 36.5264402 ] } },
{ "type": "Feature", "properties": { "内容": "デイサービス　おおるりの森【認知症対応型通所介護】栃木県宇都宮市竹下町３４４", "url2": "https://www.kaigokensaku.mhlw.go.jp/09/index.php?action_kouhyou_detail_004_kani=true&JigyosyoCd=0990100315-00&ServiceCd=720&Type=search" }, "geometry": { "type": "Point", "coordinates": [ 139.967549400000053, 36.5521268 ] } },
{ "type": "Feature", "properties": { "内容": "デイセンターさくら【認知症対応型通所介護】栃木県宇都宮市花房2-9-33", "url2": "https://www.kaigokensaku.mhlw.go.jp/09/index.php?action_kouhyou_detail_004_kani=true&JigyosyoCd=0970101036-00&ServiceCd=720&Type=search" }, "geometry": { "type": "Point", "coordinates": [ 139.875996699999973, 36.5506433 ] } },
{ "type": "Feature", "properties": { "内容": "高齢者デイサービス丸福【認知症対応型通所介護】宇都宮市末広1-7-21", "url2": "https://www.kaigokensaku.mhlw.go.jp/09/index.php?action_kouhyou_detail_004_kani=true&JigyosyoCd=0970103370-00&ServiceCd=720&Type=search" }, "geometry": { "type": "Point", "coordinates": [ 139.873235799999946, 36.4849755 ] } },
{ "type": "Feature", "properties": { "内容": "デイサ－ビスセンタ－　ひなたぼっこ【認知症対応型通所介護】栃木県宇都宮市針ヶ谷町1001番地1はりがや実梨の丘", "url2": "https://www.kaigokensaku.mhlw.go.jp/09/index.php?action_kouhyou_detail_004_kani=true&JigyosyoCd=0990100216-00&ServiceCd=720&Type=search" }, "geometry": { "type": "Point", "coordinates": [ 139.849609399999963, 36.4897248 ] } },
{ "type": "Feature", "properties": { "内容": "よりそいデイ　さくら星の宮【認知症対応型通所介護】栃木県宇都宮市屋板町1112番地3", "url2": "https://www.kaigokensaku.mhlw.go.jp/09/index.php?action_kouhyou_detail_004_kani=true&JigyosyoCd=0990100562-00&ServiceCd=720&Type=search" }, "geometry": { "type": "Point", "coordinates": [ 139.8951912, 36.5147558 ] } },
{ "type": "Feature", "properties": { "内容": "醍醐の森川崎デイサービスセンター【認知症対応型通所介護】栃木県足利市川崎町２３１６番地", "url2": "https://www.kaigokensaku.mhlw.go.jp/09/index.php?action_kouhyou_detail_004_kani=true&JigyosyoCd=0970201273-00&ServiceCd=720&Type=search" }, "geometry": { "type": "Point", "coordinates": [ 139.496933799999965, 36.3087008 ] } },
{ "type": "Feature", "properties": { "内容": "デイサービス独楽【認知症対応型通所介護】栃木県足利市葉鹿町５６４", "url2": "https://www.kaigokensaku.mhlw.go.jp/09/index.php?action_kouhyou_detail_004_kani=true&JigyosyoCd=0970201174-00&ServiceCd=720&Type=search" }, "geometry": { "type": "Point", "coordinates": [ 139.389913200000024, 36.362206 ] } },
{ "type": "Feature", "properties": { "内容": "デイホームわかば【認知症対応型通所介護】栃木県足利市小俣町１５５４番地４", "url2": "https://www.kaigokensaku.mhlw.go.jp/09/index.php?action_kouhyou_detail_004_kani=true&JigyosyoCd=0970200127-00&ServiceCd=720&Type=search" }, "geometry": { "type": "Point", "coordinates": [ 139.3757855, 36.3790237 ] } },
{ "type": "Feature", "properties": { "内容": "デイサービスセンターひなたぼっこ【認知症対応型通所介護】栃木県足利市借宿町３９１－２", "url2": "https://www.kaigokensaku.mhlw.go.jp/09/index.php?action_kouhyou_detail_004_kani=true&JigyosyoCd=0970200804-00&ServiceCd=720&Type=search" }, "geometry": { "type": "Point", "coordinates": [ 139.435461300000043, 36.3295464 ] } },
{ "type": "Feature", "properties": { "内容": "こはく苑【認知症対応型通所介護】栃木県足利市堀込町2006-1", "url2": "https://www.kaigokensaku.mhlw.go.jp/09/index.php?action_kouhyou_detail_004_kani=true&JigyosyoCd=0990200065-00&ServiceCd=720&Type=search" }, "geometry": { "type": "Point", "coordinates": [ 139.437225300000023, 36.3078265 ] } },
{ "type": "Feature", "properties": { "内容": "デイサービスセンター　青空【認知症対応型通所介護】栃木県足利市島田町８０１", "url2": "https://www.kaigokensaku.mhlw.go.jp/09/index.php?action_kouhyou_detail_004_kani=true&JigyosyoCd=0990200115-00&ServiceCd=720&Type=search" }, "geometry": { "type": "Point", "coordinates": [ 139.449740900000052, 36.304313 ] } },
{ "type": "Feature", "properties": { "内容": "陽だまり【認知症対応型通所介護】栃木県足利市島田町７５４番地１", "url2": "https://www.kaigokensaku.mhlw.go.jp/09/index.php?action_kouhyou_detail_004_kani=true&JigyosyoCd=0970201232-00&ServiceCd=720&Type=search" }, "geometry": { "type": "Point", "coordinates": [ 139.453710399999977, 36.3037963 ] } },
{ "type": "Feature", "properties": { "内容": "デイサービスセンター明水の里【認知症対応型通所介護】栃木県佐野市石塚町1018番地", "url2": "https://www.kaigokensaku.mhlw.go.jp/09/index.php?action_kouhyou_detail_004_kani=true&JigyosyoCd=0990400210-00&ServiceCd=720&Type=search" }, "geometry": { "type": "Point", "coordinates": [ 139.550955400000021, 36.3499503 ] } },
{ "type": "Feature", "properties": { "内容": "ほっとステイ万葉の里デイサービスセンター【認知症対応型通所介護】栃木県佐野市栃本町３１２８－５", "url2": "https://www.kaigokensaku.mhlw.go.jp/09/index.php?action_kouhyou_detail_004_kani=true&JigyosyoCd=0972400253-00&ServiceCd=720&Type=search" }, "geometry": { "type": "Point", "coordinates": [ 139.583630800000037, 36.349218 ] } },
{ "type": "Feature", "properties": { "内容": "小規模デイサービス船越の家【認知症対応型通所介護】船越町１４５９番地４", "url2": "https://www.kaigokensaku.mhlw.go.jp/09/index.php?action_kouhyou_detail_004_kani=true&JigyosyoCd=0990400418-00&ServiceCd=720&Type=search" }, "geometry": { "type": "Point", "coordinates": [ 139.564698, 36.42196 ] } },
{ "type": "Feature", "properties": { "内容": "デイサービスふるさと【認知症対応型通所介護】栃木県佐野市犬伏新町1332-4", "url2": "https://www.kaigokensaku.mhlw.go.jp/09/index.php?action_kouhyou_detail_004_kani=true&JigyosyoCd=0990400426-00&ServiceCd=720&Type=search" }, "geometry": { "type": "Point", "coordinates": [ 139.6041951, 36.3219539 ] } },
{ "type": "Feature", "properties": { "内容": "特定非営利活動法人風の詩デイホーム風のさんぽ道【認知症対応型通所介護】栃木県佐野市田沼町４９８番地８", "url2": "https://www.kaigokensaku.mhlw.go.jp/09/index.php?action_kouhyou_detail_004_kani=true&JigyosyoCd=0972400220-00&ServiceCd=720&Type=search" }, "geometry": { "type": "Point", "coordinates": [ 139.575947300000053, 36.3632883 ] } },
{ "type": "Feature", "properties": { "内容": "小規模ディサービス　ほのぼの【認知症対応型通所介護】栃木県佐野市戸室町２２９－９", "url2": "https://www.kaigokensaku.mhlw.go.jp/09/index.php?action_kouhyou_detail_004_kani=true&JigyosyoCd=0972400295-00&ServiceCd=720&Type=search" }, "geometry": { "type": "Point", "coordinates": [ 139.5733831, 36.3775725 ] } },
{ "type": "Feature", "properties": { "内容": "デイサービスゆずりは【認知症対応型通所介護】栃木県佐野市山形町２５５－１介護老人福祉施設ゆずりは", "url2": "https://www.kaigokensaku.mhlw.go.jp/09/index.php?action_kouhyou_detail_004_kani=true&JigyosyoCd=0990400095-00&ServiceCd=720&Type=search" }, "geometry": { "type": "Point", "coordinates": [ 139.546063199999907, 36.3829852 ] } },
{ "type": "Feature", "properties": { "内容": "地域密着型デイ・サービス　かぬま四季の里【認知症対応型通所介護】鹿沼市西沢町209", "url2": "https://www.kaigokensaku.mhlw.go.jp/09/index.php?action_kouhyou_detail_004_kani=true&JigyosyoCd=0990500100-00&ServiceCd=720&Type=search" }, "geometry": { "type": "Point", "coordinates": [ 139.70848639999997, 36.5169034 ] } },
{ "type": "Feature", "properties": { "内容": "共用型認知症対応型通所介護グループホームみょうじん【認知症対応型通所介護】栃木県日光市明神1000番地1", "url2": "https://www.kaigokensaku.mhlw.go.jp/09/index.php?action_kouhyou_detail_004_kani=true&JigyosyoCd=0990600116-00&ServiceCd=720&Type=search" }, "geometry": { "type": "Point", "coordinates": [ 139.712872800000042, 36.6797963 ] } },
{ "type": "Feature", "properties": { "内容": "グループホームあかね【認知症対応型通所介護】栃木県日光市鬼怒川温泉大原2-135", "url2": "https://www.kaigokensaku.mhlw.go.jp/09/index.php?action_kouhyou_detail_004_kani=true&JigyosyoCd=0990600082-00&ServiceCd=720&Type=search" }, "geometry": { "type": "Point", "coordinates": [ 139.704295799999954, 36.7996213 ] } },
{ "type": "Feature", "properties": { "内容": "デイサービスセンター　コスモス【認知症対応型通所介護】栃木県小山市中久喜１６２０－１", "url2": "https://www.kaigokensaku.mhlw.go.jp/09/index.php?action_kouhyou_detail_004_kani=true&JigyosyoCd=0990800138-00&ServiceCd=720&Type=search" }, "geometry": { "type": "Point", "coordinates": [ 139.8343112, 36.3229249 ] } },
{ "type": "Feature", "properties": { "内容": "グループホームますとくのデイサービス【認知症対応型通所介護】栃木県真岡市京泉2203-20", "url2": "https://www.kaigokensaku.mhlw.go.jp/09/index.php?action_kouhyou_detail_004_kani=true&JigyosyoCd=0990900086-00&ServiceCd=720&Type=search" }, "geometry": { "type": "Point", "coordinates": [ 140.045780900000011, 36.4799336 ] } },
{ "type": "Feature", "properties": { "内容": "グループホームあすなろ【認知症対応型通所介護】栃木県大田原市佐久山2274番地5", "url2": "https://www.kaigokensaku.mhlw.go.jp/09/index.php?action_kouhyou_detail_004_kani=true&JigyosyoCd=0971000450-00&ServiceCd=720&Type=search" }, "geometry": { "type": "Point", "coordinates": [ 140.0083287, 36.8076766 ] } },
{ "type": "Feature", "properties": { "内容": "デイサービスセンターあつさき【認知症対応型通所介護】栃木県那須塩原市下厚崎265-7", "url2": "https://www.kaigokensaku.mhlw.go.jp/09/index.php?action_kouhyou_detail_004_kani=true&JigyosyoCd=0991300104-00&ServiceCd=720&Type=search" }, "geometry": { "type": "Point", "coordinates": [ 140.043641500000035, 36.9541125 ] } },
{ "type": "Feature", "properties": { "内容": "ケアプラザ茉莉花【認知症対応型通所介護】栃木県那須塩原市石林８３７－３６", "url2": "https://www.kaigokensaku.mhlw.go.jp/09/index.php?action_kouhyou_detail_004_kani=true&JigyosyoCd=0991300195-00&ServiceCd=720&Type=search" }, "geometry": { "type": "Point", "coordinates": [ 140.011054798147597, 36.88806166292099 ] } },
{ "type": "Feature", "properties": { "内容": "ほっと乃木ケアセンターさくら【認知症対応型通所介護】栃木県那須塩原市新南１６３番地２８０", "url2": "https://www.kaigokensaku.mhlw.go.jp/09/index.php?action_kouhyou_detail_004_kani=true&JigyosyoCd=0991300161-00&ServiceCd=720&Type=search" }, "geometry": { "type": "Point", "coordinates": [ 139.997828700000014, 36.8833543 ] } },
{ "type": "Feature", "properties": { "内容": "グループホームさらい【認知症対応型通所介護】栃木県那須烏山市滝田1762番地2", "url2": "https://www.kaigokensaku.mhlw.go.jp/09/index.php?action_kouhyou_detail_004_kani=true&JigyosyoCd=0991500034-00&ServiceCd=720&Type=search" }, "geometry": { "type": "Point", "coordinates": [ 140.14537386107159, 36.67550592717464 ] } },
{ "type": "Feature", "properties": { "内容": "グループホームふげん【認知症対応型通所介護】栃木県那須烏山市大桶1085-2", "url2": "https://www.kaigokensaku.mhlw.go.jp/09/index.php?action_kouhyou_detail_004_kani=true&JigyosyoCd=0991500018-00&ServiceCd=720&Type=search" }, "geometry": { "type": "Point", "coordinates": [ 140.1542655, 36.7067369 ] } },
{ "type": "Feature", "properties": { "内容": "デイサービスセンターえがお蔵舞【認知症対応型通所介護】栃木県那須烏山市上境471番地", "url2": "https://www.kaigokensaku.mhlw.go.jp/09/index.php?action_kouhyou_detail_004_kani=true&JigyosyoCd=0991500083-00&ServiceCd=720&Type=search" }, "geometry": { "type": "Point", "coordinates": [ 140.170144384237346, 36.649467349762055 ] } },
{ "type": "Feature", "properties": { "内容": "認知症対応型デイサービスセンター【認知症対応型通所介護】栃木県河内郡上三川町大字上三川字冨士山3375-1", "url2": "https://www.kaigokensaku.mhlw.go.jp/09/index.php?action_kouhyou_detail_004_kani=true&JigyosyoCd=0992100040-00&ServiceCd=720&Type=search" }, "geometry": { "type": "Point", "coordinates": [ 139.911070411006165, 36.426262381091426 ] } },
{ "type": "Feature", "properties": { "内容": "ともにあゆんデイ【認知症対応型通所介護】栃木県芳賀郡益子町益子2053", "url2": "https://www.kaigokensaku.mhlw.go.jp/09/index.php?action_kouhyou_detail_004_kani=true&JigyosyoCd=0992700062-00&ServiceCd=720&Type=search" }, "geometry": { "type": "Point", "coordinates": [ 140.089936800000032, 36.4624703 ] } },
{ "type": "Feature", "properties": { "内容": "共用型指定認知症対応型通所介護センターとちぎ【認知症対応型通所介護】栃木県芳賀郡茂木町茂木63-28", "url2": "https://www.kaigokensaku.mhlw.go.jp/09/index.php?action_kouhyou_detail_004_kani=true&JigyosyoCd=0992700138-00&ServiceCd=720&Type=search" }, "geometry": { "type": "Point", "coordinates": [ 140.19111440000006, 36.5334119 ] } },
{ "type": "Feature", "properties": { "内容": "アットホームいちはな【認知症対応型通所介護】栃木県芳賀郡市貝町市塙1601-1", "url2": "https://www.kaigokensaku.mhlw.go.jp/09/index.php?action_kouhyou_detail_004_kani=true&JigyosyoCd=0992700070-00&ServiceCd=720&Type=search" }, "geometry": { "type": "Point", "coordinates": [ 140.102478499999989, 36.5368399 ] } },
{ "type": "Feature", "properties": { "内容": "デイサービスセンター　フローラりんくる【認知症対応型通所介護】栃木県塩谷郡高根沢町大字宝積寺2240-1", "url2": "https://www.kaigokensaku.mhlw.go.jp/09/index.php?action_kouhyou_detail_004_kani=true&JigyosyoCd=0992600015-00&ServiceCd=720&Type=search" }, "geometry": { "type": "Point", "coordinates": [ 139.990036199999963, 36.6254766 ] } },
{ "type": "Feature", "properties": { "内容": "認知症高齢者　グループホーム愛里須【認知症対応型通所介護】栃木県那須郡那須町大字寺子乙4402-2", "url2": "https://www.kaigokensaku.mhlw.go.jp/09/index.php?action_kouhyou_detail_004_kani=true&JigyosyoCd=0992500041-00&ServiceCd=720&Type=search" }, "geometry": { "type": "Point", "coordinates": [ 140.125727899999987, 37.0137351 ] } },
{ "type": "Feature", "properties": { "内容": "認知症高齢者　グループホーム　ソフィア【認知症対応型通所介護】栃木県那須郡那須町大字寺子丙１０４－３", "url2": "https://www.kaigokensaku.mhlw.go.jp/09/index.php?action_kouhyou_detail_004_kani=true&JigyosyoCd=0992500108-00&ServiceCd=720&Type=search" }, "geometry": { "type": "Point", "coordinates": [ 140.113067399999977, 37.0246752 ] } },
{ "type": "Feature", "properties": { "内容": "デイサービスセンター　かたくりの郷【認知症対応型通所介護】栃木県那須郡那珂川町小川2958-2", "url2": "https://www.kaigokensaku.mhlw.go.jp/09/index.php?action_kouhyou_detail_004_kani=true&JigyosyoCd=0992500025-00&ServiceCd=720&Type=search" }, "geometry": { "type": "Point", "coordinates": [ 140.119761899999958, 36.7607799 ] } }
]
}
