{
"type": "FeatureCollection",
"name": "geo_09_短期入所療養介護（介護老人保健施設）",
"crs": { "type": "name", "properties": { "name": "urn:ogc:def:crs:OGC:1.3:CRS84" } },
"features": [
{ "type": "Feature", "properties": { "内容": "老人保健施設　白楽園【短期入所療養介護（介護老人保健施設）】栃木県宇都宮市宝木本町２１４１番地２", "url": "https://www.kaigokensaku.mhlw.go.jp/09/index.php?action_kouhyou_detail_004_kani=true&JigyosyoCd=0950180026-00&ServiceCd=220&Type=search", "url2": "http://numaog.or.jp/" }, "geometry": { "type": "Point", "coordinates": [ 139.843198600000051, 36.6296692 ] } },
{ "type": "Feature", "properties": { "内容": "宇都宮シルバーホーム【短期入所療養介護（介護老人保健施設）】栃木県宇都宮市平出町413番地", "url": "https://www.kaigokensaku.mhlw.go.jp/09/index.php?action_kouhyou_detail_004_kani=true&JigyosyoCd=0950180018-00&ServiceCd=220&Type=search", "url2": "https://www.hokutokai.or.jp/" }, "geometry": { "type": "Point", "coordinates": [ 139.946911099999966, 36.5702412 ] } },
{ "type": "Feature", "properties": { "内容": "介護老人保健施設陽南【短期入所療養介護（介護老人保健施設）】栃木県宇都宮市陽南4-6-34", "url": "https://www.kaigokensaku.mhlw.go.jp/09/index.php?action_kouhyou_detail_004_kani=true&JigyosyoCd=0950180042-00&ServiceCd=220&Type=search", "url2": null }, "geometry": { "type": "Point", "coordinates": [ 139.867425799999978, 36.5371529 ] } },
{ "type": "Feature", "properties": { "内容": "ホスピア宇都宮【短期入所療養介護（介護老人保健施設）】宇都宮市東宿郷２－１－１", "url": "https://www.kaigokensaku.mhlw.go.jp/09/index.php?action_kouhyou_detail_004_kani=true&JigyosyoCd=0950180067-00&ServiceCd=220&Type=search", "url2": "http://www.zenjinkai-utsunomiya.jp/hospia/index.html" }, "geometry": { "type": "Point", "coordinates": [ 139.899779200000012, 36.5577911 ] } },
{ "type": "Feature", "properties": { "内容": "JCHOうつのみや病院附属介護老人保健施設【短期入所療養介護（介護老人保健施設）】栃木県宇都宮市南高砂町11番17号", "url": "https://www.kaigokensaku.mhlw.go.jp/09/index.php?action_kouhyou_detail_004_kani=true&JigyosyoCd=0950180075-00&ServiceCd=220&Type=search", "url2": "http://utsunomiya.jcho.go.jp/rouken/" }, "geometry": { "type": "Point", "coordinates": [ 139.870780400000058, 36.4833424 ] } },
{ "type": "Feature", "properties": { "内容": "介護老人保健施設しらさぎ荘【短期入所療養介護（介護老人保健施設）】栃木県宇都宮市白沢町７７１番地", "url": "https://www.kaigokensaku.mhlw.go.jp/09/index.php?action_kouhyou_detail_004_kani=true&JigyosyoCd=0952180016-00&ServiceCd=220&Type=search", "url2": "http://roken-shirasagi.jp" }, "geometry": { "type": "Point", "coordinates": [ 139.945461900000026, 36.6315888 ] } },
{ "type": "Feature", "properties": { "内容": "介護老人保健施設　グリーンヒルズ２１【短期入所療養介護（介護老人保健施設）】栃木県足利市大前町1220", "url": "https://www.kaigokensaku.mhlw.go.jp/09/index.php?action_kouhyou_detail_004_kani=true&JigyosyoCd=0950280024-00&ServiceCd=220&Type=search", "url2": "http://www.koubai－kai.or.jp/" }, "geometry": { "type": "Point", "coordinates": [ 139.403503499999943, 36.3630702 ] } },
{ "type": "Feature", "properties": { "内容": "介護老人保健施設　四恩苑【短期入所療養介護（介護老人保健施設）】栃木県足利市多田木町1168-1", "url": "https://www.kaigokensaku.mhlw.go.jp/09/index.php?action_kouhyou_detail_004_kani=true&JigyosyoCd=0950280032-00&ServiceCd=220&Type=search", "url2": "http://www.ryu-sei.or.jp" }, "geometry": { "type": "Point", "coordinates": [ 139.531800100000027, 36.3139066 ] } },
{ "type": "Feature", "properties": { "内容": "介護老人保健施設　グリーンホーム【短期入所療養介護（介護老人保健施設）】栃木県足利市福居町1210", "url": "https://www.kaigokensaku.mhlw.go.jp/09/index.php?action_kouhyou_detail_004_kani=true&JigyosyoCd=0950280016-00&ServiceCd=220&Type=search", "url2": "http://www.koueikai.com/" }, "geometry": { "type": "Point", "coordinates": [ 139.460223199999973, 36.3067159 ] } },
{ "type": "Feature", "properties": { "内容": "一般財団法人とちぎメディカルセンター　介護老人保健施設とちぎの郷【短期入所療養介護（介護老人保健施設）】栃木県栃木市境町２７番２１号", "url": "https://www.kaigokensaku.mhlw.go.jp/09/index.php?action_kouhyou_detail_004_kani=true&JigyosyoCd=0950380030-00&ServiceCd=220&Type=search", "url2": "http://www.tochigi-medicalcenter.or.jp/tochiginosato/" }, "geometry": { "type": "Point", "coordinates": [ 139.727027655164306, 36.368457726320713 ] } },
{ "type": "Feature", "properties": { "内容": "介護老人保健施設　にしかた【短期入所療養介護（介護老人保健施設）】栃木県栃木市西方町金崎２７３番地", "url": "https://www.kaigokensaku.mhlw.go.jp/09/index.php?action_kouhyou_detail_004_kani=true&JigyosyoCd=0952280014-00&ServiceCd=220&Type=search", "url2": "http://www.cc9.ne.jp/~nishikata-hosp/" }, "geometry": { "type": "Point", "coordinates": [ 139.745951699999978, 36.468929 ] } },
{ "type": "Feature", "properties": { "内容": "介護老人保健施設やすらぎの里八州苑【短期入所療養介護（介護老人保健施設）】栃木県栃木市藤岡町太田1394番地1", "url": "https://www.kaigokensaku.mhlw.go.jp/09/index.php?action_kouhyou_detail_004_kani=true&JigyosyoCd=0952380046-00&ServiceCd=220&Type=search", "url2": "https://www.mokusuikai.com/" }, "geometry": { "type": "Point", "coordinates": [ 139.6491149, 36.3079826 ] } },
{ "type": "Feature", "properties": { "内容": "介護老人保健施設　リハビリパークぶどうの舎【短期入所療養介護（介護老人保健施設）】栃木市大平町富田5-232", "url": "https://www.kaigokensaku.mhlw.go.jp/09/index.php?action_kouhyou_detail_004_kani=true&JigyosyoCd=0951680016-00&ServiceCd=220&Type=search", "url2": "http://www.nogihosp.or.jp" }, "geometry": { "type": "Point", "coordinates": [ 139.703411100000039, 36.3352996 ] } },
{ "type": "Feature", "properties": { "内容": "介護老人保健施設佐野ナーシングクワサキ【短期入所療養介護（介護老人保健施設）】栃木県佐野市免鳥町４７２－１", "url": "https://www.kaigokensaku.mhlw.go.jp/09/index.php?action_kouhyou_detail_004_kani=true&JigyosyoCd=0950480012-00&ServiceCd=220&Type=search", "url2": "https://kuwasakikai.jp/" }, "geometry": { "type": "Point", "coordinates": [ 139.546843699999954, 36.3104321 ] } },
{ "type": "Feature", "properties": { "内容": "介護老人保健施設　あさひ【短期入所療養介護（介護老人保健施設）】栃木県佐野市葛生東1-15-7", "url": "https://www.kaigokensaku.mhlw.go.jp/09/index.php?action_kouhyou_detail_004_kani=true&JigyosyoCd=0950480046-00&ServiceCd=220&Type=search", "url2": null }, "geometry": { "type": "Point", "coordinates": [ 139.61343080000006, 36.4019477 ] } },
{ "type": "Feature", "properties": { "内容": "老人保健施設かみつが【短期入所療養介護（介護老人保健施設）】栃木県鹿沼市上殿町９６０－２", "url": "https://www.kaigokensaku.mhlw.go.jp/09/index.php?action_kouhyou_detail_004_kani=true&JigyosyoCd=0950580027-00&ServiceCd=220&Type=search", "url2": "http://www.kamituga-roken.jp" }, "geometry": { "type": "Point", "coordinates": [ 139.752044853967277, 36.554484919463661 ] } },
{ "type": "Feature", "properties": { "内容": "医療法人桃李会　介護老人保健施設ほほえみ【短期入所療養介護（介護老人保健施設）】栃木県鹿沼市今宮町１６８２番地２", "url": "https://www.kaigokensaku.mhlw.go.jp/09/index.php?action_kouhyou_detail_004_kani=true&JigyosyoCd=0950580035-00&ServiceCd=220&Type=search", "url2": "https://rouken-hohoemi.jp/" }, "geometry": { "type": "Point", "coordinates": [ 139.745044900000011, 36.5678073 ] } },
{ "type": "Feature", "properties": { "内容": "介護老人保健施設　たけむらクローバー館【短期入所療養介護（介護老人保健施設）】栃木県鹿沼市茂呂１８５８-１４７", "url": "https://www.kaigokensaku.mhlw.go.jp/09/index.php?action_kouhyou_detail_004_kani=true&JigyosyoCd=0950580043-00&ServiceCd=220&Type=search", "url2": "http://takemuracloverkan.com/" }, "geometry": { "type": "Point", "coordinates": [ 139.77173629999993, 36.5366567 ] } },
{ "type": "Feature", "properties": { "内容": "医療法人社団双愛会介護老人保健施設そうあい（介護老人保健施設）【短期入所療養介護（介護老人保健施設）】栃木県日光市足尾町砂畑4147-2", "url": "https://www.kaigokensaku.mhlw.go.jp/09/index.php?action_kouhyou_detail_004_kani=true&JigyosyoCd=0950680025-00&ServiceCd=220&Type=search", "url2": null }, "geometry": { "type": "Point", "coordinates": [ 139.433969400000024, 36.628977 ] } },
{ "type": "Feature", "properties": { "内容": "介護老人保健施設見龍堂メディケアユニッツ【短期入所療養介護（介護老人保健施設）】栃木県日光市木和田島3008-8", "url": "https://www.kaigokensaku.mhlw.go.jp/09/index.php?action_kouhyou_detail_004_kani=true&JigyosyoCd=0950780007-00&ServiceCd=220&Type=search", "url2": "https://yaoitakinenkai.or.jp/" }, "geometry": { "type": "Point", "coordinates": [ 139.752911899999958, 36.681261 ] } },
{ "type": "Feature", "properties": { "内容": "介護老人保健施設にっこう【短期入所療養介護（介護老人保健施設）】栃木県日光市清滝安良沢町1752-10", "url": "https://www.kaigokensaku.mhlw.go.jp/09/index.php?action_kouhyou_detail_004_kani=true&JigyosyoCd=0950680017-00&ServiceCd=220&Type=search", "url2": "http://www.nikko-roken.jp/html/" }, "geometry": { "type": "Point", "coordinates": [ 139.576215899999966, 36.7497155 ] } },
{ "type": "Feature", "properties": { "内容": "介護老人保健施設　今市Ｌケアセンター【短期入所療養介護（介護老人保健施設）】栃木県日光市平ヶ崎６０５－１", "url": "https://www.kaigokensaku.mhlw.go.jp/09/index.php?action_kouhyou_detail_004_kani=true&JigyosyoCd=0950780015-00&ServiceCd=220&Type=search", "url2": "http://yaoitakinenkai.or.jp/" }, "geometry": { "type": "Point", "coordinates": [ 139.681820799999969, 36.7158745 ] } },
{ "type": "Feature", "properties": { "内容": "介護老人保健施設ヴィラフォーレスタ（森の家）【短期入所療養介護（介護老人保健施設）】栃木県日光市根室６０７-５", "url": "https://www.kaigokensaku.mhlw.go.jp/09/index.php?action_kouhyou_detail_004_kani=true&JigyosyoCd=0950780023-00&ServiceCd=220&Type=search", "url2": "http://www.villaforesta.jp" }, "geometry": { "type": "Point", "coordinates": [ 139.779072, 36.7084002 ] } },
{ "type": "Feature", "properties": { "内容": "介護老人保健施設晃南【短期入所療養介護（介護老人保健施設）】栃木県小山市乙女７９５", "url": "https://www.kaigokensaku.mhlw.go.jp/09/index.php?action_kouhyou_detail_004_kani=true&JigyosyoCd=0950880054-00&ServiceCd=220&Type=search", "url2": "http://care-net.biz/09/kounan" }, "geometry": { "type": "Point", "coordinates": [ 139.759233900000027, 36.258546 ] } },
{ "type": "Feature", "properties": { "内容": "介護老人保健施設　空の舎【短期入所療養介護（介護老人保健施設）】栃木県小山市若木町1丁目1-2", "url": "https://www.kaigokensaku.mhlw.go.jp/09/index.php?action_kouhyou_detail_004_kani=true&JigyosyoCd=0950880070-00&ServiceCd=220&Type=search", "url2": "https://www.nogihosp.or.jp" }, "geometry": { "type": "Point", "coordinates": [ 139.80032, 36.3231039 ] } },
{ "type": "Feature", "properties": { "内容": "介護老人保健施設　春祺荘【短期入所療養介護（介護老人保健施設）】栃木県真岡市亀山350-1", "url": "https://www.kaigokensaku.mhlw.go.jp/09/index.php?action_kouhyou_detail_004_kani=true&JigyosyoCd=0950980011-00&ServiceCd=220&Type=search", "url2": "http://care-net.biz/09/shunkiso/" }, "geometry": { "type": "Point", "coordinates": [ 139.988596, 36.4607491 ] } },
{ "type": "Feature", "properties": { "内容": "わたのみ荘【短期入所療養介護（介護老人保健施設）】栃木県真岡市荒町３丁目４６番地９", "url": "https://www.kaigokensaku.mhlw.go.jp/09/index.php?action_kouhyou_detail_004_kani=true&JigyosyoCd=0950980037-00&ServiceCd=220&Type=search", "url2": "http://moka-hp.jp" }, "geometry": { "type": "Point", "coordinates": [ 140.01698, 36.4457295 ] } },
{ "type": "Feature", "properties": { "内容": "介護老人保健施設　同仁苑【短期入所療養介護（介護老人保健施設）】栃木県大田原市下石上1452番地", "url": "https://www.kaigokensaku.mhlw.go.jp/09/index.php?action_kouhyou_detail_004_kani=true&JigyosyoCd=0951080001-00&ServiceCd=220&Type=search", "url2": "http://www.nasuchuoh-hospital.jp" }, "geometry": { "type": "Point", "coordinates": [ 139.948071700000014, 36.8564476 ] } },
{ "type": "Feature", "properties": { "内容": "介護老人保健施設椿寿荘【短期入所療養介護（介護老人保健施設）】栃木県大田原市末広１丁目２番５号", "url": "https://www.kaigokensaku.mhlw.go.jp/09/index.php?action_kouhyou_detail_004_kani=true&JigyosyoCd=0951080019-00&ServiceCd=220&Type=search", "url2": "http://www.tinjyusoh.jp/" }, "geometry": { "type": "Point", "coordinates": [ 140.020618900000045, 36.8605882 ] } },
{ "type": "Feature", "properties": { "内容": "介護老人保健施設マロニエ苑【短期入所療養介護（介護老人保健施設）】栃木県那須塩原市井口５３３－４", "url": "https://www.kaigokensaku.mhlw.go.jp/09/index.php?action_kouhyou_detail_004_kani=true&JigyosyoCd=0951380005-00&ServiceCd=220&Type=search", "url2": "http://www.iuhw.ac.jp/maronie/" }, "geometry": { "type": "Point", "coordinates": [ 139.972494, 36.911467 ] } },
{ "type": "Feature", "properties": { "内容": "介護老人保健施設　秋桜の家【短期入所療養介護（介護老人保健施設）】栃木県那須塩原市大原間81", "url": "https://www.kaigokensaku.mhlw.go.jp/09/index.php?action_kouhyou_detail_004_kani=true&JigyosyoCd=0951280015-00&ServiceCd=220&Type=search", "url2": "http://wata01.sakura.ne.jp/cosmos/" }, "geometry": { "type": "Point", "coordinates": [ 140.020711099999971, 36.9250009 ] } },
{ "type": "Feature", "properties": { "内容": "介護老人保健施設いずみ【短期入所療養介護（介護老人保健施設）】栃木県さくら市氏家2650番地", "url": "https://www.kaigokensaku.mhlw.go.jp/09/index.php?action_kouhyou_detail_004_kani=true&JigyosyoCd=0952680031-00&ServiceCd=220&Type=search", "url2": "http://www.kurosu-hospital.jp/izumi/" }, "geometry": { "type": "Point", "coordinates": [ 139.968174699999963, 36.67968 ] } },
{ "type": "Feature", "properties": { "内容": "介護老人保健施設　富士山苑【短期入所療養介護（介護老人保健施設）】栃木県那須烏山市滝田1868-28", "url": "https://www.kaigokensaku.mhlw.go.jp/09/index.php?action_kouhyou_detail_004_kani=true&JigyosyoCd=0952580025-00&ServiceCd=220&Type=search", "url2": "https://roken-fujiyamaen.com" }, "geometry": { "type": "Point", "coordinates": [ 140.145636100000047, 36.6803487 ] } },
{ "type": "Feature", "properties": { "内容": "お達者倶楽部【短期入所療養介護（介護老人保健施設）】栃木県下野市薬師寺2472番地5", "url": "https://www.kaigokensaku.mhlw.go.jp/09/index.php?action_kouhyou_detail_004_kani=true&JigyosyoCd=0952180024-00&ServiceCd=220&Type=search", "url2": "http://www.otassha-club.jp" }, "geometry": { "type": "Point", "coordinates": [ 139.865713142991581, 36.391815567945997 ] } },
{ "type": "Feature", "properties": { "内容": "介護老人保健施設　看清坊【短期入所療養介護（介護老人保健施設）】栃木県芳賀郡益子町益子４４９３", "url": "https://www.kaigokensaku.mhlw.go.jp/09/index.php?action_kouhyou_detail_004_kani=true&JigyosyoCd=0952780021-00&ServiceCd=220&Type=search", "url2": "http://www.fumon.jp" }, "geometry": { "type": "Point", "coordinates": [ 140.114154500000041, 36.4495918 ] } },
{ "type": "Feature", "properties": { "内容": "介護老人保健施設もてぎの森うごうだ城【短期入所療養介護（介護老人保健施設）】栃木県芳賀郡茂木町大字烏生田３３０番地", "url": "https://www.kaigokensaku.mhlw.go.jp/09/index.php?action_kouhyou_detail_004_kani=true&JigyosyoCd=0952780005-00&ServiceCd=220&Type=search", "url2": "http://www.moteginomori.com/" }, "geometry": { "type": "Point", "coordinates": [ 140.179537799999906, 36.5797257 ] } },
{ "type": "Feature", "properties": { "内容": "老人保健施設　みなと荘【短期入所療養介護（介護老人保健施設）】栃木県下都賀郡壬生町大字北小林８１５", "url": "https://www.kaigokensaku.mhlw.go.jp/09/index.php?action_kouhyou_detail_004_kani=true&JigyosyoCd=0952380012-00&ServiceCd=220&Type=search", "url2": "http://www.tochinokikai.or.jp" }, "geometry": { "type": "Point", "coordinates": [ 139.821856943130456, 36.475871218839927 ] } },
{ "type": "Feature", "properties": { "内容": "介護老人保健施設　ひまわり荘【短期入所療養介護（介護老人保健施設）】栃木県下都賀郡野木町南赤塚1218-1", "url": "https://www.kaigokensaku.mhlw.go.jp/09/index.php?action_kouhyou_detail_004_kani=true&JigyosyoCd=0952380020-00&ServiceCd=220&Type=search", "url2": "http://www.nogihosp.or.jp" }, "geometry": { "type": "Point", "coordinates": [ 139.747914199999968, 36.2189643 ] } }
]
}
