{
"type": "FeatureCollection",
"name": "geo_09_中学校",
"crs": { "type": "name", "properties": { "name": "urn:ogc:def:crs:EPSG::6668" } },
"features": [
{ "type": "Feature", "properties": { "P29_001": "09201", "P29_002": "C109110000010", "P29_003": "16002", "P29_004": "宇都宮大学共同教育学部附属中学校", "P29_005": "栃木県宇都宮市松原1-7-38", "P29_006": "1", "P29_007": "1", "P29_008": "00", "P29_009": null }, "geometry": { "type": "Point", "coordinates": [ 139.871263031316801, 36.568570360211162 ] } },
{ "type": "Feature", "properties": { "P29_001": "09201", "P29_002": "C109210000018", "P29_003": "16002", "P29_004": "宇都宮市立一条中学校", "P29_005": "栃木県宇都宮市京町9-25", "P29_006": "3", "P29_007": "1", "P29_008": "00", "P29_009": null }, "geometry": { "type": "Point", "coordinates": [ 139.8715731718234, 36.553468875583413 ] } },
{ "type": "Feature", "properties": { "P29_001": "09201", "P29_002": "C109210000027", "P29_003": "16002", "P29_004": "宇都宮市立陽北中学校", "P29_005": "栃木県宇都宮市今泉町47-2", "P29_006": "3", "P29_007": "1", "P29_008": "00", "P29_009": null }, "geometry": { "type": "Point", "coordinates": [ 139.899082380465472, 36.572004094653764 ] } },
{ "type": "Feature", "properties": { "P29_001": "09201", "P29_002": "C109210000036", "P29_003": "16002", "P29_004": "宇都宮市立旭中学校", "P29_005": "栃木県宇都宮市天神1-1-42", "P29_006": "3", "P29_007": "1", "P29_008": "00", "P29_009": null }, "geometry": { "type": "Point", "coordinates": [ 139.888466860613846, 36.555870424308836 ] } },
{ "type": "Feature", "properties": { "P29_001": "09201", "P29_002": "C109210000045", "P29_003": "16002", "P29_004": "宇都宮市立陽南中学校", "P29_005": "栃木県宇都宮市陽南2-4-58", "P29_006": "3", "P29_007": "1", "P29_008": "00", "P29_009": null }, "geometry": { "type": "Point", "coordinates": [ 139.875786618898957, 36.535566073551443 ] } },
{ "type": "Feature", "properties": { "P29_001": "09201", "P29_002": "C109210000054", "P29_003": "16002", "P29_004": "宇都宮市立陽西中学校", "P29_005": "栃木県宇都宮市陽西町1-16", "P29_006": "3", "P29_007": "1", "P29_008": "00", "P29_009": null }, "geometry": { "type": "Point", "coordinates": [ 139.859030065590076, 36.573739891721615 ] } },
{ "type": "Feature", "properties": { "P29_001": "09201", "P29_002": "C109210000063", "P29_003": "16002", "P29_004": "宇都宮市立星が丘中学校", "P29_005": "栃木県宇都宮市星が丘2-3-31", "P29_006": "3", "P29_007": "1", "P29_008": "00", "P29_009": null }, "geometry": { "type": "Point", "coordinates": [ 139.875032361955306, 36.570257617036638 ] } },
{ "type": "Feature", "properties": { "P29_001": "09201", "P29_002": "C109210000072", "P29_003": "16002", "P29_004": "宇都宮市立陽東中学校", "P29_005": "栃木県宇都宮市石井町2800-42", "P29_006": "3", "P29_007": "1", "P29_008": "00", "P29_009": null }, "geometry": { "type": "Point", "coordinates": [ 139.928890727205498, 36.544176401061264 ] } },
{ "type": "Feature", "properties": { "P29_001": "09201", "P29_002": "C109210000081", "P29_003": "16002", "P29_004": "宇都宮市立泉が丘中学校", "P29_005": "栃木県宇都宮市泉が丘4-11-40", "P29_006": "3", "P29_007": "1", "P29_008": "00", "P29_009": null }, "geometry": { "type": "Point", "coordinates": [ 139.918680816743603, 36.56705307465743 ] } },
{ "type": "Feature", "properties": { "P29_001": "09201", "P29_002": "C109210000090", "P29_003": "16002", "P29_004": "宇都宮市立宮の原中学校", "P29_005": "栃木県宇都宮市鶴田町261-3", "P29_006": "3", "P29_007": "1", "P29_008": "00", "P29_009": null }, "geometry": { "type": "Point", "coordinates": [ 139.854840356321745, 36.545306584596055 ] } },
{ "type": "Feature", "properties": { "P29_001": "09201", "P29_002": "C109210000107", "P29_003": "16002", "P29_004": "宇都宮市立清原中学校", "P29_005": "栃木県宇都宮市鐺山町231", "P29_006": "3", "P29_007": "1", "P29_008": "00", "P29_009": null }, "geometry": { "type": "Point", "coordinates": [ 139.972908302003077, 36.541464012893563 ] } },
{ "type": "Feature", "properties": { "P29_001": "09201", "P29_002": "C109210000116", "P29_003": "16002", "P29_004": "宇都宮市立横川中学校", "P29_005": "栃木県宇都宮市屋板町143", "P29_006": "3", "P29_007": "1", "P29_008": "00", "P29_009": null }, "geometry": { "type": "Point", "coordinates": [ 139.90356154301179, 36.519310569812248 ] } },
{ "type": "Feature", "properties": { "P29_001": "09201", "P29_002": "C109210000125", "P29_003": "16002", "P29_004": "宇都宮市立瑞穂野中学校", "P29_005": "栃木県宇都宮市下桑島町1078", "P29_006": "3", "P29_007": "1", "P29_008": "00", "P29_009": null }, "geometry": { "type": "Point", "coordinates": [ 139.929990200121864, 36.507147757618426 ] } },
{ "type": "Feature", "properties": { "P29_001": "09201", "P29_002": "C109210000134", "P29_003": "16002", "P29_004": "宇都宮市立豊郷中学校", "P29_005": "栃木県宇都宮市関堀町350", "P29_006": "3", "P29_007": "1", "P29_008": "00", "P29_009": null }, "geometry": { "type": "Point", "coordinates": [ 139.89710400303872, 36.600515180768845 ] } },
{ "type": "Feature", "properties": { "P29_001": "09201", "P29_002": "C109210000143", "P29_003": "16002", "P29_004": "宇都宮市立国本中学校", "P29_005": "栃木県宇都宮市新里町丁1608-19", "P29_006": "3", "P29_007": "1", "P29_008": "00", "P29_009": null }, "geometry": { "type": "Point", "coordinates": [ 139.838172044237865, 36.616349427077743 ] } },
{ "type": "Feature", "properties": { "P29_001": "09201", "P29_002": "C109210000152", "P29_003": "16002", "P29_004": "宇都宮市立城山中学校", "P29_005": "栃木県宇都宮市大谷町1423", "P29_006": "3", "P29_007": "1", "P29_008": "00", "P29_009": null }, "geometry": { "type": "Point", "coordinates": [ 139.813117177942928, 36.592443909457501 ] } },
{ "type": "Feature", "properties": { "P29_001": "09201", "P29_002": "C109210000161", "P29_003": "16002", "P29_004": "宇都宮市立姿川中学校", "P29_005": "栃木県宇都宮市西川田町1038", "P29_006": "3", "P29_007": "1", "P29_008": "00", "P29_009": null }, "geometry": { "type": "Point", "coordinates": [ 139.856965386035512, 36.536450861200841 ] } },
{ "type": "Feature", "properties": { "P29_001": "09201", "P29_002": "C109210000170", "P29_003": "16002", "P29_004": "宇都宮市立雀宮中学校", "P29_005": "栃木県宇都宮市雀の宮7-28-16", "P29_006": "3", "P29_007": "1", "P29_008": "00", "P29_009": null }, "geometry": { "type": "Point", "coordinates": [ 139.863478202665391, 36.487866390271371 ] } },
{ "type": "Feature", "properties": { "P29_001": "09201", "P29_002": "C109210000189", "P29_003": "16002", "P29_004": "宇都宮市立晃陽中学校", "P29_005": "栃木県宇都宮市徳次郎町1964", "P29_006": "3", "P29_007": "1", "P29_008": "00", "P29_009": null }, "geometry": { "type": "Point", "coordinates": [ 139.839367790443447, 36.655996434923239 ] } },
{ "type": "Feature", "properties": { "P29_001": "09201", "P29_002": "C109210000198", "P29_003": "16002", "P29_004": "宇都宮市立鬼怒中学校", "P29_005": "栃木県宇都宮市平出町3764-10", "P29_006": "3", "P29_007": "1", "P29_008": "00", "P29_009": null }, "geometry": { "type": "Point", "coordinates": [ 139.939612987743743, 36.574758134054377 ] } },
{ "type": "Feature", "properties": { "P29_001": "09201", "P29_002": "C109210000205", "P29_003": "16002", "P29_004": "宇都宮市立宝木中学校", "P29_005": "栃木県宇都宮市細谷町604", "P29_006": "3", "P29_007": "1", "P29_008": "00", "P29_009": null }, "geometry": { "type": "Point", "coordinates": [ 139.8485898163066, 36.595882927250472 ] } },
{ "type": "Feature", "properties": { "P29_001": "09201", "P29_002": "C109210000214", "P29_003": "16002", "P29_004": "宇都宮市立若松原中学校", "P29_005": "栃木県宇都宮市若松原3-19-27", "P29_006": "3", "P29_007": "1", "P29_008": "00", "P29_009": null }, "geometry": { "type": "Point", "coordinates": [ 139.862866303075748, 36.50015986969359 ] } },
{ "type": "Feature", "properties": { "P29_001": "09202", "P29_002": "C109210000223", "P29_003": "16002", "P29_004": "足利市立第一中学校", "P29_005": "栃木県足利市西宮町3045", "P29_006": "3", "P29_007": "1", "P29_008": "00", "P29_009": null }, "geometry": { "type": "Point", "coordinates": [ 139.442042847619717, 36.347643682980809 ] } },
{ "type": "Feature", "properties": { "P29_001": "09202", "P29_002": "C109210000232", "P29_003": "16002", "P29_004": "足利市立第二中学校", "P29_005": "栃木県足利市本城1-1472", "P29_006": "3", "P29_007": "1", "P29_008": "00", "P29_009": null }, "geometry": { "type": "Point", "coordinates": [ 139.457255902683897, 36.348285920473849 ] } },
{ "type": "Feature", "properties": { "P29_001": "09202", "P29_002": "C109210000241", "P29_003": "16002", "P29_004": "足利市立第三中学校", "P29_005": "栃木県足利市常盤町67", "P29_006": "3", "P29_007": "1", "P29_008": "00", "P29_009": null }, "geometry": { "type": "Point", "coordinates": [ 139.468408095421069, 36.327044387731405 ] } },
{ "type": "Feature", "properties": { "P29_001": "09202", "P29_002": "C109210000250", "P29_003": "16002", "P29_004": "足利市立毛野中学校", "P29_005": "栃木県足利市八椚町27", "P29_006": "3", "P29_007": "1", "P29_008": "00", "P29_009": null }, "geometry": { "type": "Point", "coordinates": [ 139.500727961382381, 36.319920227579104 ] } },
{ "type": "Feature", "properties": { "P29_001": "09202", "P29_002": "C109210000269", "P29_003": "16002", "P29_004": "足利市立山辺中学校", "P29_005": "栃木県足利市西新井町3157", "P29_006": "3", "P29_007": "1", "P29_008": "00", "P29_009": null }, "geometry": { "type": "Point", "coordinates": [ 139.432940263387763, 36.317149098999074 ] } },
{ "type": "Feature", "properties": { "P29_001": "09202", "P29_002": "C109210000278", "P29_003": "16002", "P29_004": "足利市立西中学校", "P29_005": "栃木県足利市山下町2539", "P29_006": "3", "P29_007": "1", "P29_008": "00", "P29_009": null }, "geometry": { "type": "Point", "coordinates": [ 139.415514542017178, 36.346940371081139 ] } },
{ "type": "Feature", "properties": { "P29_001": "09202", "P29_002": "C109210000287", "P29_003": "16002", "P29_004": "足利市立富田中学校", "P29_005": "栃木県足利市駒場町359", "P29_006": "3", "P29_007": "1", "P29_008": "00", "P29_009": null }, "geometry": { "type": "Point", "coordinates": [ 139.532315503602433, 36.321555433278114 ] } },
{ "type": "Feature", "properties": { "P29_001": "09202", "P29_002": "C109210000296", "P29_003": "16002", "P29_004": "足利市立協和中学校", "P29_005": "栃木県足利市百頭町160", "P29_006": "3", "P29_007": "1", "P29_008": "00", "P29_009": null }, "geometry": { "type": "Point", "coordinates": [ 139.461992938353461, 36.293814155862506 ] } },
{ "type": "Feature", "properties": { "P29_001": "09202", "P29_002": "C109210000303", "P29_003": "16002", "P29_004": "足利市立愛宕台中学校", "P29_005": "栃木県足利市高松町433", "P29_006": "3", "P29_007": "1", "P29_008": "00", "P29_009": null }, "geometry": { "type": "Point", "coordinates": [ 139.492591142644585, 36.282178206827197 ] } },
{ "type": "Feature", "properties": { "P29_001": "09202", "P29_002": "C109210000312", "P29_003": "16002", "P29_004": "足利市立坂西中学校", "P29_005": "栃木県足利市葉鹿町1498", "P29_006": "3", "P29_007": "1", "P29_008": "00", "P29_009": null }, "geometry": { "type": "Point", "coordinates": [ 139.390708595747327, 36.368479366729154 ] } },
{ "type": "Feature", "properties": { "P29_001": "09202", "P29_002": "C109210000321", "P29_003": "16002", "P29_004": "足利市立北中学校", "P29_005": "栃木県足利市菅田町100", "P29_006": "3", "P29_007": "1", "P29_008": "00", "P29_009": null }, "geometry": { "type": "Point", "coordinates": [ 139.477009573485844, 36.361403081621319 ] } },
{ "type": "Feature", "properties": { "P29_001": "09203", "P29_002": "C109210000330", "P29_003": "16002", "P29_004": "栃木市立栃木東中学校", "P29_005": "栃木県栃木市日ノ出町1-11", "P29_006": "3", "P29_007": "1", "P29_008": "00", "P29_009": null }, "geometry": { "type": "Point", "coordinates": [ 139.739400497994637, 36.383249362952462 ] } },
{ "type": "Feature", "properties": { "P29_001": "09203", "P29_002": "C109210000349", "P29_003": "16002", "P29_004": "栃木市立栃木西中学校", "P29_005": "栃木県栃木市片柳町2-15-40", "P29_006": "3", "P29_007": "1", "P29_008": "00", "P29_009": null }, "geometry": { "type": "Point", "coordinates": [ 139.719348449013239, 36.372201398022433 ] } },
{ "type": "Feature", "properties": { "P29_001": "09203", "P29_002": "C109210000358", "P29_003": "16002", "P29_004": "栃木市立栃木南中学校", "P29_005": "栃木県栃木市本町5-5", "P29_006": "3", "P29_007": "1", "P29_008": "00", "P29_009": null }, "geometry": { "type": "Point", "coordinates": [ 139.7388257223663, 36.376461384286124 ] } },
{ "type": "Feature", "properties": { "P29_001": "09203", "P29_002": "C109210000367", "P29_003": "16002", "P29_004": "栃木市立皆川中学校", "P29_005": "栃木県栃木市皆川城内町1856", "P29_006": "3", "P29_007": "1", "P29_008": "00", "P29_009": null }, "geometry": { "type": "Point", "coordinates": [ 139.680913373147291, 36.39273595405151 ] } },
{ "type": "Feature", "properties": { "P29_001": "09203", "P29_002": "C109210000376", "P29_003": "16002", "P29_004": "栃木市立吹上中学校", "P29_005": "栃木県栃木市吹上町434-1", "P29_006": "3", "P29_007": "1", "P29_008": "00", "P29_009": null }, "geometry": { "type": "Point", "coordinates": [ 139.708395418658881, 36.414028138721193 ] } },
{ "type": "Feature", "properties": { "P29_001": "09203", "P29_002": "C109210000385", "P29_003": "16002", "P29_004": "栃木市立寺尾中学校", "P29_005": "栃木県栃木市鍋山町86-2", "P29_006": "3", "P29_007": "1", "P29_008": "00", "P29_009": null }, "geometry": { "type": "Point", "coordinates": [ 139.646049283468642, 36.44638469847024 ] } },
{ "type": "Feature", "properties": { "P29_001": "09203", "P29_002": "C109210000394", "P29_003": "16002", "P29_004": "栃木市立東陽中学校", "P29_005": "栃木県栃木市大宮町1287-1", "P29_006": "3", "P29_007": "1", "P29_008": "00", "P29_009": null }, "geometry": { "type": "Point", "coordinates": [ 139.769229634861574, 36.389069875561979 ] } },
{ "type": "Feature", "properties": { "P29_001": "09204", "P29_002": "C109210000401", "P29_003": "16002", "P29_004": "佐野市立城東中学校", "P29_005": "栃木県佐野市若松町405", "P29_006": "3", "P29_007": "1", "P29_008": "00", "P29_009": null }, "geometry": { "type": "Point", "coordinates": [ 139.580274485576496, 36.31994088726583 ] } },
{ "type": "Feature", "properties": { "P29_001": "09204", "P29_002": "C109210000410", "P29_003": "16002", "P29_004": "佐野市立西中学校", "P29_005": "栃木県佐野市大橋町2026", "P29_006": "3", "P29_007": "1", "P29_008": "00", "P29_009": null }, "geometry": { "type": "Point", "coordinates": [ 139.561894808005604, 36.31469929440636 ] } },
{ "type": "Feature", "properties": { "P29_001": "09204", "P29_002": "C109210000429", "P29_003": "16002", "P29_004": "佐野市立南中学校", "P29_005": "栃木県佐野市植下町1205", "P29_006": "3", "P29_007": "1", "P29_008": "00", "P29_009": null }, "geometry": { "type": "Point", "coordinates": [ 139.582592200608616, 36.299849919414598 ] } },
{ "type": "Feature", "properties": { "P29_001": "09204", "P29_002": "C109210000438", "P29_003": "16002", "P29_004": "佐野市立北中学校", "P29_005": "栃木県佐野市富岡町93", "P29_006": "3", "P29_007": "1", "P29_008": "00", "P29_009": null }, "geometry": { "type": "Point", "coordinates": [ 139.590089327482133, 36.321537585671265 ] } },
{ "type": "Feature", "properties": { "P29_001": "09204", "P29_002": "C109210000447", "P29_003": "16002", "P29_004": "佐野市立赤見中学校", "P29_005": "栃木県佐野市出流原町628-1", "P29_006": "3", "P29_007": "1", "P29_008": "00", "P29_009": null }, "geometry": { "type": "Point", "coordinates": [ 139.549663327258145, 36.360899644741373 ] } },
{ "type": "Feature", "properties": { "P29_001": "09205", "P29_002": "C109210000456", "P29_003": "16002", "P29_004": "鹿沼市立東中学校", "P29_005": "栃木県鹿沼市府中町393", "P29_006": "3", "P29_007": "1", "P29_008": "00", "P29_009": null }, "geometry": { "type": "Point", "coordinates": [ 139.758677996408693, 36.562880002463885 ] } },
{ "type": "Feature", "properties": { "P29_001": "09205", "P29_002": "C109210000465", "P29_003": "16002", "P29_004": "鹿沼市立西中学校", "P29_005": "栃木県鹿沼市日吉町527", "P29_006": "3", "P29_007": "1", "P29_008": "00", "P29_009": null }, "geometry": { "type": "Point", "coordinates": [ 139.730447434988605, 36.563009460901391 ] } },
{ "type": "Feature", "properties": { "P29_001": "09205", "P29_002": "C109210000474", "P29_003": "16002", "P29_004": "鹿沼市立北中学校", "P29_005": "栃木県鹿沼市武子708", "P29_006": "3", "P29_007": "1", "P29_008": "00", "P29_009": null }, "geometry": { "type": "Point", "coordinates": [ 139.755062720349542, 36.581851506525588 ] } },
{ "type": "Feature", "properties": { "P29_001": "09205", "P29_002": "C109210000483", "P29_003": "16002", "P29_004": "鹿沼市立北犬飼中学校", "P29_005": "栃木県鹿沼市上石川1573", "P29_006": "3", "P29_007": "1", "P29_008": "00", "P29_009": null }, "geometry": { "type": "Point", "coordinates": [ 139.79892216439859, 36.526162839831279 ] } },
{ "type": "Feature", "properties": { "P29_001": "09205", "P29_002": "C109210000492", "P29_003": "16002", "P29_004": "鹿沼市立北押原中学校", "P29_005": "栃木県鹿沼市樅山町297", "P29_006": "3", "P29_007": "1", "P29_008": "00", "P29_009": null }, "geometry": { "type": "Point", "coordinates": [ 139.750090190346867, 36.539826529971066 ] } },
{ "type": "Feature", "properties": { "P29_001": "09205", "P29_002": "C109210000508", "P29_003": "16002", "P29_004": "鹿沼市立加蘇中学校", "P29_005": "栃木県鹿沼市加園1841", "P29_006": "3", "P29_007": "1", "P29_008": "00", "P29_009": null }, "geometry": { "type": "Point", "coordinates": [ 139.678184605629014, 36.573197239473863 ] } },
{ "type": "Feature", "properties": { "P29_001": "09205", "P29_002": "C109210000517", "P29_003": "16002", "P29_004": "鹿沼市立板荷中学校", "P29_005": "栃木県鹿沼市板荷2675", "P29_006": "3", "P29_007": "1", "P29_008": "00", "P29_009": null }, "geometry": { "type": "Point", "coordinates": [ 139.707013607734609, 36.640722820393066 ] } },
{ "type": "Feature", "properties": { "P29_001": "09205", "P29_002": "C109210000526", "P29_003": "16002", "P29_004": "鹿沼市立南摩中学校", "P29_005": "栃木県鹿沼市西沢町1414", "P29_006": "3", "P29_007": "1", "P29_008": "00", "P29_009": null }, "geometry": { "type": "Point", "coordinates": [ 139.702525262700846, 36.521472811139439 ] } },
{ "type": "Feature", "properties": { "P29_001": "09205", "P29_002": "C109210000535", "P29_003": "16002", "P29_004": "鹿沼市立南押原中学校", "P29_005": "栃木県鹿沼市磯町1085", "P29_006": "3", "P29_007": "1", "P29_008": "00", "P29_009": null }, "geometry": { "type": "Point", "coordinates": [ 139.754280166056731, 36.493723367296347 ] } },
{ "type": "Feature", "properties": { "P29_001": "09206", "P29_002": "C109210000544", "P29_003": "16002", "P29_004": "日光市立日光中学校", "P29_005": "栃木県日光市久次良町2096-1", "P29_006": "3", "P29_007": "1", "P29_008": "00", "P29_009": null }, "geometry": { "type": "Point", "coordinates": [ 139.582687181220592, 36.756131626842468 ] } },
{ "type": "Feature", "properties": { "P29_001": "09206", "P29_002": "C109210000553", "P29_003": "16002", "P29_004": "日光市立中宮祠中学校", "P29_005": "栃木県日光市中宮祠2478", "P29_006": "3", "P29_007": "1", "P29_008": "00", "P29_009": null }, "geometry": { "type": "Point", "coordinates": [ 139.499866892723929, 36.741958280722343 ] } },
{ "type": "Feature", "properties": { "P29_001": "09206", "P29_002": "C109210000562", "P29_003": "16002", "P29_004": "日光市立東中学校", "P29_005": "栃木県日光市七里1020", "P29_006": "3", "P29_007": "1", "P29_008": "00", "P29_009": null }, "geometry": { "type": "Point", "coordinates": [ 139.624361404641235, 36.742355408373939 ] } },
{ "type": "Feature", "properties": { "P29_001": "09206", "P29_002": "C109210000571", "P29_003": "16002", "P29_004": "日光市立小来川中学校", "P29_005": "栃木県日光市中小来川2817", "P29_006": "3", "P29_007": "1", "P29_008": "00", "P29_009": null }, "geometry": { "type": "Point", "coordinates": [ 139.618156426968824, 36.665865796338224 ] } },
{ "type": "Feature", "properties": { "P29_001": "09206", "P29_002": "C109210000580", "P29_003": "16002", "P29_004": "日光市立今市中学校", "P29_005": "栃木県日光市今市1659", "P29_006": "3", "P29_007": "1", "P29_008": "00", "P29_009": null }, "geometry": { "type": "Point", "coordinates": [ 139.713749649082388, 36.728093705216672 ] } },
{ "type": "Feature", "properties": { "P29_001": "09206", "P29_002": "C109210000599", "P29_003": "16002", "P29_004": "日光市立落合中学校", "P29_005": "栃木県日光市小代310", "P29_006": "3", "P29_007": "1", "P29_008": "00", "P29_009": null }, "geometry": { "type": "Point", "coordinates": [ 139.716235561937822, 36.651476420052148 ] } },
{ "type": "Feature", "properties": { "P29_001": "09206", "P29_002": "C109210000606", "P29_003": "16002", "P29_004": "日光市立豊岡中学校", "P29_005": "栃木県日光市芹沼1958", "P29_006": "3", "P29_007": "1", "P29_008": "00", "P29_009": null }, "geometry": { "type": "Point", "coordinates": [ 139.715451723982454, 36.750103260047965 ] } },
{ "type": "Feature", "properties": { "P29_001": "09206", "P29_002": "C109210000615", "P29_003": "16002", "P29_004": "日光市立大沢中学校", "P29_005": "栃木県日光市大沢町97", "P29_006": "3", "P29_007": "1", "P29_008": "00", "P29_009": null }, "geometry": { "type": "Point", "coordinates": [ 139.7550169444186, 36.695326062856637 ] } },
{ "type": "Feature", "properties": { "P29_001": "09206", "P29_002": "C109210000624", "P29_003": "16002", "P29_004": "日光市立小林中学校", "P29_005": "栃木県日光市小林2384", "P29_006": "3", "P29_007": "1", "P29_008": "00", "P29_009": null }, "geometry": { "type": "Point", "coordinates": [ 139.813976773462485, 36.727276366003991 ] } },
{ "type": "Feature", "properties": { "P29_001": "09206", "P29_002": "C109210000633", "P29_003": "16002", "P29_004": "日光市立東原中学校", "P29_005": "栃木県日光市平ヶ崎775-1", "P29_006": "3", "P29_007": "1", "P29_008": "00", "P29_009": null }, "geometry": { "type": "Point", "coordinates": [ 139.692396187717208, 36.717061026302233 ] } },
{ "type": "Feature", "properties": { "P29_001": "09208", "P29_002": "C109210000642", "P29_003": "16002", "P29_004": "小山市立小山中学校", "P29_005": "栃木県小山市渋井779-1", "P29_006": "3", "P29_007": "1", "P29_008": "00", "P29_009": null }, "geometry": { "type": "Point", "coordinates": [ 139.802200915453227, 36.33262620636166 ] } },
{ "type": "Feature", "properties": { "P29_001": "09208", "P29_002": "C109210000651", "P29_003": "16002", "P29_004": "小山市立小山第二中学校", "P29_005": "栃木県小山市天神町1-6-36", "P29_006": "3", "P29_007": "1", "P29_008": "00", "P29_009": null }, "geometry": { "type": "Point", "coordinates": [ 139.798052200817381, 36.306316935898003 ] } },
{ "type": "Feature", "properties": { "P29_001": "09208", "P29_002": "C109210000660", "P29_003": "16002", "P29_004": "小山市立大谷中学校", "P29_005": "栃木県小山市横倉新田97", "P29_006": "3", "P29_007": "1", "P29_008": "00", "P29_009": null }, "geometry": { "type": "Point", "coordinates": [ 139.822013603105745, 36.275395322628576 ] } },
{ "type": "Feature", "properties": { "P29_001": "09208", "P29_002": "C109210000679", "P29_003": "16002", "P29_004": "小山市立間々田中学校", "P29_005": "栃木県小山市間々田2364", "P29_006": "3", "P29_007": "1", "P29_008": "00", "P29_009": null }, "geometry": { "type": "Point", "coordinates": [ 139.766281100556313, 36.276390009979991 ] } },
{ "type": "Feature", "properties": { "P29_001": "09208", "P29_002": "C109210000688", "P29_003": "16002", "P29_004": "小山市立豊田中学校", "P29_005": "栃木県小山市松沼397", "P29_006": "3", "P29_007": "1", "P29_008": "00", "P29_009": null }, "geometry": { "type": "Point", "coordinates": [ 139.781889683007705, 36.346607615830429 ] } },
{ "type": "Feature", "properties": { "P29_001": "09208", "P29_002": "C109210000697", "P29_003": "16002", "P29_004": "小山市立美田中学校", "P29_005": "栃木県小山市下国府塚287", "P29_006": "3", "P29_007": "1", "P29_008": "00", "P29_009": null }, "geometry": { "type": "Point", "coordinates": [ 139.761057428196864, 36.317380164133084 ] } },
{ "type": "Feature", "properties": { "P29_001": "09208", "P29_002": "C109210000704", "P29_003": "16002", "P29_004": "小山市立桑中学校", "P29_005": "栃木県小山市大字出井1859", "P29_006": "3", "P29_007": "1", "P29_008": "00", "P29_009": null }, "geometry": { "type": "Point", "coordinates": [ 139.830635901676345, 36.344907250710925 ] } },
{ "type": "Feature", "properties": { "P29_001": "09208", "P29_002": "C109210000713", "P29_003": "16002", "P29_004": "小山市立小山第三中学校", "P29_005": "栃木県小山市犬塚3-29-1", "P29_006": "3", "P29_007": "1", "P29_008": "00", "P29_009": null }, "geometry": { "type": "Point", "coordinates": [ 139.832221534656043, 36.315177203066455 ] } },
{ "type": "Feature", "properties": { "P29_001": "09208", "P29_002": "C109210000722", "P29_003": "16002", "P29_004": "小山市立小山城南中学校", "P29_005": "栃木県小山市東城南1-22-9", "P29_006": "3", "P29_007": "1", "P29_008": "00", "P29_009": null }, "geometry": { "type": "Point", "coordinates": [ 139.810861185632149, 36.295333211482728 ] } },
{ "type": "Feature", "properties": { "P29_001": "09208", "P29_002": "C109210000731", "P29_003": "16002", "P29_004": "小山市立乙女中学校", "P29_005": "栃木県小山市乙女1731", "P29_006": "3", "P29_007": "1", "P29_008": "00", "P29_009": null }, "geometry": { "type": "Point", "coordinates": [ 139.754784407124362, 36.263133608015224 ] } },
{ "type": "Feature", "properties": { "P29_001": "09209", "P29_002": "C109210000740", "P29_003": "16002", "P29_004": "真岡市立真岡中学校", "P29_005": "栃木県真岡市並木町3-120", "P29_006": "3", "P29_007": "1", "P29_008": "00", "P29_009": null }, "geometry": { "type": "Point", "coordinates": [ 139.995799113695711, 36.443743077441894 ] } },
{ "type": "Feature", "properties": { "P29_001": "09209", "P29_002": "C109210000759", "P29_003": "16002", "P29_004": "真岡市立大内中学校", "P29_005": "栃木県真岡市飯貝1159", "P29_006": "3", "P29_007": "1", "P29_008": "00", "P29_009": null }, "geometry": { "type": "Point", "coordinates": [ 140.021403390431317, 36.480087686994153 ] } },
{ "type": "Feature", "properties": { "P29_001": "09209", "P29_002": "C109210000768", "P29_003": "16002", "P29_004": "真岡市立山前中学校", "P29_005": "栃木県真岡市小林784", "P29_006": "3", "P29_007": "1", "P29_008": "00", "P29_009": null }, "geometry": { "type": "Point", "coordinates": [ 140.044678056181624, 36.430220003250817 ] } },
{ "type": "Feature", "properties": { "P29_001": "09209", "P29_002": "C109210000777", "P29_003": "16002", "P29_004": "真岡市立中村中学校", "P29_005": "栃木県真岡市中203", "P29_006": "3", "P29_007": "1", "P29_008": "00", "P29_009": null }, "geometry": { "type": "Point", "coordinates": [ 139.956164665631206, 36.425043796502997 ] } },
{ "type": "Feature", "properties": { "P29_001": "09209", "P29_002": "C109210000786", "P29_003": "16002", "P29_004": "真岡市立真岡東中学校", "P29_005": "栃木県真岡市田町1256-18", "P29_006": "3", "P29_007": "1", "P29_008": "00", "P29_009": null }, "geometry": { "type": "Point", "coordinates": [ 140.022489716115302, 36.438384525746102 ] } },
{ "type": "Feature", "properties": { "P29_001": "09209", "P29_002": "C109210000795", "P29_003": "16002", "P29_004": "真岡市立真岡西中学校", "P29_005": "栃木県真岡市西高間木531", "P29_006": "3", "P29_007": "1", "P29_008": "00", "P29_009": null }, "geometry": { "type": "Point", "coordinates": [ 139.981331742822249, 36.446716155004893 ] } },
{ "type": "Feature", "properties": { "P29_001": "09210", "P29_002": "C109210000802", "P29_003": "16002", "P29_004": "大田原市立大田原中学校", "P29_005": "栃木県大田原市美原1-14-2", "P29_006": "3", "P29_007": "1", "P29_008": "00", "P29_009": null }, "geometry": { "type": "Point", "coordinates": [ 140.00656941404651, 36.858721049748532 ] } },
{ "type": "Feature", "properties": { "P29_001": "09210", "P29_002": "C109210000811", "P29_003": "16002", "P29_004": "大田原市立親園中学校", "P29_005": "栃木県大田原市花園1-87", "P29_006": "3", "P29_007": "1", "P29_008": "00", "P29_009": null }, "geometry": { "type": "Point", "coordinates": [ 140.026144265446135, 36.83232371829618 ] } },
{ "type": "Feature", "properties": { "P29_001": "09210", "P29_002": "C109210000820", "P29_003": "16002", "P29_004": "大田原市立金田北中学校", "P29_005": "栃木県大田原市市野沢2067", "P29_006": "3", "P29_007": "1", "P29_008": "00", "P29_009": null }, "geometry": { "type": "Point", "coordinates": [ 140.048630228612382, 36.895213228485517 ] } },
{ "type": "Feature", "properties": { "P29_001": "09210", "P29_002": "C109210000839", "P29_003": "16002", "P29_004": "大田原市立金田南中学校", "P29_005": "栃木県大田原市南金丸1870-4", "P29_006": "3", "P29_007": "1", "P29_008": "00", "P29_009": null }, "geometry": { "type": "Point", "coordinates": [ 140.085262556659018, 36.859178053414638 ] } },
{ "type": "Feature", "properties": { "P29_001": "09210", "P29_002": "C109210000848", "P29_003": "16002", "P29_004": "大田原市立野崎中学校", "P29_005": "栃木県大田原市薄葉2250", "P29_006": "3", "P29_007": "1", "P29_008": "00", "P29_009": null }, "geometry": { "type": "Point", "coordinates": [ 139.95870329062214, 36.84145516798516 ] } },
{ "type": "Feature", "properties": { "P29_001": "09210", "P29_002": "C109210000857", "P29_003": "16002", "P29_004": "大田原市立若草中学校", "P29_005": "栃木県大田原市若草2-1234", "P29_006": "3", "P29_007": "1", "P29_008": "00", "P29_009": null }, "geometry": { "type": "Point", "coordinates": [ 140.040702095636135, 36.857327262240524 ] } },
{ "type": "Feature", "properties": { "P29_001": "09210", "P29_002": "C109210000866", "P29_003": "16002", "P29_004": "大田原市立金田南中学校北金丸分校", "P29_005": "栃木県大田原市北金丸2600-11", "P29_006": "3", "P29_007": "1", "P29_008": "00", "P29_009": null }, "geometry": { "type": "Point", "coordinates": [ 140.070567915782391, 36.872571526427279 ] } },
{ "type": "Feature", "properties": { "P29_001": "09211", "P29_002": "C109210000875", "P29_003": "16002", "P29_004": "矢板市立矢板中学校", "P29_005": "栃木県矢板市上町20-7", "P29_006": "3", "P29_007": "1", "P29_008": "00", "P29_009": null }, "geometry": { "type": "Point", "coordinates": [ 139.923737573221871, 36.815214336238157 ] } },
{ "type": "Feature", "properties": { "P29_001": "09211", "P29_002": "C109210000893", "P29_003": "16002", "P29_004": "矢板市立片岡中学校", "P29_005": "栃木県矢板市片岡2139", "P29_006": "3", "P29_007": "1", "P29_008": "00", "P29_009": null }, "geometry": { "type": "Point", "coordinates": [ 139.948696477443718, 36.759034957888574 ] } },
{ "type": "Feature", "properties": { "P29_001": "09211", "P29_002": "C109210000900", "P29_003": "16002", "P29_004": "矢板市立矢板中学校沢分校", "P29_005": "栃木県矢板市沢800", "P29_006": "3", "P29_007": "1", "P29_008": "00", "P29_009": null }, "geometry": { "type": "Point", "coordinates": [ 139.957230731035224, 36.822079359427647 ] } },
{ "type": "Feature", "properties": { "P29_001": "09301", "P29_002": "C109210000919", "P29_003": "16002", "P29_004": "上三川町立本郷中学校", "P29_005": "栃木県河内郡上三川町東汗520", "P29_006": "3", "P29_007": "1", "P29_008": "00", "P29_009": null }, "geometry": { "type": "Point", "coordinates": [ 139.936056986897, 36.468298134530627 ] } },
{ "type": "Feature", "properties": { "P29_001": "09301", "P29_002": "C109210000928", "P29_003": "16002", "P29_004": "上三川町立上三川中学校", "P29_005": "栃木県河内郡上三川町上三川4279", "P29_006": "3", "P29_007": "1", "P29_008": "00", "P29_009": null }, "geometry": { "type": "Point", "coordinates": [ 139.9090907013898, 36.427791183441094 ] } },
{ "type": "Feature", "properties": { "P29_001": "09301", "P29_002": "C109210000937", "P29_003": "16002", "P29_004": "上三川町立明治中学校", "P29_005": "栃木県河内郡上三川町大山25", "P29_006": "3", "P29_007": "1", "P29_008": "00", "P29_009": null }, "geometry": { "type": "Point", "coordinates": [ 139.888563769334951, 36.442215824753546 ] } },
{ "type": "Feature", "properties": { "P29_001": "09216", "P29_002": "C109210000955", "P29_003": "16002", "P29_004": "下野市立南河内第二中学校", "P29_005": "栃木県下野市祇園4-16-3", "P29_006": "3", "P29_007": "1", "P29_008": "00", "P29_009": null }, "geometry": { "type": "Point", "coordinates": [ 139.860289227077288, 36.390107764975781 ] } },
{ "type": "Feature", "properties": { "P29_001": "09201", "P29_002": "C109210000964", "P29_003": "16002", "P29_004": "宇都宮市立上河内中学校", "P29_005": "栃木県宇都宮市中里町162", "P29_006": "3", "P29_007": "1", "P29_008": "00", "P29_009": null }, "geometry": { "type": "Point", "coordinates": [ 139.902441416532724, 36.684318476029283 ] } },
{ "type": "Feature", "properties": { "P29_001": "09201", "P29_002": "C109210000973", "P29_003": "16002", "P29_004": "宇都宮市立古里中学校", "P29_005": "栃木県宇都宮市中岡本町3130", "P29_006": "3", "P29_007": "1", "P29_008": "00", "P29_009": null }, "geometry": { "type": "Point", "coordinates": [ 139.945057996122529, 36.617588004696763 ] } },
{ "type": "Feature", "properties": { "P29_001": "09201", "P29_002": "C109210000982", "P29_003": "16002", "P29_004": "宇都宮市立田原中学校", "P29_005": "栃木県宇都宮市下田原1722", "P29_006": "3", "P29_007": "1", "P29_008": "00", "P29_009": null }, "geometry": { "type": "Point", "coordinates": [ 139.904702999050414, 36.638013997132269 ] } },
{ "type": "Feature", "properties": { "P29_001": "09201", "P29_002": "C109210000991", "P29_003": "16002", "P29_004": "宇都宮市立河内中学校", "P29_005": "栃木県宇都宮市中岡本町3743", "P29_006": "3", "P29_007": "1", "P29_008": "00", "P29_009": null }, "geometry": { "type": "Point", "coordinates": [ 139.931105255215385, 36.608838253111635 ] } },
{ "type": "Feature", "properties": { "P29_001": "09203", "P29_002": "C109210001008", "P29_003": "16002", "P29_004": "栃木市立西方中学校", "P29_005": "栃木県栃木市西方町元908-1", "P29_006": "3", "P29_007": "1", "P29_008": "00", "P29_009": null }, "geometry": { "type": "Point", "coordinates": [ 139.733442516086455, 36.461081319301812 ] } },
{ "type": "Feature", "properties": { "P29_001": "09205", "P29_002": "C109210001017", "P29_003": "16002", "P29_004": "鹿沼市立粟野中学校", "P29_005": "栃木県鹿沼市口粟野1160", "P29_006": "3", "P29_007": "1", "P29_008": "00", "P29_009": null }, "geometry": { "type": "Point", "coordinates": [ 139.660347269259205, 36.50917062318738 ] } },
{ "type": "Feature", "properties": { "P29_001": "09206", "P29_002": "C109210001026", "P29_003": "16002", "P29_004": "日光市立足尾中学校", "P29_005": "栃木県日光市足尾町向原7-1", "P29_006": "3", "P29_007": "1", "P29_008": "00", "P29_009": null }, "geometry": { "type": "Point", "coordinates": [ 139.442965478029578, 36.636302299573401 ] } },
{ "type": "Feature", "properties": { "P29_001": "09209", "P29_002": "C109210001035", "P29_003": "16002", "P29_004": "真岡市立長沼中学校", "P29_005": "栃木県真岡市長沼706", "P29_006": "3", "P29_007": "1", "P29_008": "00", "P29_009": null }, "geometry": { "type": "Point", "coordinates": [ 139.930365888340646, 36.36047854876702 ] } },
{ "type": "Feature", "properties": { "P29_001": "09209", "P29_002": "C109210001044", "P29_003": "16002", "P29_004": "真岡市立久下田中学校", "P29_005": "栃木県真岡市久下田1304", "P29_006": "3", "P29_007": "1", "P29_008": "00", "P29_009": null }, "geometry": { "type": "Point", "coordinates": [ 139.961674186979707, 36.380323421561691 ] } },
{ "type": "Feature", "properties": { "P29_001": "09209", "P29_002": "C109210001053", "P29_003": "16002", "P29_004": "真岡市立物部中学校", "P29_005": "栃木県真岡市高田1838", "P29_006": "3", "P29_007": "1", "P29_008": "00", "P29_009": null }, "geometry": { "type": "Point", "coordinates": [ 140.016876471306375, 36.395378444680311 ] } },
{ "type": "Feature", "properties": { "P29_001": "09342", "P29_002": "C109210001062", "P29_003": "16002", "P29_004": "益子町立田野中学校", "P29_005": "栃木県芳賀郡益子町長堤402", "P29_006": "3", "P29_007": "1", "P29_008": "00", "P29_009": null }, "geometry": { "type": "Point", "coordinates": [ 140.086297333148224, 36.430567473858076 ] } },
{ "type": "Feature", "properties": { "P29_001": "09342", "P29_002": "C109210001071", "P29_003": "16002", "P29_004": "益子町立益子中学校", "P29_005": "栃木県芳賀郡益子町益子3618", "P29_006": "3", "P29_007": "1", "P29_008": "00", "P29_009": null }, "geometry": { "type": "Point", "coordinates": [ 140.100359275909653, 36.46993744399947 ] } },
{ "type": "Feature", "properties": { "P29_001": "09342", "P29_002": "C109210001080", "P29_003": "16002", "P29_004": "益子町立七井中学校", "P29_005": "栃木県芳賀郡益子町七井371", "P29_006": "3", "P29_007": "1", "P29_008": "00", "P29_009": null }, "geometry": { "type": "Point", "coordinates": [ 140.108165416843633, 36.497980395000518 ] } },
{ "type": "Feature", "properties": { "P29_001": "09343", "P29_002": "C109210001099", "P29_003": "16002", "P29_004": "茂木町立茂木中学校", "P29_005": "栃木県芳賀郡茂木町茂木72", "P29_006": "3", "P29_007": "1", "P29_008": "00", "P29_009": null }, "geometry": { "type": "Point", "coordinates": [ 140.194378273735168, 36.533769478338193 ] } },
{ "type": "Feature", "properties": { "P29_001": "09344", "P29_002": "C109210001106", "P29_003": "16002", "P29_004": "市貝町立市貝中学校", "P29_005": "栃木県芳賀郡市貝町市塙4072", "P29_006": "3", "P29_007": "1", "P29_008": "00", "P29_009": null }, "geometry": { "type": "Point", "coordinates": [ 140.106661756843721, 36.54539816863231 ] } },
{ "type": "Feature", "properties": { "P29_001": "09345", "P29_002": "C109210001115", "P29_003": "16002", "P29_004": "芳賀町立芳賀中学校", "P29_005": "栃木県芳賀郡芳賀町与能855-1", "P29_006": "3", "P29_007": "1", "P29_008": "00", "P29_009": null }, "geometry": { "type": "Point", "coordinates": [ 140.037181130725259, 36.539637925805387 ] } },
{ "type": "Feature", "properties": { "P29_001": "09361", "P29_002": "C109210001124", "P29_003": "16002", "P29_004": "壬生町立南犬飼中学校", "P29_005": "栃木県下都賀郡壬生町北小林743", "P29_006": "3", "P29_007": "1", "P29_008": "00", "P29_009": null }, "geometry": { "type": "Point", "coordinates": [ 139.824859525008605, 36.47946521740792 ] } },
{ "type": "Feature", "properties": { "P29_001": "09361", "P29_002": "C109210001133", "P29_003": "16002", "P29_004": "壬生町立壬生中学校", "P29_005": "栃木県下都賀郡壬生町壬生甲2770", "P29_006": "3", "P29_007": "1", "P29_008": "00", "P29_009": null }, "geometry": { "type": "Point", "coordinates": [ 139.795832930138118, 36.438743165339204 ] } },
{ "type": "Feature", "properties": { "P29_001": "09216", "P29_002": "C109210001142", "P29_003": "16002", "P29_004": "下野市立石橋中学校", "P29_005": "栃木県下野市石橋1130", "P29_006": "3", "P29_007": "1", "P29_008": "00", "P29_009": null }, "geometry": { "type": "Point", "coordinates": [ 139.846203629200375, 36.438497957917861 ] } },
{ "type": "Feature", "properties": { "P29_001": "09216", "P29_002": "C109210001151", "P29_003": "16002", "P29_004": "下野市立国分寺中学校", "P29_005": "栃木県下野市小金井4-1-8", "P29_006": "3", "P29_007": "1", "P29_008": "00", "P29_009": null }, "geometry": { "type": "Point", "coordinates": [ 139.839107759440907, 36.38016932758493 ] } },
{ "type": "Feature", "properties": { "P29_001": "09364", "P29_002": "C109210001160", "P29_003": "16002", "P29_004": "野木町立野木中学校", "P29_005": "栃木県下都賀郡野木町潤島800-1", "P29_006": "3", "P29_007": "1", "P29_008": "00", "P29_009": null }, "geometry": { "type": "Point", "coordinates": [ 139.752478901937536, 36.234703076656615 ] } },
{ "type": "Feature", "properties": { "P29_001": "09364", "P29_002": "C109210001179", "P29_003": "16002", "P29_004": "野木町立野木第二中学校", "P29_005": "栃木県下都賀郡野木町野木4048", "P29_006": "3", "P29_007": "1", "P29_008": "00", "P29_009": null }, "geometry": { "type": "Point", "coordinates": [ 139.718917722795851, 36.226644529962883 ] } },
{ "type": "Feature", "properties": { "P29_001": "09203", "P29_002": "C109210001188", "P29_003": "16002", "P29_004": "栃木市立大平中学校", "P29_005": "栃木県栃木市大平町蔵井2026-1", "P29_006": "3", "P29_007": "1", "P29_008": "00", "P29_009": null }, "geometry": { "type": "Point", "coordinates": [ 139.715025897467228, 36.344976752201447 ] } },
{ "type": "Feature", "properties": { "P29_001": "09203", "P29_002": "C109210001197", "P29_003": "16002", "P29_004": "栃木市立大平南中学校", "P29_005": "栃木県栃木市大平町西野田825", "P29_006": "3", "P29_007": "1", "P29_008": "00", "P29_009": null }, "geometry": { "type": "Point", "coordinates": [ 139.71775050235189, 36.328333459838042 ] } },
{ "type": "Feature", "properties": { "P29_001": "09203", "P29_002": "C109210001222", "P29_003": "16002", "P29_004": "栃木市立岩舟中学校", "P29_005": "栃木県栃木市岩舟町静389-1", "P29_006": "3", "P29_007": "1", "P29_008": "00", "P29_009": null }, "geometry": { "type": "Point", "coordinates": [ 139.664049773810746, 36.322898966291568 ] } },
{ "type": "Feature", "properties": { "P29_001": "09203", "P29_002": "C109210001231", "P29_003": "16002", "P29_004": "栃木市立都賀中学校", "P29_005": "栃木県栃木市都賀町家中5818", "P29_006": "3", "P29_007": "1", "P29_008": "00", "P29_009": null }, "geometry": { "type": "Point", "coordinates": [ 139.74267066368887, 36.431637816809143 ] } },
{ "type": "Feature", "properties": { "P29_001": "09206", "P29_002": "C109210001259", "P29_003": "16002", "P29_004": "日光市立湯西川中学校", "P29_005": "栃木県日光市湯西川643", "P29_006": "3", "P29_007": "1", "P29_008": "00", "P29_009": null }, "geometry": { "type": "Point", "coordinates": [ 139.595297658876348, 36.965842912759328 ] } },
{ "type": "Feature", "properties": { "P29_001": "09206", "P29_002": "C109210001277", "P29_003": "16002", "P29_004": "日光市立藤原中学校", "P29_005": "栃木県日光市鬼怒川温泉大原790", "P29_006": "3", "P29_007": "1", "P29_008": "00", "P29_009": null }, "geometry": { "type": "Point", "coordinates": [ 139.715244869930444, 36.818060434318753 ] } },
{ "type": "Feature", "properties": { "P29_001": "09206", "P29_002": "C109210001286", "P29_003": "16002", "P29_004": "日光市立三依中学校", "P29_005": "栃木県日光市中三依835-1", "P29_006": "3", "P29_007": "1", "P29_008": "00", "P29_009": null }, "geometry": { "type": "Point", "coordinates": [ 139.698478857919923, 36.99106651277328 ] } },
{ "type": "Feature", "properties": { "P29_001": "09384", "P29_002": "C109210001295", "P29_003": "16002", "P29_004": "塩谷町立塩谷中学校", "P29_005": "栃木県塩谷郡塩谷町飯岡1248", "P29_006": "3", "P29_007": "1", "P29_008": "00", "P29_009": null }, "geometry": { "type": "Point", "coordinates": [ 139.839785004557115, 36.762180000677802 ] } },
{ "type": "Feature", "properties": { "P29_001": "09214", "P29_002": "C109210001302", "P29_003": "16002", "P29_004": "さくら市立氏家中学校", "P29_005": "栃木県さくら市氏家3243", "P29_006": "3", "P29_007": "1", "P29_008": "00", "P29_009": null }, "geometry": { "type": "Point", "coordinates": [ 139.969636665044987, 36.701066604196484 ] } },
{ "type": "Feature", "properties": { "P29_001": "09386", "P29_002": "C109210001311", "P29_003": "16002", "P29_004": "高根沢町立阿久津中学校", "P29_005": "栃木県塩谷郡高根沢町中阿久津1470", "P29_006": "3", "P29_007": "1", "P29_008": "00", "P29_009": null }, "geometry": { "type": "Point", "coordinates": [ 139.976278938104088, 36.638505932306465 ] } },
{ "type": "Feature", "properties": { "P29_001": "09386", "P29_002": "C109210001320", "P29_003": "16002", "P29_004": "高根沢町立北高根沢中学校", "P29_005": "栃木県塩谷郡高根沢町太田753", "P29_006": "3", "P29_007": "1", "P29_008": "00", "P29_009": null }, "geometry": { "type": "Point", "coordinates": [ 140.032790490829683, 36.625150174382185 ] } },
{ "type": "Feature", "properties": { "P29_001": "09214", "P29_002": "C109210001339", "P29_003": "16002", "P29_004": "さくら市立喜連川中学校", "P29_005": "栃木県さくら市喜連川5691", "P29_006": "3", "P29_007": "1", "P29_008": "00", "P29_009": null }, "geometry": { "type": "Point", "coordinates": [ 140.033267463684098, 36.731929626237815 ] } },
{ "type": "Feature", "properties": { "P29_001": "09215", "P29_002": "C109210001348", "P29_003": "16002", "P29_004": "那須烏山市立烏山中学校", "P29_005": "栃木県那須烏山市南1-2810", "P29_006": "3", "P29_007": "1", "P29_008": "00", "P29_009": null }, "geometry": { "type": "Point", "coordinates": [ 140.145690131538373, 36.648294009450197 ] } },
{ "type": "Feature", "properties": { "P29_001": "09411", "P29_002": "C109210001357", "P29_003": "16002", "P29_004": "那珂川町立馬頭中学校", "P29_005": "栃木県那須郡那珂川町馬頭2558-10", "P29_006": "3", "P29_007": "1", "P29_008": "00", "P29_009": null }, "geometry": { "type": "Point", "coordinates": [ 140.163812006188039, 36.740826060064705 ] } },
{ "type": "Feature", "properties": { "P29_001": "09411", "P29_002": "C109210001366", "P29_003": "16002", "P29_004": "那珂川町立小川中学校", "P29_005": "栃木県那須郡那珂川町小川3033", "P29_006": "3", "P29_007": "1", "P29_008": "00", "P29_009": null }, "geometry": { "type": "Point", "coordinates": [ 140.122853457529828, 36.763122603942854 ] } },
{ "type": "Feature", "properties": { "P29_001": "09210", "P29_002": "C109210001375", "P29_003": "16002", "P29_004": "大田原市立湯津上中学校", "P29_005": "栃木県大田原市湯津上5-573", "P29_006": "3", "P29_007": "1", "P29_008": "00", "P29_009": null }, "geometry": { "type": "Point", "coordinates": [ 140.107757542729189, 36.809730172553074 ] } },
{ "type": "Feature", "properties": { "P29_001": "09210", "P29_002": "C109210001384", "P29_003": "16002", "P29_004": "大田原市立黒羽中学校", "P29_005": "栃木県大田原市北野上3597-1", "P29_006": "3", "P29_007": "1", "P29_008": "00", "P29_009": null }, "geometry": { "type": "Point", "coordinates": [ 140.13635093740217, 36.888182031867402 ] } },
{ "type": "Feature", "properties": { "P29_001": "09213", "P29_002": "C109210001393", "P29_003": "16002", "P29_004": "那須塩原市立黒磯中学校", "P29_005": "栃木県那須塩原市豊町5-3", "P29_006": "3", "P29_007": "1", "P29_008": "00", "P29_009": null }, "geometry": { "type": "Point", "coordinates": [ 140.050135985724467, 36.968690140207862 ] } },
{ "type": "Feature", "properties": { "P29_001": "09213", "P29_002": "C109210001400", "P29_003": "16002", "P29_004": "那須塩原市立東那須野中学校", "P29_005": "栃木県那須塩原市島方689", "P29_006": "3", "P29_007": "1", "P29_008": "00", "P29_009": null }, "geometry": { "type": "Point", "coordinates": [ 140.005818981120939, 36.938617454495493 ] } },
{ "type": "Feature", "properties": { "P29_001": "09213", "P29_002": "C109210001419", "P29_003": "16002", "P29_004": "那須塩原市立高林中学校", "P29_005": "栃木県那須塩原市箭坪353", "P29_006": "3", "P29_007": "1", "P29_008": "00", "P29_009": null }, "geometry": { "type": "Point", "coordinates": [ 139.942634662312003, 37.005520295885404 ] } },
{ "type": "Feature", "properties": { "P29_001": "09213", "P29_002": "C109210001428", "P29_003": "16002", "P29_004": "那須塩原市立日新中学校", "P29_005": "栃木県那須塩原市鍋掛1087", "P29_006": "3", "P29_007": "1", "P29_008": "00", "P29_009": null }, "geometry": { "type": "Point", "coordinates": [ 140.073541601692341, 36.957865027044733 ] } },
{ "type": "Feature", "properties": { "P29_001": "09213", "P29_002": "C109210001437", "P29_003": "16002", "P29_004": "那須塩原市立厚崎中学校", "P29_005": "栃木県那須塩原市上厚崎385", "P29_006": "3", "P29_007": "1", "P29_008": "00", "P29_009": null }, "geometry": { "type": "Point", "coordinates": [ 140.032688314205473, 36.958901740872868 ] } },
{ "type": "Feature", "properties": { "P29_001": "09213", "P29_002": "C109210001446", "P29_003": "16002", "P29_004": "那須塩原市立黒磯北中学校", "P29_005": "栃木県那須塩原市埼玉6", "P29_006": "3", "P29_007": "1", "P29_008": "00", "P29_009": null }, "geometry": { "type": "Point", "coordinates": [ 140.022576090570197, 36.982379108336929 ] } },
{ "type": "Feature", "properties": { "P29_001": "09213", "P29_002": "C109210001455", "P29_003": "16002", "P29_004": "那須塩原市立三島中学校", "P29_005": "栃木県那須塩原市東三島1-104", "P29_006": "3", "P29_007": "1", "P29_008": "00", "P29_009": null }, "geometry": { "type": "Point", "coordinates": [ 139.982602419274883, 36.899044398130812 ] } },
{ "type": "Feature", "properties": { "P29_001": "09213", "P29_002": "C109210001464", "P29_003": "16002", "P29_004": "那須塩原市立西那須野中学校", "P29_005": "栃木県那須塩原市下永田4-3", "P29_006": "3", "P29_007": "1", "P29_008": "00", "P29_009": null }, "geometry": { "type": "Point", "coordinates": [ 139.986634258385521, 36.877332376512804 ] } },
{ "type": "Feature", "properties": { "P29_001": "09204", "P29_002": "C109210001473", "P29_003": "16002", "P29_004": "佐野市立田沼東中学校", "P29_005": "栃木県佐野市栃本町2287", "P29_006": "3", "P29_007": "1", "P29_008": "00", "P29_009": null }, "geometry": { "type": "Point", "coordinates": [ 139.579775869382161, 36.36397535716624 ] } },
{ "type": "Feature", "properties": { "P29_001": "09215", "P29_002": "C109210001507", "P29_003": "16002", "P29_004": "那須烏山市立南那須中学校", "P29_005": "栃木県那須烏山市大金285", "P29_006": "3", "P29_007": "1", "P29_008": "00", "P29_009": null }, "geometry": { "type": "Point", "coordinates": [ 140.095270965842246, 36.654057629192295 ] } },
{ "type": "Feature", "properties": { "P29_001": "09407", "P29_002": "C109210001516", "P29_003": "16002", "P29_004": "那須町立那須中学校", "P29_005": "栃木県那須郡那須町高久丙1-1", "P29_006": "3", "P29_007": "1", "P29_008": "00", "P29_009": null }, "geometry": { "type": "Point", "coordinates": [ 140.023889897845862, 37.047179768836877 ] } },
{ "type": "Feature", "properties": { "P29_001": "09201", "P29_002": "C109210001525", "P29_003": "16002", "P29_004": "栃木県立宇都宮東高等学校附属中学校", "P29_005": "栃木県宇都宮市石井町3360-1", "P29_006": "2", "P29_007": "1", "P29_008": "00", "P29_009": null }, "geometry": { "type": "Point", "coordinates": [ 139.921299358196904, 36.528080123600006 ] } },
{ "type": "Feature", "properties": { "P29_001": "09204", "P29_002": "C109210001534", "P29_003": "16002", "P29_004": "栃木県立佐野高等学校附属中学校", "P29_005": "栃木県佐野市天神町761-1", "P29_006": "2", "P29_007": "1", "P29_008": "00", "P29_009": null }, "geometry": { "type": "Point", "coordinates": [ 139.574749907627194, 36.319933857650902 ] } },
{ "type": "Feature", "properties": { "P29_001": "09211", "P29_002": "C109210001543", "P29_003": "16002", "P29_004": "栃木県立矢板東高等学校附属中学校", "P29_005": "栃木県矢板市東町4-8", "P29_006": "2", "P29_007": "1", "P29_008": "00", "P29_009": null }, "geometry": { "type": "Point", "coordinates": [ 139.938486666841413, 36.80155080772807 ] } },
{ "type": "Feature", "properties": { "P29_001": "09407", "P29_002": "C109210001552", "P29_003": "16002", "P29_004": "那須町立那須中央中学校", "P29_005": "栃木県那須郡那須町大字寺子丙92", "P29_006": "3", "P29_007": "1", "P29_008": "00", "P29_009": null }, "geometry": { "type": "Point", "coordinates": [ 140.112370587280168, 37.022964102886959 ] } },
{ "type": "Feature", "properties": { "P29_001": "09203", "P29_002": "C109210001561", "P29_003": "16002", "P29_004": "栃木市立藤岡中学校", "P29_005": "栃木県栃木市藤岡町藤岡10", "P29_006": "3", "P29_007": "1", "P29_008": "00", "P29_009": null }, "geometry": { "type": "Point", "coordinates": [ 139.652591067965091, 36.270051331393518 ] } },
{ "type": "Feature", "properties": { "P29_001": "09201", "P29_002": "C109310000016", "P29_003": "16002", "P29_004": "作新学院中等部", "P29_005": "栃木県宇都宮市一の沢1-1-41", "P29_006": "4", "P29_007": "1", "P29_008": "00", "P29_009": null }, "geometry": { "type": "Point", "coordinates": [ 139.857049972261734, 36.568707522181654 ] } },
{ "type": "Feature", "properties": { "P29_001": "09202", "P29_002": "C109310000025", "P29_003": "16002", "P29_004": "白鴎大学足利中学校", "P29_005": "栃木県足利市伊勢南町4-3", "P29_006": "4", "P29_007": "1", "P29_008": "00", "P29_009": null }, "geometry": { "type": "Point", "coordinates": [ 139.454196949627715, 36.330891664113587 ] } },
{ "type": "Feature", "properties": { "P29_001": "09201", "P29_002": "C109310000043", "P29_003": "16002", "P29_004": "宇都宮短期大学附属中学校", "P29_005": "栃木県宇都宮市睦町1-35", "P29_006": "4", "P29_007": "1", "P29_008": "00", "P29_009": null }, "geometry": { "type": "Point", "coordinates": [ 139.864891856022979, 36.560375542677932 ] } },
{ "type": "Feature", "properties": { "P29_001": "09203", "P29_002": "C109310000052", "P29_003": "16002", "P29_004": "國學院大學栃木中学校", "P29_005": "栃木県栃木市平井町608", "P29_006": "4", "P29_007": "1", "P29_008": "00", "P29_009": null }, "geometry": { "type": "Point", "coordinates": [ 139.704033132644696, 36.364755531208601 ] } },
{ "type": "Feature", "properties": { "P29_001": "09201", "P29_002": "C109310000061", "P29_003": "16002", "P29_004": "文星芸術大学附属中学校", "P29_005": "栃木県宇都宮市睦町1-4", "P29_006": "4", "P29_007": "1", "P29_008": "00", "P29_009": null }, "geometry": { "type": "Point", "coordinates": [ 139.865710971430985, 36.561945013177954 ] } },
{ "type": "Feature", "properties": { "P29_001": "09407", "P29_002": "C109310000070", "P29_003": "16002", "P29_004": "幸福の科学学園中学校", "P29_005": "栃木県那須郡那須町梁瀬487-1", "P29_006": "4", "P29_007": "1", "P29_008": "00", "P29_009": null }, "geometry": { "type": "Point", "coordinates": [ 140.154457998502437, 36.933175767889374 ] } },
{ "type": "Feature", "properties": { "P29_001": "09201", "P29_002": "C109310000089", "P29_003": "16002", "P29_004": "星の杜中学校", "P29_005": "栃木県宇都宮市上籠谷町3776", "P29_006": "4", "P29_007": "1", "P29_008": "00", "P29_009": null }, "geometry": { "type": "Point", "coordinates": [ 139.975425521048209, 36.525998310400567 ] } }
]
}
