{
"type": "FeatureCollection",
"name": "geo_09_定期巡回・随時対応型訪問介護看護",
"crs": { "type": "name", "properties": { "name": "urn:ogc:def:crs:OGC:1.3:CRS84" } },
"features": [
{ "type": "Feature", "properties": { "内容": "コミュニティーケア・イースト【定期巡回・随時対応型訪問介護看護】栃木県宇都宮市鐺山町1983特別養護老人ホームマイホームきよはら", "url2": "https://www.kaigokensaku.mhlw.go.jp/09/index.php?action_kouhyou_detail_004_kani=true&JigyosyoCd=0990100463-00&ServiceCd=760&Type=search" }, "geometry": { "type": "Point", "coordinates": [ 139.975927100000035, 36.5387033 ] } },
{ "type": "Feature", "properties": { "内容": "さくらがおか定期巡回型訪問介護看護【定期巡回・随時対応型訪問介護看護】栃木県宇都宮市桜2-3-5さくらがおか定期巡回型訪問介護看護", "url2": "https://www.kaigokensaku.mhlw.go.jp/09/index.php?action_kouhyou_detail_004_kani=true&JigyosyoCd=0990100620-00&ServiceCd=760&Type=search" }, "geometry": { "type": "Point", "coordinates": [ 139.8680438, 36.5656801 ] } },
{ "type": "Feature", "properties": { "内容": "コープ安心ケアシステムみどり【定期巡回・随時対応型訪問介護看護】栃木県宇都宮市緑5丁目13番8号特別養護老人ホームみどり内", "url2": "https://www.kaigokensaku.mhlw.go.jp/09/index.php?action_kouhyou_detail_004_kani=true&JigyosyoCd=0990100455-00&ServiceCd=760&Type=search" }, "geometry": { "type": "Point", "coordinates": [ 139.859574599999974, 36.5140332 ] } },
{ "type": "Feature", "properties": { "内容": "さくらがおかケアセンター定期巡回型訪問介護看護【定期巡回・随時対応型訪問介護看護】栃木県宇都宮市宝木町2-2570-12", "url2": "https://www.kaigokensaku.mhlw.go.jp/09/index.php?action_kouhyou_detail_004_kani=true&JigyosyoCd=0990100869-00&ServiceCd=760&Type=search" }, "geometry": { "type": "Point", "coordinates": [ 139.8461297, 36.586918 ] } },
{ "type": "Feature", "properties": { "内容": "定期巡回型訪問介護看護ひだまり【定期巡回・随時対応型訪問介護看護】栃木県宇都宮市川俣町900‐1", "url2": "https://www.kaigokensaku.mhlw.go.jp/09/index.php?action_kouhyou_detail_004_kani=true&JigyosyoCd=0990100950-00&ServiceCd=760&Type=search" }, "geometry": { "type": "Point", "coordinates": [ 139.908014237959293, 36.604750481099671 ] } },
{ "type": "Feature", "properties": { "内容": "足利ケアサービス24【定期巡回・随時対応型訪問介護看護】栃木県足利市五十部町809-3", "url2": "https://www.kaigokensaku.mhlw.go.jp/09/index.php?action_kouhyou_detail_004_kani=true&JigyosyoCd=0990200263-00&ServiceCd=760&Type=search" }, "geometry": { "type": "Point", "coordinates": [ 139.423690399999941, 36.3463333 ] } },
{ "type": "Feature", "properties": { "内容": "安心ネットとちぎ【定期巡回・随時対応型訪問介護看護】栃木県栃木市城内町２丁目１７番２３号", "url2": "https://www.kaigokensaku.mhlw.go.jp/09/index.php?action_kouhyou_detail_004_kani=true&JigyosyoCd=0990300279-00&ServiceCd=760&Type=search" }, "geometry": { "type": "Point", "coordinates": [ 139.7520313, 36.3709854 ] } },
{ "type": "Feature", "properties": { "内容": "ひなたあんしんサポートセンター佐野【定期巡回・随時対応型訪問介護看護】栃木県佐野市植野町２００３番地１", "url2": "https://www.kaigokensaku.mhlw.go.jp/09/index.php?action_kouhyou_detail_004_kani=true&JigyosyoCd=0990400459-00&ServiceCd=760&Type=search" }, "geometry": { "type": "Point", "coordinates": [ 139.586081900000011, 36.3046068 ] } },
{ "type": "Feature", "properties": { "内容": "コープ安心ケアシステム喜沢【定期巡回・随時対応型訪問介護看護】栃木県小山市大字喜沢1475-98", "url2": "https://www.kaigokensaku.mhlw.go.jp/09/index.php?action_kouhyou_detail_004_kani=true&JigyosyoCd=0990800286-00&ServiceCd=760&Type=search" }, "geometry": { "type": "Point", "coordinates": [ 139.802479299999987, 36.3298589 ] } },
{ "type": "Feature", "properties": { "内容": "定期巡回・随時対応型訪問介護看護事業所なすの【定期巡回・随時対応型訪問介護看護】栃木県那須塩原市埼玉6-1619", "url2": "https://www.kaigokensaku.mhlw.go.jp/09/index.php?action_kouhyou_detail_004_kani=true&JigyosyoCd=0991300351-00&ServiceCd=760&Type=search" }, "geometry": { "type": "Point", "coordinates": [ 140.023263423942552, 36.980432202786595 ] } },
{ "type": "Feature", "properties": { "内容": "湯ったり・しおや【定期巡回・随時対応型訪問介護看護】栃木県塩谷郡塩谷町大字玉生915番地サービス付き高齢者向け住宅　湯ったり・しおや　内", "url2": "https://www.kaigokensaku.mhlw.go.jp/09/index.php?action_kouhyou_detail_004_kani=true&JigyosyoCd=0992600098-00&ServiceCd=760&Type=search" }, "geometry": { "type": "Point", "coordinates": [ 139.860998410950742, 36.775365780379346 ] } },
{ "type": "Feature", "properties": { "内容": "ワンランドケア那須【定期巡回・随時対応型訪問介護看護】栃木県那須郡那須町大字豊原丙１３４０番地", "url2": "https://www.kaigokensaku.mhlw.go.jp/09/index.php?action_kouhyou_detail_004_kani=true&JigyosyoCd=0992500165-00&ServiceCd=760&Type=search" }, "geometry": { "type": "Point", "coordinates": [ 140.111013, 37.0582749 ] } }
]
}
