{
"type": "FeatureCollection",
"name": "geo_9_4",
"crs": { "type": "name", "properties": { "name": "urn:ogc:def:crs:OGC:1.3:CRS84" } },
"features": [
{ "type": "Feature", "properties": { "ID": 940285425856, "正式名称": "Ａｍｉｅ助産院", "機関区分": 4, "都道府県コード": 9, "市区町村コード": 216, "所在地": "栃木県下野市仁良川１３３５－１", "緯度": 36.376951, "経度": 139.880328, "url": "https://www.iryou.teikyouseido.mhlw.go.jp/znk-web/juminkanja/S2430/initialize?prefCd=09&kikanCd=40285425856&kikanKbn=4", "url2": null, "内容": "Ａｍｉｅ助産院【4:助産院】栃木県下野市仁良川１３３５－１" }, "geometry": { "type": "Point", "coordinates": [ 139.880328, 36.376951 ] } },
{ "type": "Feature", "properties": { "ID": 946091000002, "正式名称": "相田助産所", "機関区分": 4, "都道府県コード": 9, "市区町村コード": 344, "所在地": "栃木県芳賀郡市貝町文谷１００８－７", "緯度": 36.5525, "経度": 140.097078, "url": "https://www.iryou.teikyouseido.mhlw.go.jp/znk-web/juminkanja/S2430/initialize?prefCd=09&kikanCd=46091000002&kikanKbn=4", "url2": null, "内容": "相田助産所【4:助産院】栃木県芳賀郡市貝町文谷１００８－７" }, "geometry": { "type": "Point", "coordinates": [ 140.097078, 36.5525 ] } },
{ "type": "Feature", "properties": { "ID": 946091000007, "正式名称": "伊東助産所", "機関区分": 4, "都道府県コード": 9, "市区町村コード": 208, "所在地": "栃木県小山市西城南３－６－３", "緯度": 36.298451, "経度": 139.806664, "url": "https://www.iryou.teikyouseido.mhlw.go.jp/znk-web/juminkanja/S2430/initialize?prefCd=09&kikanCd=46091000007&kikanKbn=4", "url2": null, "内容": "伊東助産所【4:助産院】栃木県小山市西城南３－６－３" }, "geometry": { "type": "Point", "coordinates": [ 139.806664, 36.298451 ] } },
{ "type": "Feature", "properties": { "ID": 946091000010, "正式名称": "赤ちゃん相談室", "機関区分": 4, "都道府県コード": 9, "市区町村コード": 216, "所在地": "栃木県下野市緑５－８－１", "緯度": 36.386595, "経度": 139.860702, "url": "https://www.iryou.teikyouseido.mhlw.go.jp/znk-web/juminkanja/S2430/initialize?prefCd=09&kikanCd=46091000010&kikanKbn=4", "url2": null, "内容": "赤ちゃん相談室【4:助産院】栃木県下野市緑５－８－１" }, "geometry": { "type": "Point", "coordinates": [ 139.860702, 36.386595 ] } },
{ "type": "Feature", "properties": { "ID": 946091000011, "正式名称": "まざーずへいぶん　佐藤助産院", "機関区分": 4, "都道府県コード": 9, "市区町村コード": 216, "所在地": "栃木県下野市薬師寺３１７８－１０", "緯度": 36.395472, "経度": 139.863645, "url": "https://www.iryou.teikyouseido.mhlw.go.jp/znk-web/juminkanja/S2430/initialize?prefCd=09&kikanCd=46091000011&kikanKbn=4", "url2": null, "内容": "まざーずへいぶん　佐藤助産院【4:助産院】栃木県下野市薬師寺３１７８－１０" }, "geometry": { "type": "Point", "coordinates": [ 139.863645, 36.395472 ] } },
{ "type": "Feature", "properties": { "ID": 946091000017, "正式名称": "助産所　ままと赤ちゃんの家", "機関区分": 4, "都道府県コード": 9, "市区町村コード": 213, "所在地": "栃木県那須塩原市埼玉", "緯度": 36.960081, "経度": 140.022512, "url": "https://www.iryou.teikyouseido.mhlw.go.jp/znk-web/juminkanja/S2430/initialize?prefCd=09&kikanCd=46091000017&kikanKbn=4", "url2": "https://peraichi.com/landing_pages/view/mambaby/", "内容": "助産所　ままと赤ちゃんの家【4:助産院】栃木県那須塩原市埼玉" }, "geometry": { "type": "Point", "coordinates": [ 140.022512, 36.960081 ] } },
{ "type": "Feature", "properties": { "ID": 946091000021, "正式名称": "助産師　増渕　弓子", "機関区分": 4, "都道府県コード": 9, "市区町村コード": 201, "所在地": "栃木県宇都宮市越戸１丁目１５番地８号", "緯度": 36.565566, "経度": 139.925924, "url": "https://www.iryou.teikyouseido.mhlw.go.jp/znk-web/juminkanja/S2430/initialize?prefCd=09&kikanCd=46091000021&kikanKbn=4", "url2": null, "内容": "助産師　増渕　弓子【4:助産院】栃木県宇都宮市越戸１丁目１５番地８号" }, "geometry": { "type": "Point", "coordinates": [ 139.925924, 36.565566 ] } },
{ "type": "Feature", "properties": { "ID": 946091000022, "正式名称": "助産師　福田　里美", "機関区分": 4, "都道府県コード": 9, "市区町村コード": 201, "所在地": "栃木県宇都宮市上欠町７７３", "緯度": 36.543071, "経度": 139.82632, "url": "https://www.iryou.teikyouseido.mhlw.go.jp/znk-web/juminkanja/S2430/initialize?prefCd=09&kikanCd=46091000022&kikanKbn=4", "url2": null, "内容": "助産師　福田　里美【4:助産院】栃木県宇都宮市上欠町７７３" }, "geometry": { "type": "Point", "coordinates": [ 139.82632, 36.543071 ] } },
{ "type": "Feature", "properties": { "ID": 946091000025, "正式名称": "櫻井　啓美", "機関区分": 4, "都道府県コード": 9, "市区町村コード": 201, "所在地": "栃木県宇都宮市戸祭４－１－２９", "緯度": 36.574566, "経度": 139.862901, "url": "https://www.iryou.teikyouseido.mhlw.go.jp/znk-web/juminkanja/S2430/initialize?prefCd=09&kikanCd=46091000025&kikanKbn=4", "url2": null, "内容": "櫻井　啓美【4:助産院】栃木県宇都宮市戸祭４－１－２９" }, "geometry": { "type": "Point", "coordinates": [ 139.862901, 36.574566 ] } },
{ "type": "Feature", "properties": { "ID": 946091000026, "正式名称": "辻　妙子", "機関区分": 4, "都道府県コード": 9, "市区町村コード": 201, "所在地": "栃木県宇都宮市御幸町２３４－１７", "緯度": 36.580586, "経度": 139.920949, "url": "https://www.iryou.teikyouseido.mhlw.go.jp/znk-web/juminkanja/S2430/initialize?prefCd=09&kikanCd=46091000026&kikanKbn=4", "url2": null, "内容": "辻　妙子【4:助産院】栃木県宇都宮市御幸町２３４－１７" }, "geometry": { "type": "Point", "coordinates": [ 139.920949, 36.580586 ] } },
{ "type": "Feature", "properties": { "ID": 946091000027, "正式名称": "みき母乳相談室", "機関区分": 4, "都道府県コード": 9, "市区町村コード": 201, "所在地": "栃木県宇都宮市簗瀬町１７７３－１　メゾンＡＯＫＩ１０３", "緯度": 36.548514, "経度": 139.888831, "url": "https://www.iryou.teikyouseido.mhlw.go.jp/znk-web/juminkanja/S2430/initialize?prefCd=09&kikanCd=46091000027&kikanKbn=4", "url2": "http://sun3.gmobb.jp/skynet/", "内容": "みき母乳相談室【4:助産院】栃木県宇都宮市簗瀬町１７７３－１　メゾンＡＯＫＩ１０３" }, "geometry": { "type": "Point", "coordinates": [ 139.888831, 36.548514 ] } },
{ "type": "Feature", "properties": { "ID": 946091000030, "正式名称": "志助産院", "機関区分": 4, "都道府県コード": 9, "市区町村コード": 201, "所在地": "栃木県宇都宮市平松本町７７３－８", "緯度": 36.537379, "経度": 139.914391, "url": "https://www.iryou.teikyouseido.mhlw.go.jp/znk-web/juminkanja/S2430/initialize?prefCd=09&kikanCd=46091000030&kikanKbn=4", "url2": null, "内容": "志助産院【4:助産院】栃木県宇都宮市平松本町７７３－８" }, "geometry": { "type": "Point", "coordinates": [ 139.914391, 36.537379 ] } },
{ "type": "Feature", "properties": { "ID": 946091000032, "正式名称": "たかこ母乳育児相談室", "機関区分": 4, "都道府県コード": 9, "市区町村コード": 201, "所在地": "栃木県宇都宮市雀の宮５－１－４", "緯度": 36.490919, "経度": 139.872738, "url": "https://www.iryou.teikyouseido.mhlw.go.jp/znk-web/juminkanja/S2430/initialize?prefCd=09&kikanCd=46091000032&kikanKbn=4", "url2": "https://www.takako-oketani.com", "内容": "たかこ母乳育児相談室【4:助産院】栃木県宇都宮市雀の宮５－１－４" }, "geometry": { "type": "Point", "coordinates": [ 139.872738, 36.490919 ] } },
{ "type": "Feature", "properties": { "ID": 946091000033, "正式名称": "マザーズはうす", "機関区分": 4, "都道府県コード": 9, "市区町村コード": 203, "所在地": "栃木県栃木市仲方町１５１－１７", "緯度": 36.421082, "経度": 139.690781, "url": "https://www.iryou.teikyouseido.mhlw.go.jp/znk-web/juminkanja/S2430/initialize?prefCd=09&kikanCd=46091000033&kikanKbn=4", "url2": "http://www.mothers-house.com/", "内容": "マザーズはうす【4:助産院】栃木県栃木市仲方町１５１－１７" }, "geometry": { "type": "Point", "coordinates": [ 139.690781, 36.421082 ] } },
{ "type": "Feature", "properties": { "ID": 946091000035, "正式名称": "助産師　吉住　克枝", "機関区分": 4, "都道府県コード": 9, "市区町村コード": 201, "所在地": "栃木県宇都宮市平出町３７３６－８", "緯度": 36.576838, "経度": 139.937072, "url": "https://www.iryou.teikyouseido.mhlw.go.jp/znk-web/juminkanja/S2430/initialize?prefCd=09&kikanCd=46091000035&kikanKbn=4", "url2": null, "内容": "助産師　吉住　克枝【4:助産院】栃木県宇都宮市平出町３７３６－８" }, "geometry": { "type": "Point", "coordinates": [ 139.937072, 36.576838 ] } },
{ "type": "Feature", "properties": { "ID": 946091000036, "正式名称": "なかじま母乳育児相談室", "機関区分": 4, "都道府県コード": 9, "市区町村コード": 201, "所在地": "栃木県宇都宮市中岡本町３７１０－２３１", "緯度": 36.606686, "経度": 139.937199, "url": "https://www.iryou.teikyouseido.mhlw.go.jp/znk-web/juminkanja/S2430/initialize?prefCd=09&kikanCd=46091000036&kikanKbn=4", "url2": "http://nakajimaoketani.web.fc2.com/index.html", "内容": "なかじま母乳育児相談室【4:助産院】栃木県宇都宮市中岡本町３７１０－２３１" }, "geometry": { "type": "Point", "coordinates": [ 139.937199, 36.606686 ] } },
{ "type": "Feature", "properties": { "ID": 946091000037, "正式名称": "女性と子供の家　月のゆりかご", "機関区分": 4, "都道府県コード": 9, "市区町村コード": 208, "所在地": "栃木県小山市東城南５－１５－１９", "緯度": 36.287716, "経度": 139.811027, "url": "https://www.iryou.teikyouseido.mhlw.go.jp/znk-web/juminkanja/S2430/initialize?prefCd=09&kikanCd=46091000037&kikanKbn=4", "url2": "http://tsukinoyurikago.com", "内容": "女性と子供の家　月のゆりかご【4:助産院】栃木県小山市東城南５－１５－１９" }, "geometry": { "type": "Point", "coordinates": [ 139.811027, 36.287716 ] } },
{ "type": "Feature", "properties": { "ID": 946091000038, "正式名称": "まごころサロン育児相談室", "機関区分": 4, "都道府県コード": 9, "市区町村コード": 216, "所在地": "栃木県下野市緑１－１２－５", "緯度": 36.387331, "経度": 139.852169, "url": "https://www.iryou.teikyouseido.mhlw.go.jp/znk-web/juminkanja/S2430/initialize?prefCd=09&kikanCd=46091000038&kikanKbn=4", "url2": "http://adlermagokoro.sunnyday.jp/index.html", "内容": "まごころサロン育児相談室【4:助産院】栃木県下野市緑１－１２－５" }, "geometry": { "type": "Point", "coordinates": [ 139.852169, 36.387331 ] } },
{ "type": "Feature", "properties": { "ID": 946091000039, "正式名称": "助産院ノアノア", "機関区分": 4, "都道府県コード": 9, "市区町村コード": 216, "所在地": "栃木県下野市緑２－１－１２", "緯度": 36.386589, "経度": 139.851497, "url": "https://www.iryou.teikyouseido.mhlw.go.jp/znk-web/juminkanja/S2430/initialize?prefCd=09&kikanCd=46091000039&kikanKbn=4", "url2": null, "内容": "助産院ノアノア【4:助産院】栃木県下野市緑２－１－１２" }, "geometry": { "type": "Point", "coordinates": [ 139.851497, 36.386589 ] } },
{ "type": "Feature", "properties": { "ID": 946091000040, "正式名称": "アゲハ助産院", "機関区分": 4, "都道府県コード": 9, "市区町村コード": 208, "所在地": "栃木県小山市間々田１２５２", "緯度": 36.27147, "経度": 139.76899, "url": "https://www.iryou.teikyouseido.mhlw.go.jp/znk-web/juminkanja/S2430/initialize?prefCd=09&kikanCd=46091000040&kikanKbn=4", "url2": null, "内容": "アゲハ助産院【4:助産院】栃木県小山市間々田１２５２" }, "geometry": { "type": "Point", "coordinates": [ 139.76899, 36.27147 ] } },
{ "type": "Feature", "properties": { "ID": 946091000041, "正式名称": "和ごころ助産所", "機関区分": 4, "都道府県コード": 9, "市区町村コード": 201, "所在地": "栃木県宇都宮市雀の宮４－２６－５２", "緯度": 36.496776, "経度": 139.870563, "url": "https://www.iryou.teikyouseido.mhlw.go.jp/znk-web/juminkanja/S2430/initialize?prefCd=09&kikanCd=46091000041&kikanKbn=4", "url2": "http://wagocoromw.com/", "内容": "和ごころ助産所【4:助産院】栃木県宇都宮市雀の宮４－２６－５２" }, "geometry": { "type": "Point", "coordinates": [ 139.870563, 36.496776 ] } },
{ "type": "Feature", "properties": { "ID": 946091000062, "正式名称": "助産院おひさまハウス", "機関区分": 4, "都道府県コード": 9, "市区町村コード": 208, "所在地": "栃木県小山市美しが丘３－３５－１３", "緯度": 36.258443, "経度": 139.777016, "url": "https://www.iryou.teikyouseido.mhlw.go.jp/znk-web/juminkanja/S2430/initialize?prefCd=09&kikanCd=46091000062&kikanKbn=4", "url2": "http://www.ohkiclinic.com/", "内容": "助産院おひさまハウス【4:助産院】栃木県小山市美しが丘３－３５－１３" }, "geometry": { "type": "Point", "coordinates": [ 139.777016, 36.258443 ] } },
{ "type": "Feature", "properties": { "ID": 946091000065, "正式名称": "きらり助産院", "機関区分": 4, "都道府県コード": 9, "市区町村コード": 213, "所在地": "栃木県那須塩原市四区町７２７番地２６１", "緯度": 36.895944, "経度": 139.943266, "url": "https://www.iryou.teikyouseido.mhlw.go.jp/znk-web/juminkanja/S2430/initialize?prefCd=09&kikanCd=46091000065&kikanKbn=4", "url2": "https://kirari-birth.com", "内容": "きらり助産院【4:助産院】栃木県那須塩原市四区町７２７番地２６１" }, "geometry": { "type": "Point", "coordinates": [ 139.943266, 36.895944 ] } },
{ "type": "Feature", "properties": { "ID": 946091000066, "正式名称": "あさの葉助産院（出張専門）", "機関区分": 4, "都道府県コード": 9, "市区町村コード": 301, "所在地": "栃木県河内郡上三川町しらさぎ", "緯度": 36.441903, "経度": 139.90711, "url": "https://www.iryou.teikyouseido.mhlw.go.jp/znk-web/juminkanja/S2430/initialize?prefCd=09&kikanCd=46091000066&kikanKbn=4", "url2": null, "内容": "あさの葉助産院（出張専門）【4:助産院】栃木県河内郡上三川町しらさぎ" }, "geometry": { "type": "Point", "coordinates": [ 139.90711, 36.441903 ] } },
{ "type": "Feature", "properties": { "ID": 946091000067, "正式名称": "つむぎ助産院", "機関区分": 4, "都道府県コード": 9, "市区町村コード": 201, "所在地": "栃木県宇都宮市宝木町２－２５５４－８", "緯度": 36.587678, "経度": 139.844293, "url": "https://www.iryou.teikyouseido.mhlw.go.jp/znk-web/juminkanja/S2430/initialize?prefCd=09&kikanCd=46091000067&kikanKbn=4", "url2": null, "内容": "つむぎ助産院【4:助産院】栃木県宇都宮市宝木町２－２５５４－８" }, "geometry": { "type": "Point", "coordinates": [ 139.844293, 36.587678 ] } },
{ "type": "Feature", "properties": { "ID": 946091000068, "正式名称": "みなみのき助産院", "機関区分": 4, "都道府県コード": 9, "市区町村コード": 201, "所在地": "栃木県宇都宮市平出町２７２０番地", "緯度": 36.585356, "経度": 139.94948, "url": "https://www.iryou.teikyouseido.mhlw.go.jp/znk-web/juminkanja/S2430/initialize?prefCd=09&kikanCd=46091000068&kikanKbn=4", "url2": "https://minaminoki.com/", "内容": "みなみのき助産院【4:助産院】栃木県宇都宮市平出町２７２０番地" }, "geometry": { "type": "Point", "coordinates": [ 139.94948, 36.585356 ] } },
{ "type": "Feature", "properties": { "ID": 946091000069, "正式名称": "助産院ＭＯＦＵ", "機関区分": 4, "都道府県コード": 9, "市区町村コード": 201, "所在地": "栃木県宇都宮市中今泉", "緯度": 36.569294, "経度": 139.9085, "url": "https://www.iryou.teikyouseido.mhlw.go.jp/znk-web/juminkanja/S2430/initialize?prefCd=09&kikanCd=46091000069&kikanKbn=4", "url2": "https://uk4yi.hp.peraichi.com/", "内容": "助産院ＭＯＦＵ【4:助産院】栃木県宇都宮市中今泉" }, "geometry": { "type": "Point", "coordinates": [ 139.9085, 36.569294 ] } },
{ "type": "Feature", "properties": { "ID": 946091000074, "正式名称": "ももふく母乳育児相談室", "機関区分": 4, "都道府県コード": 9, "市区町村コード": 201, "所在地": "栃木県宇都宮市細谷町７４４－２", "緯度": 36.591551, "経度": 139.850887, "url": "https://www.iryou.teikyouseido.mhlw.go.jp/znk-web/juminkanja/S2430/initialize?prefCd=09&kikanCd=46091000074&kikanKbn=4", "url2": null, "内容": "ももふく母乳育児相談室【4:助産院】栃木県宇都宮市細谷町７４４－２" }, "geometry": { "type": "Point", "coordinates": [ 139.850887, 36.591551 ] } }
]
}
