{
"type": "FeatureCollection",
"name": "geo_09_専修学校",
"crs": { "type": "name", "properties": { "name": "urn:ogc:def:crs:EPSG::6668" } },
"features": [
{ "type": "Feature", "properties": { "P29_001": "09201", "P29_002": "H109210000017", "P29_003": "16016", "P29_004": "栃木県立衛生福祉大学校", "P29_005": "栃木県宇都宮市陽南4-2-1", "P29_006": "2", "P29_007": "0", "P29_008": "00", "P29_009": null }, "geometry": { "type": "Point", "coordinates": [ 139.87013900544477, 36.537580003025091 ] } },
{ "type": "Feature", "properties": { "P29_001": "09201", "P29_002": "H109210000026", "P29_003": "16016", "P29_004": "栃木県農業大学校", "P29_005": "栃木県宇都宮市上籠谷町1145-1", "P29_006": "2", "P29_007": "0", "P29_008": "00", "P29_009": null }, "geometry": { "type": "Point", "coordinates": [ 139.98219079884322, 36.531920056848513 ] } },
{ "type": "Feature", "properties": { "P29_001": "09201", "P29_002": "H109310000015", "P29_003": "16016", "P29_004": "宇都宮アートアンドスポーツ専門学校", "P29_005": "栃木県宇都宮市大寛1-2165", "P29_006": "4", "P29_007": "0", "P29_008": "00", "P29_009": null }, "geometry": { "type": "Point", "coordinates": [ 139.875845614883104, 36.560816408661935 ] } },
{ "type": "Feature", "properties": { "P29_001": "09201", "P29_002": "H109310000024", "P29_003": "16016", "P29_004": "国際看護介護保育専門学校", "P29_005": "栃木県宇都宮市大通り1-2-5", "P29_006": "4", "P29_007": "0", "P29_008": "00", "P29_009": null }, "geometry": { "type": "Point", "coordinates": [ 139.890208159191673, 36.561199286284094 ] } },
{ "type": "Feature", "properties": { "P29_001": "09201", "P29_002": "H109310000033", "P29_003": "16016", "P29_004": "インターナショナルビジネスランゲージ専門学校", "P29_005": "栃木県宇都宮市元今泉6-3-10", "P29_006": "4", "P29_007": "0", "P29_008": "00", "P29_009": null }, "geometry": { "type": "Point", "coordinates": [ 139.914475061501918, 36.562270043911944 ] } },
{ "type": "Feature", "properties": { "P29_001": "09202", "P29_002": "H109310000042", "P29_003": "16016", "P29_004": "足利デザイン・ビューティ専門学校", "P29_005": "栃木県足利市田中町914", "P29_006": "4", "P29_007": "0", "P29_008": "00", "P29_009": null }, "geometry": { "type": "Point", "coordinates": [ 139.448944306389393, 36.328534143691734 ] } },
{ "type": "Feature", "properties": { "P29_001": "09201", "P29_002": "H109310000060", "P29_003": "16016", "P29_004": "石山和装専門学校", "P29_005": "栃木県宇都宮市今泉1-4-34", "P29_006": "4", "P29_007": "0", "P29_008": "00", "P29_009": null }, "geometry": { "type": "Point", "coordinates": [ 139.89708184865691, 36.562000719544834 ] } },
{ "type": "Feature", "properties": { "P29_001": "09201", "P29_002": "H109310000079", "P29_003": "16016", "P29_004": "和氣和裁専門学校", "P29_005": "栃木県宇都宮市一番町2-18", "P29_006": "4", "P29_007": "0", "P29_008": "00", "P29_009": null }, "geometry": { "type": "Point", "coordinates": [ 139.890424003184819, 36.559242004884588 ] } },
{ "type": "Feature", "properties": { "P29_001": "09201", "P29_002": "H109310000088", "P29_003": "16016", "P29_004": "明美和装専門学校", "P29_005": "栃木県宇都宮市細谷町371-12", "P29_006": "4", "P29_007": "0", "P29_008": "00", "P29_009": null }, "geometry": { "type": "Point", "coordinates": [ 139.85419079630725, 36.588644413012211 ] } },
{ "type": "Feature", "properties": { "P29_001": "09203", "P29_002": "H109310000097", "P29_003": "16016", "P29_004": "専門学校Ｔｏｃｈｉｇｉ　Ｇｌｏｂａｌ　Ｆａｓｈｉｏｎ　Ｂｕｓｉｎｅｓｓ　Ｃｏｌｌｅｇｅ", "P29_005": "栃木県栃木市片柳町1-30-20", "P29_006": "4", "P29_007": "0", "P29_008": "00", "P29_009": null }, "geometry": { "type": "Point", "coordinates": [ 139.722487873169086, 36.377015701531846 ] } },
{ "type": "Feature", "properties": { "P29_001": "09201", "P29_002": "H109310000104", "P29_003": "16016", "P29_004": "済生会宇都宮病院看護専門学校", "P29_005": "栃木県宇都宮市竹林町945-1", "P29_006": "4", "P29_007": "0", "P29_008": "00", "P29_009": null }, "geometry": { "type": "Point", "coordinates": [ 139.894964598941442, 36.579029754825399 ] } },
{ "type": "Feature", "properties": { "P29_001": "09361", "P29_002": "H109310000113", "P29_003": "16016", "P29_004": "獨協医科大学附属看護専門学校", "P29_005": "栃木県下都賀郡壬生町北小林880", "P29_006": "4", "P29_007": "0", "P29_008": "00", "P29_009": null }, "geometry": { "type": "Point", "coordinates": [ 139.825146037402362, 36.473829242598867 ] } },
{ "type": "Feature", "properties": { "P29_001": "09201", "P29_002": "H109310000122", "P29_003": "16016", "P29_004": "宇都宮歯科衛生士専門学校", "P29_005": "栃木県宇都宮市竹林町968", "P29_006": "4", "P29_007": "0", "P29_008": "00", "P29_009": null }, "geometry": { "type": "Point", "coordinates": [ 139.895756104449447, 36.57810296342722 ] } },
{ "type": "Feature", "properties": { "P29_001": "09201", "P29_002": "H109310000131", "P29_003": "16016", "P29_004": "宇都宮市医療保健事業団附属宇都宮准看護高等専修学校", "P29_005": "栃木県宇都宮市竹林町968", "P29_006": "4", "P29_007": "0", "P29_008": "00", "P29_009": null }, "geometry": { "type": "Point", "coordinates": [ 139.895753350762391, 36.578160632487105 ] } },
{ "type": "Feature", "properties": { "P29_001": "09201", "P29_002": "H109310000140", "P29_003": "16016", "P29_004": "栃木介護福祉士専門学校", "P29_005": "栃木県宇都宮市宝木町2-988-5", "P29_006": "4", "P29_007": "0", "P29_008": "00", "P29_009": null }, "geometry": { "type": "Point", "coordinates": [ 139.851986093602164, 36.547765700685588 ] } },
{ "type": "Feature", "properties": { "P29_001": "09208", "P29_002": "H109310000159", "P29_003": "16016", "P29_004": "中央福祉医療専門学校", "P29_005": "栃木県小山市大字土塔字東谷234-2", "P29_006": "4", "P29_007": "0", "P29_008": "00", "P29_009": null }, "geometry": { "type": "Point", "coordinates": [ 139.821120012519486, 36.300408025457038 ] } },
{ "type": "Feature", "properties": { "P29_001": "09211", "P29_002": "H109310000168", "P29_003": "16016", "P29_004": "国際医療福祉大学塩谷看護専門学校", "P29_005": "栃木県矢板市富田77-6", "P29_006": "4", "P29_007": "0", "P29_008": "00", "P29_009": null }, "geometry": { "type": "Point", "coordinates": [ 139.924174900851881, 36.79855987985372 ] } },
{ "type": "Feature", "properties": { "P29_001": "09203", "P29_002": "H109310000177", "P29_003": "16016", "P29_004": "マロニエ医療福祉専門学校", "P29_005": "栃木県栃木市今泉町2-6-22", "P29_006": "4", "P29_007": "0", "P29_008": "00", "P29_009": null }, "geometry": { "type": "Point", "coordinates": [ 139.744047684665929, 36.388132286273922 ] } },
{ "type": "Feature", "properties": { "P29_001": "09214", "P29_002": "H109310000186", "P29_003": "16016", "P29_004": "さくら総合専門学校", "P29_005": "栃木県さくら市馬場410", "P29_006": "4", "P29_007": "0", "P29_008": "00", "P29_009": null }, "geometry": { "type": "Point", "coordinates": [ 139.947911254390391, 36.692443097012585 ] } },
{ "type": "Feature", "properties": { "P29_001": "09202", "P29_002": "H109310000195", "P29_003": "16016", "P29_004": "足利製菓専門学校", "P29_005": "栃木県足利市田中町914", "P29_006": "4", "P29_007": "0", "P29_008": "00", "P29_009": null }, "geometry": { "type": "Point", "coordinates": [ 139.449349250447568, 36.328257596168982 ] } },
{ "type": "Feature", "properties": { "P29_001": "09201", "P29_002": "H109310000202", "P29_003": "16016", "P29_004": "（独）国立病院機構栃木医療センター附属看護学校", "P29_005": "栃木県宇都宮市中戸祭1-10-37", "P29_006": "0", "P29_007": "0", "P29_008": "00", "P29_009": null }, "geometry": { "type": "Point", "coordinates": [ 139.865386347051412, 36.580955580991528 ] } },
{ "type": "Feature", "properties": { "P29_001": "09201", "P29_002": "H109310000211", "P29_003": "16016", "P29_004": "報徳看護専門学校", "P29_005": "栃木県宇都宮市上横田町1302-12", "P29_006": "4", "P29_007": "0", "P29_008": "00", "P29_009": null }, "geometry": { "type": "Point", "coordinates": [ 139.875962876151902, 36.510711833276346 ] } },
{ "type": "Feature", "properties": { "P29_001": "09203", "P29_002": "H109310000239", "P29_003": "16016", "P29_004": "ヤマトファッションビジネス専門学校", "P29_005": "栃木県栃木市柳橋町7-7", "P29_006": "4", "P29_007": "0", "P29_008": "00", "P29_009": null }, "geometry": { "type": "Point", "coordinates": [ 139.722259614646106, 36.381085571683798 ] } },
{ "type": "Feature", "properties": { "P29_001": "09201", "P29_002": "H109310000248", "P29_003": "16016", "P29_004": "アイ・エフ・シー調理製菓大学校", "P29_005": "栃木県宇都宮市平出町3580-3", "P29_006": "4", "P29_007": "0", "P29_008": "00", "P29_009": null }, "geometry": { "type": "Point", "coordinates": [ 139.93997803894618, 36.586674051398965 ] } },
{ "type": "Feature", "properties": { "P29_001": "09208", "P29_002": "H109310000257", "P29_003": "16016", "P29_004": "国際ＴＢＣ調理・パティシエ専門学校", "P29_005": "栃木県小山市三峯1-10-21", "P29_006": "4", "P29_007": "0", "P29_008": "00", "P29_009": null }, "geometry": { "type": "Point", "coordinates": [ 139.802335332817961, 36.304495164995025 ] } },
{ "type": "Feature", "properties": { "P29_001": "09201", "P29_002": "H109310000266", "P29_003": "16016", "P29_004": "アイ・エフ・シー栄養専門学校", "P29_005": "栃木県宇都宮市平出町3580-5", "P29_006": "4", "P29_007": "0", "P29_008": "00", "P29_009": null }, "geometry": { "type": "Point", "coordinates": [ 139.940160450382507, 36.586864177820885 ] } },
{ "type": "Feature", "properties": { "P29_001": "09201", "P29_002": "H109310000284", "P29_003": "16016", "P29_004": "宇都宮美容専門学校", "P29_005": "栃木県宇都宮市春日町16-4", "P29_006": "4", "P29_007": "0", "P29_008": "00", "P29_009": null }, "geometry": { "type": "Point", "coordinates": [ 139.866857756569885, 36.529180353504991 ] } },
{ "type": "Feature", "properties": { "P29_001": "09201", "P29_002": "H109310000293", "P29_003": "16016", "P29_004": "栃木県美容専門学校", "P29_005": "栃木県宇都宮市宿郷2-10-11", "P29_006": "4", "P29_007": "0", "P29_008": "00", "P29_009": null }, "geometry": { "type": "Point", "coordinates": [ 139.902157236839457, 36.553830818874296 ] } },
{ "type": "Feature", "properties": { "P29_001": "09201", "P29_002": "H109310000300", "P29_003": "16016", "P29_004": "国際ファッションビューティ専門学校", "P29_005": "栃木県宇都宮市二荒町6-6", "P29_006": "4", "P29_007": "0", "P29_008": "00", "P29_009": null }, "geometry": { "type": "Point", "coordinates": [ 139.887628416976867, 36.55822305148795 ] } },
{ "type": "Feature", "properties": { "P29_001": "09208", "P29_002": "H109310000319", "P29_003": "16016", "P29_004": "センスビューティーカレッジ", "P29_005": "栃木県小山市東城南3-13-11", "P29_006": "4", "P29_007": "0", "P29_008": "00", "P29_009": null }, "geometry": { "type": "Point", "coordinates": [ 139.812722002765469, 36.291457694791376 ] } },
{ "type": "Feature", "properties": { "P29_001": "09208", "P29_002": "H109310000328", "P29_003": "16016", "P29_004": "国際テクニカル美容専門学校", "P29_005": "栃木県小山市城東1-6-33", "P29_006": "4", "P29_007": "0", "P29_008": "00", "P29_009": null }, "geometry": { "type": "Point", "coordinates": [ 139.81415786785945, 36.310067794780466 ] } },
{ "type": "Feature", "properties": { "P29_001": "09213", "P29_002": "H109310000337", "P29_003": "16016", "P29_004": "アジア農村指導者養成専門学校", "P29_005": "栃木県那須塩原市槻沢442-1", "P29_006": "4", "P29_007": "0", "P29_008": "00", "P29_009": null }, "geometry": { "type": "Point", "coordinates": [ 140.003287353203888, 36.894599144137423 ] } },
{ "type": "Feature", "properties": { "P29_001": "09201", "P29_002": "H109310000346", "P29_003": "16016", "P29_004": "宇都宮メディア・アーツ専門学校", "P29_005": "栃木県宇都宮市中央1-10-12", "P29_006": "4", "P29_007": "0", "P29_008": "00", "P29_009": null }, "geometry": { "type": "Point", "coordinates": [ 139.883235667337885, 36.557638600239791 ] } },
{ "type": "Feature", "properties": { "P29_001": "09208", "P29_002": "H109310000355", "P29_003": "16016", "P29_004": "国際テクニカルデザイン・自動車専門学校", "P29_005": "栃木県小山市三峯1-10-21", "P29_006": "4", "P29_007": "0", "P29_008": "00", "P29_009": null }, "geometry": { "type": "Point", "coordinates": [ 139.802294003224802, 36.304541996114246 ] } },
{ "type": "Feature", "properties": { "P29_001": "09208", "P29_002": "H109310000364", "P29_003": "16016", "P29_004": "小山歯科衛生士専門学校", "P29_005": "栃木県小山市城東1-3-3", "P29_006": "4", "P29_007": "0", "P29_008": "00", "P29_009": null }, "geometry": { "type": "Point", "coordinates": [ 139.814090955170656, 36.307873027336854 ] } },
{ "type": "Feature", "properties": { "P29_001": "09301", "P29_002": "H109310000373", "P29_003": "16016", "P29_004": "専門学校日産栃木自動車大学校", "P29_005": "栃木県河内郡上三川町大字上郷字南西原2120", "P29_006": "4", "P29_007": "0", "P29_008": "00", "P29_009": null }, "geometry": { "type": "Point", "coordinates": [ 139.921248943744189, 36.453852565443128 ] } },
{ "type": "Feature", "properties": { "P29_001": "09201", "P29_002": "H109310000382", "P29_003": "16016", "P29_004": "宇都宮ビジネス電子専門学校", "P29_005": "栃木県宇都宮市大寛1-1544", "P29_006": "4", "P29_007": "0", "P29_008": "00", "P29_009": null }, "geometry": { "type": "Point", "coordinates": [ 139.875811471846333, 36.560900053212833 ] } },
{ "type": "Feature", "properties": { "P29_001": "09201", "P29_002": "H109310000391", "P29_003": "16016", "P29_004": "国際情報ビジネス専門学校", "P29_005": "栃木県宇都宮市大通り1-2-5", "P29_006": "4", "P29_007": "0", "P29_008": "00", "P29_009": null }, "geometry": { "type": "Point", "coordinates": [ 139.890049058713316, 36.561220180300737 ] } },
{ "type": "Feature", "properties": { "P29_001": "09201", "P29_002": "H109310000417", "P29_003": "16016", "P29_004": "オリオンＩＴ専門学校", "P29_005": "栃木県宇都宮市鶴田町2765-4", "P29_006": "4", "P29_007": "0", "P29_008": "00", "P29_009": null }, "geometry": { "type": "Point", "coordinates": [ 139.864880123656519, 36.555901499682349 ] } },
{ "type": "Feature", "properties": { "P29_001": "09201", "P29_002": "H109310000426", "P29_003": "16016", "P29_004": "宇都宮日建工科専門学校", "P29_005": "栃木県宇都宮市簗瀬4-3-13", "P29_006": "4", "P29_007": "0", "P29_008": "00", "P29_009": null }, "geometry": { "type": "Point", "coordinates": [ 139.898346190243188, 36.553525883140885 ] } },
{ "type": "Feature", "properties": { "P29_001": "09201", "P29_002": "H109310000435", "P29_003": "16016", "P29_004": "専修学校宇都宮書道学校", "P29_005": "栃木県宇都宮市西川田南1-8-12", "P29_006": "4", "P29_007": "0", "P29_008": "00", "P29_009": null }, "geometry": { "type": "Point", "coordinates": [ 139.848050624718297, 36.509248202581219 ] } },
{ "type": "Feature", "properties": { "P29_001": "09201", "P29_002": "H109310000444", "P29_003": "16016", "P29_004": "国際ペット総合専門学校", "P29_005": "栃木県宇都宮市二荒町6-6", "P29_006": "4", "P29_007": "0", "P29_008": "00", "P29_009": null }, "geometry": { "type": "Point", "coordinates": [ 139.887575233079815, 36.558250105049957 ] } },
{ "type": "Feature", "properties": { "P29_001": "09201", "P29_002": "H109310000453", "P29_003": "16016", "P29_004": "大原簿記情報ビジネス医療専門学校宇都宮校", "P29_005": "栃木県宇都宮市東宿郷2-5-4", "P29_006": "4", "P29_007": "0", "P29_008": "00", "P29_009": null }, "geometry": { "type": "Point", "coordinates": [ 139.902417999524573, 36.558074997652206 ] } },
{ "type": "Feature", "properties": { "P29_001": "09201", "P29_002": "H109310000462", "P29_003": "16016", "P29_004": "大原スポーツ公務員専門学校宇都宮校", "P29_005": "栃木県宇都宮市東宿郷2-5-4", "P29_006": "4", "P29_007": "0", "P29_008": "00", "P29_009": null }, "geometry": { "type": "Point", "coordinates": [ 139.902427005198092, 36.558127002961186 ] } },
{ "type": "Feature", "properties": { "P29_001": "09201", "P29_002": "H109310000471", "P29_003": "16016", "P29_004": "国際テクニカル理容美容専門学校", "P29_005": "栃木県宇都宮市大通り4-1-19", "P29_006": "4", "P29_007": "0", "P29_008": "00", "P29_009": null }, "geometry": { "type": "Point", "coordinates": [ 139.894172916710488, 36.560470072654262 ] } },
{ "type": "Feature", "properties": { "P29_001": "09201", "P29_002": "H109310000480", "P29_003": "16016", "P29_004": "国際テクニカル調理製菓専門学校", "P29_005": "栃木県宇都宮市大通り4-1-19", "P29_006": "4", "P29_007": "0", "P29_008": "00", "P29_009": null }, "geometry": { "type": "Point", "coordinates": [ 139.89413746077912, 36.560509901509448 ] } },
{ "type": "Feature", "properties": { "P29_001": "09201", "P29_002": "H109310000499", "P29_003": "16016", "P29_004": "国際ＴＢＣ高等専修学校", "P29_005": "栃木県宇都宮市今泉2-10-12", "P29_006": "4", "P29_007": "0", "P29_008": "00", "P29_009": null }, "geometry": { "type": "Point", "coordinates": [ 139.895941503361115, 36.563195435112767 ] } },
{ "type": "Feature", "properties": { "P29_001": "09213", "P29_002": "H109310000505", "P29_003": "16016", "P29_004": "那須看護専門学校", "P29_005": "栃木県那須塩原市前弥六54-1", "P29_006": "4", "P29_007": "0", "P29_008": "00", "P29_009": null }, "geometry": { "type": "Point", "coordinates": [ 140.014388841978274, 36.936764201285769 ] } },
{ "type": "Feature", "properties": { "P29_001": "09201", "P29_002": "H109310000514", "P29_003": "16016", "P29_004": "セントメリー外語専門学校", "P29_005": "栃木県宇都宮市大通り4-2-10", "P29_006": "4", "P29_007": "0", "P29_008": "00", "P29_009": null }, "geometry": { "type": "Point", "coordinates": [ 139.895692394767252, 36.560012161226084 ] } },
{ "type": "Feature", "properties": { "P29_001": "09208", "P29_002": "H109310000523", "P29_003": "16016", "P29_004": "国際ティビィシィ小山看護専門学校", "P29_005": "栃木県小山市大字神鳥谷字足形2247-11", "P29_006": "4", "P29_007": "0", "P29_008": "00", "P29_009": null }, "geometry": { "type": "Point", "coordinates": [ 139.798406885783606, 36.273191043702717 ] } },
{ "type": "Feature", "properties": { "P29_001": "09208", "P29_002": "H109310000532", "P29_003": "16016", "P29_004": "中央アートスクール", "P29_005": "栃木県小山市駅東通り2-24-28", "P29_006": "4", "P29_007": "0", "P29_008": "00", "P29_009": null }, "geometry": { "type": "Point", "coordinates": [ 139.809692601639824, 36.310313872795732 ] } },
{ "type": "Feature", "properties": { "P29_001": "09206", "P29_002": "H109310000541", "P29_003": "16016", "P29_004": "ＮＩＫＫＯ外語観光専門学校", "P29_005": "栃木県日光市鬼怒川温泉大原字坂ノ下851-1", "P29_006": "4", "P29_007": "0", "P29_008": "00", "P29_009": null }, "geometry": { "type": "Point", "coordinates": [ 139.717068063522987, 36.822417157720857 ] } },
{ "type": "Feature", "properties": { "P29_001": "09203", "P29_002": "H109310000551", "P29_003": "16016", "P29_004": "ＣＩＴＹＦＯＯＴＢＡＬＬＡＣＡＤＥＭＹ", "P29_005": "栃木県栃木市岩舟町小野寺2113-3", "P29_006": "4", "P29_007": "0", "P29_008": "00", "P29_009": null }, "geometry": { "type": "Point", "coordinates": [ 139.623402175181099, 36.361992440271344 ] } },
{ "type": "Feature", "properties": { "P29_001": "09208", "P29_002": "H109310000560", "P29_003": "16016", "P29_004": "中央ＡＩ専門学校", "P29_005": "栃木県小山市駅東通り2-24-28", "P29_006": "4", "P29_007": "0", "P29_008": "00", "P29_009": null }, "geometry": { "type": "Point", "coordinates": [ 139.809586700371142, 36.310272540964881 ] } }
]
}
