{
"type": "FeatureCollection",
"name": "geo_09_特別支援学校",
"crs": { "type": "name", "properties": { "name": "urn:ogc:def:crs:EPSG::6668" } },
"features": [
{ "type": "Feature", "properties": { "P29_001": "09201", "P29_002": "E109110000015", "P29_003": "16012", "P29_004": "宇都宮大学共同教育学部附属特別支援学校", "P29_005": "栃木県宇都宮市宝木町1-2592", "P29_006": "1", "P29_007": "0", "P29_008": "00", "P29_009": null }, "geometry": { "type": "Point", "coordinates": [ 139.859767928519716, 36.579097184944061 ] } },
{ "type": "Feature", "properties": { "P29_001": "09201", "P29_002": "E109210000013", "P29_003": "16012", "P29_004": "栃木県立盲学校", "P29_005": "栃木県宇都宮市福岡町1297", "P29_006": "2", "P29_007": "0", "P29_008": "00", "P29_009": null }, "geometry": { "type": "Point", "coordinates": [ 139.772927249887232, 36.60028964462515 ] } },
{ "type": "Feature", "properties": { "P29_001": "09201", "P29_002": "E109210000022", "P29_003": "16012", "P29_004": "栃木県立聾学校", "P29_005": "栃木県宇都宮市若草2-3-48", "P29_006": "2", "P29_007": "0", "P29_008": "00", "P29_009": null }, "geometry": { "type": "Point", "coordinates": [ 139.862064203430378, 36.582553524480645 ] } },
{ "type": "Feature", "properties": { "P29_001": "09201", "P29_002": "E109210000031", "P29_003": "16012", "P29_004": "栃木県立のざわ特別支援学校", "P29_005": "栃木県宇都宮市岩曽町1177-2", "P29_006": "2", "P29_007": "0", "P29_008": "00", "P29_009": null }, "geometry": { "type": "Point", "coordinates": [ 139.909615159651281, 36.586204432510726 ] } },
{ "type": "Feature", "properties": { "P29_001": "09201", "P29_002": "E109210000040", "P29_003": "16012", "P29_004": "栃木県立わかくさ特別支援学校", "P29_005": "栃木県宇都宮市駒生町3337-1", "P29_006": "2", "P29_007": "0", "P29_008": "00", "P29_009": null }, "geometry": { "type": "Point", "coordinates": [ 139.844142735616288, 36.584798540912146 ] } },
{ "type": "Feature", "properties": { "P29_001": "09202", "P29_002": "E109210000059", "P29_003": "16012", "P29_004": "栃木県立足利特別支援学校", "P29_005": "栃木県足利市大沼田町619-1", "P29_006": "2", "P29_007": "0", "P29_008": "00", "P29_009": null }, "geometry": { "type": "Point", "coordinates": [ 139.503966787414868, 36.336752352879742 ] } },
{ "type": "Feature", "properties": { "P29_001": "09203", "P29_002": "E109210000068", "P29_003": "16012", "P29_004": "栃木県立栃木特別支援学校", "P29_005": "栃木県栃木市皆川城内町1053", "P29_006": "2", "P29_007": "0", "P29_008": "00", "P29_009": null }, "geometry": { "type": "Point", "coordinates": [ 139.690684448098096, 36.388728460914017 ] } },
{ "type": "Feature", "properties": { "P29_001": "09213", "P29_002": "E109210000077", "P29_003": "16012", "P29_004": "栃木県立那須特別支援学校", "P29_005": "栃木県那須塩原市下永田8-7", "P29_006": "2", "P29_007": "0", "P29_008": "00", "P29_009": null }, "geometry": { "type": "Point", "coordinates": [ 140.004279887400742, 36.871124232422083 ] } },
{ "type": "Feature", "properties": { "P29_001": "09201", "P29_002": "E109210000086", "P29_003": "16012", "P29_004": "栃木県立富屋特別支援学校", "P29_005": "栃木県宇都宮市徳次郎町39-1", "P29_006": "2", "P29_007": "0", "P29_008": "00", "P29_009": null }, "geometry": { "type": "Point", "coordinates": [ 139.846496318569223, 36.639993849919207 ] } },
{ "type": "Feature", "properties": { "P29_001": "09201", "P29_002": "E109210000095", "P29_003": "16012", "P29_004": "栃木県立岡本特別支援学校", "P29_005": "栃木県宇都宮市下岡本町2160", "P29_006": "2", "P29_007": "0", "P29_008": "00", "P29_009": null }, "geometry": { "type": "Point", "coordinates": [ 139.93524380734911, 36.599417172285662 ] } },
{ "type": "Feature", "properties": { "P29_001": "09342", "P29_002": "E109210000102", "P29_003": "16012", "P29_004": "栃木県立益子特別支援学校", "P29_005": "栃木県芳賀郡益子町七井3650", "P29_006": "2", "P29_007": "0", "P29_008": "00", "P29_009": null }, "geometry": { "type": "Point", "coordinates": [ 140.097493954296681, 36.506936057863037 ] } },
{ "type": "Feature", "properties": { "P29_001": "09215", "P29_002": "E109210000111", "P29_003": "16012", "P29_004": "栃木県立南那須特別支援学校", "P29_005": "栃木県那須烏山市藤田1181-152", "P29_006": "2", "P29_007": "0", "P29_008": "00", "P29_009": null }, "geometry": { "type": "Point", "coordinates": [ 140.098810585334377, 36.682446853177701 ] } },
{ "type": "Feature", "properties": { "P29_001": "09206", "P29_002": "E109210000120", "P29_003": "16012", "P29_004": "栃木県立今市特別支援学校", "P29_005": "栃木県日光市瀬尾1640-22", "P29_006": "2", "P29_007": "0", "P29_008": "00", "P29_009": null }, "geometry": { "type": "Point", "coordinates": [ 139.669952552978685, 36.738997161175519 ] } },
{ "type": "Feature", "properties": { "P29_001": "09216", "P29_002": "E109210000139", "P29_003": "16012", "P29_004": "栃木県立国分寺特別支援学校", "P29_005": "栃木県下野市柴6-2", "P29_006": "2", "P29_007": "0", "P29_008": "00", "P29_009": null }, "geometry": { "type": "Point", "coordinates": [ 139.844921526449639, 36.354246134335774 ] } },
{ "type": "Feature", "properties": { "P29_001": "09202", "P29_002": "E109210000148", "P29_003": "16012", "P29_004": "栃木県立足利中央特別支援学校", "P29_005": "栃木県足利市大月町871-3", "P29_006": "2", "P29_007": "0", "P29_008": "00", "P29_009": null }, "geometry": { "type": "Point", "coordinates": [ 139.475939638611038, 36.35046468287365 ] } },
{ "type": "Feature", "properties": { "P29_001": "09205", "P29_002": "E109210000157", "P29_003": "16012", "P29_004": "栃木県立富屋特別支援学校鹿沼分校", "P29_005": "栃木県鹿沼市日吉町521-6", "P29_006": "2", "P29_007": "0", "P29_008": "00", "P29_009": null }, "geometry": { "type": "Point", "coordinates": [ 139.730537007867838, 36.563905234398966 ] } },
{ "type": "Feature", "properties": { "P29_001": "09201", "P29_002": "E109210000166", "P29_003": "16012", "P29_004": "栃木県立特別支援学校宇都宮青葉高等学園", "P29_005": "栃木県宇都宮市京町9-32", "P29_006": "2", "P29_007": "0", "P29_008": "00", "P29_009": null }, "geometry": { "type": "Point", "coordinates": [ 139.871669228268985, 36.552193069794761 ] } }
]
}
