{
"type": "FeatureCollection",
"name": "geo_09_通所リハビリテーション",
"crs": { "type": "name", "properties": { "name": "urn:ogc:def:crs:OGC:1.3:CRS84" } },
"features": [
{ "type": "Feature", "properties": { "内容": "野沢の里【通所リハビリテーション】栃木県宇都宮市野沢町５６１－１", "url": "https://www.kaigokensaku.mhlw.go.jp/09/index.php?action_kouhyou_detail_004_kani=true&JigyosyoCd=0950180000-00&ServiceCd=160&Type=search", "url2": "http://nozawanosato.jimdo.com/" }, "geometry": { "type": "Point", "coordinates": [ 139.858373300000039, 36.6148129 ] } },
{ "type": "Feature", "properties": { "内容": "森医院　通所リハビリテーションふたたびの森【通所リハビリテーション】栃木県宇都宮市雀の宮6-5-5", "url": "https://www.kaigokensaku.mhlw.go.jp/09/index.php?action_kouhyou_detail_004_kani=true&JigyosyoCd=0910113836-00&ServiceCd=160&Type=search", "url2": "http://shingenkaimoriiin.wixsite.com/my-site" }, "geometry": { "type": "Point", "coordinates": [ 139.868369199999961, 36.4918219 ] } },
{ "type": "Feature", "properties": { "内容": "医療法人社団　宇光会　村井クリニック【通所リハビリテーション】栃木県宇都宮市宝木町１丁目２５８９", "url": "https://www.kaigokensaku.mhlw.go.jp/09/index.php?action_kouhyou_detail_004_kani=true&JigyosyoCd=0910111368-00&ServiceCd=160&Type=search", "url2": "https://www.murai-opc.org/" }, "geometry": { "type": "Point", "coordinates": [ 139.858804934393305, 36.581645877587206 ] } },
{ "type": "Feature", "properties": { "内容": "矢野整形外科医院　通所リハビリテーション　ひまわり【通所リハビリテーション】宇都宮市さつき２－２－１０", "url": "https://www.kaigokensaku.mhlw.go.jp/09/index.php?action_kouhyou_detail_004_kani=true&JigyosyoCd=0910112499-00&ServiceCd=160&Type=search", "url2": null }, "geometry": { "type": "Point", "coordinates": [ 139.864527899999985, 36.4865531 ] } },
{ "type": "Feature", "properties": { "内容": "沼尾病院【通所リハビリテーション】栃木県宇都宮市星が丘1丁目7番38号", "url": "https://www.kaigokensaku.mhlw.go.jp/09/index.php?action_kouhyou_detail_004_kani=true&JigyosyoCd=0910110121-00&ServiceCd=160&Type=search", "url2": "http://numaog.or.jp" }, "geometry": { "type": "Point", "coordinates": [ 139.875257199999965, 36.568005 ] } },
{ "type": "Feature", "properties": { "内容": "インターパーク倉持呼吸器内科【通所リハビリテーション】栃木県宇都宮市中島町765-1", "url": "https://www.kaigokensaku.mhlw.go.jp/09/index.php?action_kouhyou_detail_004_kani=true&JigyosyoCd=0910114032-00&ServiceCd=160&Type=search", "url2": "https://www.kuramochi-naika.com" }, "geometry": { "type": "Point", "coordinates": [ 139.9026183, 36.4939476 ] } },
{ "type": "Feature", "properties": { "内容": "老人保健施設　白楽園【通所リハビリテーション】栃木県宇都宮市宝木本町２１４１番地２", "url": "https://www.kaigokensaku.mhlw.go.jp/09/index.php?action_kouhyou_detail_004_kani=true&JigyosyoCd=0950180026-00&ServiceCd=160&Type=search", "url2": "http://numaog.or.jp/" }, "geometry": { "type": "Point", "coordinates": [ 139.843198600000051, 36.6296692 ] } },
{ "type": "Feature", "properties": { "内容": "生協ふたば診療所【通所リハビリテーション】栃木県宇都宮市双葉1丁目１３－５６", "url": "https://www.kaigokensaku.mhlw.go.jp/09/index.php?action_kouhyou_detail_004_kani=true&JigyosyoCd=0910112200-00&ServiceCd=160&Type=search", "url2": "http://www.seikyo-futaba.jp/" }, "geometry": { "type": "Point", "coordinates": [ 139.860479599999962, 36.5257818 ] } },
{ "type": "Feature", "properties": { "内容": "高瀬整形外科【通所リハビリテーション】栃木県宇都宮市松原2丁目7番22号", "url": "https://www.kaigokensaku.mhlw.go.jp/09/index.php?action_kouhyou_detail_004_kani=true&JigyosyoCd=0910112267-00&ServiceCd=160&Type=search", "url2": "http://takaseseikei.com/" }, "geometry": { "type": "Point", "coordinates": [ 139.8722463, 36.571988 ] } },
{ "type": "Feature", "properties": { "内容": "倉持整形外科・皮膚科美容皮膚科通所リハビリテーション【通所リハビリテーション】栃木県宇都宮市屋板町405-1", "url": "https://www.kaigokensaku.mhlw.go.jp/09/index.php?action_kouhyou_detail_004_kani=true&JigyosyoCd=0910112762-00&ServiceCd=160&Type=search", "url2": "https://www.kuramochi-hp.com/" }, "geometry": { "type": "Point", "coordinates": [ 139.90156879999995, 36.5031376 ] } },
{ "type": "Feature", "properties": { "内容": "医療法人百生会　星脳神経外科【通所リハビリテーション】竹林町877－1", "url": "https://www.kaigokensaku.mhlw.go.jp/09/index.php?action_kouhyou_detail_004_kani=true&JigyosyoCd=0910114982-00&ServiceCd=160&Type=search", "url2": "http://hoshi-nogeka.com" }, "geometry": { "type": "Point", "coordinates": [ 139.8963746, 36.5764022 ] } },
{ "type": "Feature", "properties": { "内容": "宇都宮シルバーホーム【通所リハビリテーション】栃木県宇都宮市平出町４１３番地", "url": "https://www.kaigokensaku.mhlw.go.jp/09/index.php?action_kouhyou_detail_004_kani=true&JigyosyoCd=0950180018-00&ServiceCd=160&Type=search", "url2": "https://www.hokutokai.or.jp" }, "geometry": { "type": "Point", "coordinates": [ 139.946911099999966, 36.5702412 ] } },
{ "type": "Feature", "properties": { "内容": "介護老人保健施設陽南【通所リハビリテーション】栃木県宇都宮市陽南4-6-34", "url": "https://www.kaigokensaku.mhlw.go.jp/09/index.php?action_kouhyou_detail_004_kani=true&JigyosyoCd=0950180042-00&ServiceCd=160&Type=search", "url2": null }, "geometry": { "type": "Point", "coordinates": [ 139.867425799999978, 36.5371529 ] } },
{ "type": "Feature", "properties": { "内容": "ホスピア宇都宮【通所リハビリテーション】栃木県宇都宮市東宿郷２－１－１", "url": "https://www.kaigokensaku.mhlw.go.jp/09/index.php?action_kouhyou_detail_004_kani=true&JigyosyoCd=0950180067-00&ServiceCd=160&Type=search", "url2": "http://www.zenjinkai-utsunomiya.jp/hospia/" }, "geometry": { "type": "Point", "coordinates": [ 139.8998054, 36.5578322 ] } },
{ "type": "Feature", "properties": { "内容": "うつのみや病院附属介護老人保健施設【通所リハビリテーション】栃木県宇都宮市南高砂町11番17号", "url": "https://www.kaigokensaku.mhlw.go.jp/09/index.php?action_kouhyou_detail_004_kani=true&JigyosyoCd=0950180075-00&ServiceCd=160&Type=search", "url2": "https://utsunomiya.jcho.go.jp/rouken/" }, "geometry": { "type": "Point", "coordinates": [ 139.870780400000058, 36.4833424 ] } },
{ "type": "Feature", "properties": { "内容": "介護老人保健施設　いこいの郷【通所リハビリテーション】栃木県宇都宮市岩曾町１１０４－４", "url": "https://www.kaigokensaku.mhlw.go.jp/09/index.php?action_kouhyou_detail_004_kani=true&JigyosyoCd=0950180083-00&ServiceCd=160&Type=search", "url2": "http://www.takeyamakai.jp/ikoinosato/" }, "geometry": { "type": "Point", "coordinates": [ 139.901395800000046, 36.580366 ] } },
{ "type": "Feature", "properties": { "内容": "介護老人保健施設　しらさぎ荘【通所リハビリテーション】栃木県宇都宮市白沢町７７１", "url": "https://www.kaigokensaku.mhlw.go.jp/09/index.php?action_kouhyou_detail_004_kani=true&JigyosyoCd=0952180016-00&ServiceCd=160&Type=search", "url2": "http://roken-shirasagi.jp/" }, "geometry": { "type": "Point", "coordinates": [ 139.945461900000026, 36.6315888 ] } },
{ "type": "Feature", "properties": { "内容": "老人保健施設　ファミール滝の原　通所リハビリテーション【通所リハビリテーション】栃木県宇都宮市鶴田町3375", "url": "https://www.kaigokensaku.mhlw.go.jp/09/index.php?action_kouhyou_detail_004_kani=true&JigyosyoCd=0970104709-00&ServiceCd=160&Type=search", "url2": "http://care-net.biz/09/saijinkai/" }, "geometry": { "type": "Point", "coordinates": [ 139.86166590912319, 36.544010603046878 ] } },
{ "type": "Feature", "properties": { "内容": "倉持整形外・内科通所リハビリテーション【通所リハビリテーション】栃木県宇都宮市今宮3-1-6", "url": "https://www.kaigokensaku.mhlw.go.jp/09/index.php?action_kouhyou_detail_004_kani=true&JigyosyoCd=0970107900-00&ServiceCd=160&Type=search", "url2": "https://www.kuramochi-seikei.com/" }, "geometry": { "type": "Point", "coordinates": [ 139.863760299999967, 36.5173884 ] } },
{ "type": "Feature", "properties": { "内容": "医療法人同慈会伏島医院デイケアセンター【通所リハビリテーション】栃木県足利市里矢場町1985-2", "url": "https://www.kaigokensaku.mhlw.go.jp/09/index.php?action_kouhyou_detail_004_kani=true&JigyosyoCd=0910210582-00&ServiceCd=160&Type=search", "url2": null }, "geometry": { "type": "Point", "coordinates": [ 139.4264916, 36.31041 ] } },
{ "type": "Feature", "properties": { "内容": "医療法人　慈風会　関内科医院【通所リハビリテーション】栃木県足利市利保町３－７－１", "url": "https://www.kaigokensaku.mhlw.go.jp/09/index.php?action_kouhyou_detail_004_kani=true&JigyosyoCd=0910210228-00&ServiceCd=160&Type=search", "url2": "http://nonohana-sekinaika.jimdo.com/" }, "geometry": { "type": "Point", "coordinates": [ 139.4729185, 36.3593225 ] } },
{ "type": "Feature", "properties": { "内容": "西田医院【通所リハビリテーション】栃木県足利市小俣町1789番地1", "url": "https://www.kaigokensaku.mhlw.go.jp/09/index.php?action_kouhyou_detail_004_kani=true&JigyosyoCd=0910210772-00&ServiceCd=160&Type=search", "url2": null }, "geometry": { "type": "Point", "coordinates": [ 139.379407899999933, 36.3735936 ] } },
{ "type": "Feature", "properties": { "内容": "本庄記念病院（デイ・ケアセンター）【通所リハビリテーション】栃木県足利市堀込町２８５９", "url": "https://www.kaigokensaku.mhlw.go.jp/09/index.php?action_kouhyou_detail_004_kani=true&JigyosyoCd=0910210962-00&ServiceCd=160&Type=search", "url2": null }, "geometry": { "type": "Point", "coordinates": [ 139.435161300663822, 36.320024266648311 ] } },
{ "type": "Feature", "properties": { "内容": "介護老人保健施設　グリーンヒルズ２１　通所リハビリテーション【通所リハビリテーション】栃木県足利市大前町1220", "url": "https://www.kaigokensaku.mhlw.go.jp/09/index.php?action_kouhyou_detail_004_kani=true&JigyosyoCd=0950280024-00&ServiceCd=160&Type=search", "url2": "http://www.koubai－kai.or.jp/" }, "geometry": { "type": "Point", "coordinates": [ 139.403503499999943, 36.3630702 ] } },
{ "type": "Feature", "properties": { "内容": "介護老人保健施設　四恩苑【通所リハビリテーション】栃木県足利市多田木町1168-1", "url": "https://www.kaigokensaku.mhlw.go.jp/09/index.php?action_kouhyou_detail_004_kani=true&JigyosyoCd=0950280032-00&ServiceCd=160&Type=search", "url2": "http://www.ryu-sei.or.jp" }, "geometry": { "type": "Point", "coordinates": [ 139.531800100000027, 36.3139066 ] } },
{ "type": "Feature", "properties": { "内容": "介護老人保健施設　マーガレットヒルズ【通所リハビリテーション】栃木県足利市五十部町１７４９番地５", "url": "https://www.kaigokensaku.mhlw.go.jp/09/index.php?action_kouhyou_detail_004_kani=true&JigyosyoCd=0950280057-00&ServiceCd=160&Type=search", "url2": "http://www.1515.or.jp" }, "geometry": { "type": "Point", "coordinates": [ 139.422654400000056, 36.3518244 ] } },
{ "type": "Feature", "properties": { "内容": "介護老人保健施設たすけあい【通所リハビリテーション】栃木県足利市花園町１－２", "url": "https://www.kaigokensaku.mhlw.go.jp/09/index.php?action_kouhyou_detail_004_kani=true&JigyosyoCd=0950280065-00&ServiceCd=160&Type=search", "url2": "http://www17.ocn.ne.jp/~shobikai/" }, "geometry": { "type": "Point", "coordinates": [ 139.474477200000024, 36.3359996 ] } },
{ "type": "Feature", "properties": { "内容": "介護老人保健施設　葵の園・足利【通所リハビリテーション】常見町２－１０－１", "url": "https://www.kaigokensaku.mhlw.go.jp/09/index.php?action_kouhyou_detail_004_kani=true&JigyosyoCd=0950280073-00&ServiceCd=160&Type=search", "url2": "http://www.aoikai.jp" }, "geometry": { "type": "Point", "coordinates": [ 139.486170899999934, 36.3182243 ] } },
{ "type": "Feature", "properties": { "内容": "介護老人保健施設　グリーンホーム【通所リハビリテーション】栃木県足利市福居町１２１０", "url": "https://www.kaigokensaku.mhlw.go.jp/09/index.php?action_kouhyou_detail_004_kani=true&JigyosyoCd=0950280016-00&ServiceCd=160&Type=search", "url2": "http://www.koueikai.com/" }, "geometry": { "type": "Point", "coordinates": [ 139.460223199999973, 36.3067159 ] } },
{ "type": "Feature", "properties": { "内容": "医療法人もとい会ふじおかデイケアセンター【通所リハビリテーション】栃木県栃木市藤岡町藤岡２６－３", "url": "https://www.kaigokensaku.mhlw.go.jp/09/index.php?action_kouhyou_detail_004_kani=true&JigyosyoCd=0912310711-00&ServiceCd=160&Type=search", "url2": null }, "geometry": { "type": "Point", "coordinates": [ 139.652482, 36.2711683 ] } },
{ "type": "Feature", "properties": { "内容": "おおやクリニック　デイケアセンター【通所リハビリテーション】栃木県栃木市片柳町２丁目１番５０号", "url": "https://www.kaigokensaku.mhlw.go.jp/09/index.php?action_kouhyou_detail_004_kani=true&JigyosyoCd=0910310382-00&ServiceCd=160&Type=search", "url2": "https://www.ooya-cl.com" }, "geometry": { "type": "Point", "coordinates": [ 139.72676279999996, 36.3720259 ] } },
{ "type": "Feature", "properties": { "内容": "整形外科メディカルパパス　ディケアセンターワーズワース【通所リハビリテーション】大平町西水代1943-1", "url": "https://www.kaigokensaku.mhlw.go.jp/09/index.php?action_kouhyou_detail_004_kani=true&JigyosyoCd=0910311075-00&ServiceCd=160&Type=search", "url2": "https://medical-papas.jimdofree.com" }, "geometry": { "type": "Point", "coordinates": [ 139.710643800000014, 36.3191325 ] } },
{ "type": "Feature", "properties": { "内容": "介護老人保健施設　ノイエシュテルン【通所リハビリテーション】栃木県栃木市惣社町138番地", "url": "https://www.kaigokensaku.mhlw.go.jp/09/index.php?action_kouhyou_detail_004_kani=true&JigyosyoCd=0950380022-00&ServiceCd=160&Type=search", "url2": "http://www.sfk.or.jp/" }, "geometry": { "type": "Point", "coordinates": [ 139.7811653, 36.3999576 ] } },
{ "type": "Feature", "properties": { "内容": "一般財団法人とちぎメディカルセンター　介護老人保健施設とちぎの郷【通所リハビリテーション】栃木県栃木市境町２７番２１号", "url": "https://www.kaigokensaku.mhlw.go.jp/09/index.php?action_kouhyou_detail_004_kani=true&JigyosyoCd=0950380030-00&ServiceCd=160&Type=search", "url2": "https://www.tochigi-medicalcenter.or.jp/tochiginosato/" }, "geometry": { "type": "Point", "coordinates": [ 139.727083981553619, 36.368423170003958 ] } },
{ "type": "Feature", "properties": { "内容": "介護老人保健施設　にしかた【通所リハビリテーション】栃木県栃木市西方町金崎273番地", "url": "https://www.kaigokensaku.mhlw.go.jp/09/index.php?action_kouhyou_detail_004_kani=true&JigyosyoCd=0952280014-00&ServiceCd=160&Type=search", "url2": "http://www.cc9.ne.jp/~nishikata-hosp/" }, "geometry": { "type": "Point", "coordinates": [ 139.745951699999978, 36.468929 ] } },
{ "type": "Feature", "properties": { "内容": "介護老人保健施設やすらぎの里八州苑【通所リハビリテーション】栃木県栃木市藤岡町太田1394番地1", "url": "https://www.kaigokensaku.mhlw.go.jp/09/index.php?action_kouhyou_detail_004_kani=true&JigyosyoCd=0952380046-00&ServiceCd=160&Type=search", "url2": "https://www.mokusuikai.com/" }, "geometry": { "type": "Point", "coordinates": [ 139.6491149, 36.3079826 ] } },
{ "type": "Feature", "properties": { "内容": "藤沼医院通所リハビリテーション【通所リハビリテーション】栃木県栃木市大平町富田５２１２－７", "url": "https://www.kaigokensaku.mhlw.go.jp/09/index.php?action_kouhyou_detail_004_kani=true&JigyosyoCd=0912310315-00&ServiceCd=160&Type=search", "url2": "https://fujinumaclinic.com/" }, "geometry": { "type": "Point", "coordinates": [ 139.640108300000065, 36.3573081 ] } },
{ "type": "Feature", "properties": { "内容": "介護老人保健施設　安純の里【通所リハビリテーション】栃木県栃木市岩舟町古江４０５", "url": "https://www.kaigokensaku.mhlw.go.jp/09/index.php?action_kouhyou_detail_004_kani=true&JigyosyoCd=0952380038-00&ServiceCd=160&Type=search", "url2": "http://www.azumi.s-y.gr.com/" }, "geometry": { "type": "Point", "coordinates": [ 139.619547399999988, 36.3278272 ] } },
{ "type": "Feature", "properties": { "内容": "介護老人保健施設　リハビリパークぶどうの舎【通所リハビリテーション】栃木県栃木市大平町富田5-232", "url": "https://www.kaigokensaku.mhlw.go.jp/09/index.php?action_kouhyou_detail_004_kani=true&JigyosyoCd=0951680016-00&ServiceCd=160&Type=search", "url2": "http://www.nogihosp.or.jp" }, "geometry": { "type": "Point", "coordinates": [ 139.703411100000039, 36.3352996 ] } },
{ "type": "Feature", "properties": { "内容": "医療法人　星霜会　熊倉医院【通所リハビリテーション】栃木県栃木市岩舟町新里210-1", "url": "https://www.kaigokensaku.mhlw.go.jp/09/index.php?action_kouhyou_detail_004_kani=true&JigyosyoCd=0912310703-00&ServiceCd=160&Type=search", "url2": "https://sksmile.wixsite.com/daycaresmile" }, "geometry": { "type": "Point", "coordinates": [ 139.637140100000011, 36.3276996 ] } },
{ "type": "Feature", "properties": { "内容": "亀田医院【通所リハビリテーション】栃木県佐野市村上町１１１－１", "url": "https://www.kaigokensaku.mhlw.go.jp/09/index.php?action_kouhyou_detail_004_kani=true&JigyosyoCd=0910410372-00&ServiceCd=160&Type=search", "url2": "http://www.kamedaiin.com/" }, "geometry": { "type": "Point", "coordinates": [ 139.540947299999971, 36.2994359 ] } },
{ "type": "Feature", "properties": { "内容": "介護老人保健施設　和の里【通所リハビリテーション】栃木県佐野市高砂町２８００－１", "url": "https://www.kaigokensaku.mhlw.go.jp/09/index.php?action_kouhyou_detail_004_kani=true&JigyosyoCd=0950480004-00&ServiceCd=160&Type=search", "url2": "https://nagomi.s-y.gr.com/" }, "geometry": { "type": "Point", "coordinates": [ 139.5792993, 36.3130548 ] } },
{ "type": "Feature", "properties": { "内容": "介護老人保健施設佐野ナーシングクワサキ【通所リハビリテーション】栃木県佐野市免鳥町４７２－１", "url": "https://www.kaigokensaku.mhlw.go.jp/09/index.php?action_kouhyou_detail_004_kani=true&JigyosyoCd=0950480012-00&ServiceCd=160&Type=search", "url2": "https://kuwasakikai.jp/" }, "geometry": { "type": "Point", "coordinates": [ 139.546843699999954, 36.3104321 ] } },
{ "type": "Feature", "properties": { "内容": "介護老人保健施設　さくらの里【通所リハビリテーション】栃木県佐野市寺久保町248-1", "url": "https://www.kaigokensaku.mhlw.go.jp/09/index.php?action_kouhyou_detail_004_kani=true&JigyosyoCd=0950480020-00&ServiceCd=160&Type=search", "url2": "http://www.sakura.s-y.gr.com" }, "geometry": { "type": "Point", "coordinates": [ 139.5267735, 36.3758804 ] } },
{ "type": "Feature", "properties": { "内容": "介護老人保健施設　あさひ【通所リハビリテーション】栃木県佐野市葛生東1-15-7", "url": "https://www.kaigokensaku.mhlw.go.jp/09/index.php?action_kouhyou_detail_004_kani=true&JigyosyoCd=0950480046-00&ServiceCd=160&Type=search", "url2": null }, "geometry": { "type": "Point", "coordinates": [ 139.61343080000006, 36.4019477 ] } },
{ "type": "Feature", "properties": { "内容": "介護老人保健施設　あそヘルホス【通所リハビリテーション】栃木県佐野市田沼町1832番地１", "url": "https://www.kaigokensaku.mhlw.go.jp/09/index.php?action_kouhyou_detail_004_kani=true&JigyosyoCd=0950480061-00&ServiceCd=160&Type=search", "url2": "https://smc-hp.net/asoheruho" }, "geometry": { "type": "Point", "coordinates": [ 139.582469485319507, 36.373131059371843 ] } },
{ "type": "Feature", "properties": { "内容": "緑の屋根診療所【通所リハビリテーション】栃木県佐野市堀米町1348-5", "url": "https://www.kaigokensaku.mhlw.go.jp/09/index.php?action_kouhyou_detail_004_kani=true&JigyosyoCd=0910410620-00&ServiceCd=160&Type=search", "url2": "http://midorinoyane.com/" }, "geometry": { "type": "Point", "coordinates": [ 139.5794029, 36.329238 ] } },
{ "type": "Feature", "properties": { "内容": "老人保健施設かみつが【通所リハビリテーション】栃木県鹿沼市上殿町９６０－２", "url": "https://www.kaigokensaku.mhlw.go.jp/09/index.php?action_kouhyou_detail_004_kani=true&JigyosyoCd=0950580027-00&ServiceCd=160&Type=search", "url2": "http://kamituga-roken.jp" }, "geometry": { "type": "Point", "coordinates": [ 139.752023396295158, 36.554471991898737 ] } },
{ "type": "Feature", "properties": { "内容": "介護老人保健施設　たけむらクローバー館【通所リハビリテーション】栃木県鹿沼市茂呂１８５８-１４７", "url": "https://www.kaigokensaku.mhlw.go.jp/09/index.php?action_kouhyou_detail_004_kani=true&JigyosyoCd=0950580043-00&ServiceCd=160&Type=search", "url2": "http://takemuracloverkan.com/" }, "geometry": { "type": "Point", "coordinates": [ 139.77173629999993, 36.5366567 ] } },
{ "type": "Feature", "properties": { "内容": "鹿沼脳神経外科【通所リハビリテーション】栃木県鹿沼市茂呂２０２７", "url": "https://www.kaigokensaku.mhlw.go.jp/09/index.php?action_kouhyou_detail_004_kani=true&JigyosyoCd=0910510437-00&ServiceCd=160&Type=search", "url2": "http://www.kanuma-neuro.com/" }, "geometry": { "type": "Point", "coordinates": [ 139.771527699999979, 36.5444419 ] } },
{ "type": "Feature", "properties": { "内容": "足尾双愛病院　通所リハビリテーション【通所リハビリテーション】栃木県日光市足尾町砂畑4147-2", "url": "https://www.kaigokensaku.mhlw.go.jp/09/index.php?action_kouhyou_detail_004_kani=true&JigyosyoCd=0912210085-00&ServiceCd=160&Type=search", "url2": "http://www.ashiohp.com" }, "geometry": { "type": "Point", "coordinates": [ 139.3856256, 36.6797225 ] } },
{ "type": "Feature", "properties": { "内容": "介護老人保健施設にっこう【通所リハビリテーション】栃木県日光市清滝安良沢町1752-10", "url": "https://www.kaigokensaku.mhlw.go.jp/09/index.php?action_kouhyou_detail_004_kani=true&JigyosyoCd=0950680017-00&ServiceCd=160&Type=search", "url2": "http://www.nikko-roken.jp/html/" }, "geometry": { "type": "Point", "coordinates": [ 139.576215899999966, 36.7497155 ] } },
{ "type": "Feature", "properties": { "内容": "介護老人保健施設見龍堂メディケアユニッツ【通所リハビリテーション】栃木県日光市木和田島3008-8", "url": "https://www.kaigokensaku.mhlw.go.jp/09/index.php?action_kouhyou_detail_004_kani=true&JigyosyoCd=0950780007-00&ServiceCd=160&Type=search", "url2": "http://yaoitakinenkai.or.jp/" }, "geometry": { "type": "Point", "coordinates": [ 139.752911899999958, 36.681261 ] } },
{ "type": "Feature", "properties": { "内容": "介護老人保健施設　今市Ｌケアセンター【通所リハビリテーション】栃木県日光市平ヶ崎６０５－１", "url": "https://www.kaigokensaku.mhlw.go.jp/09/index.php?action_kouhyou_detail_004_kani=true&JigyosyoCd=0950780015-00&ServiceCd=160&Type=search", "url2": "ｈｔｔｐ；//ｙａｏｉｔａｋｉｎｅｎｋａｉ．ｏｒ．ｊｐ" }, "geometry": { "type": "Point", "coordinates": [ 139.681809700000031, 36.715869 ] } },
{ "type": "Feature", "properties": { "内容": "介護老人保健施設ヴィラフォーレスタ（森の家）【通所リハビリテーション】栃木県日光市根室６０７-５", "url": "https://www.kaigokensaku.mhlw.go.jp/09/index.php?action_kouhyou_detail_004_kani=true&JigyosyoCd=0950780023-00&ServiceCd=160&Type=search", "url2": "http://www.villaforesta.jp" }, "geometry": { "type": "Point", "coordinates": [ 139.779072, 36.7084002 ] } },
{ "type": "Feature", "properties": { "内容": "小山整形外科内科【通所リハビリテーション】栃木県小山市大字雨ヶ谷753番地", "url": "https://www.kaigokensaku.mhlw.go.jp/09/index.php?action_kouhyou_detail_004_kani=true&JigyosyoCd=0910810779-00&ServiceCd=160&Type=search", "url2": null }, "geometry": { "type": "Point", "coordinates": [ 139.818226900000013, 36.2816037 ] } },
{ "type": "Feature", "properties": { "内容": "介護老人保健施設　さくら野【通所リハビリテーション】栃木県小山市大字卒島110番地", "url": "https://www.kaigokensaku.mhlw.go.jp/09/index.php?action_kouhyou_detail_004_kani=true&JigyosyoCd=0950880039-00&ServiceCd=160&Type=search", "url2": "http://www.sakura-ac.com/" }, "geometry": { "type": "Point", "coordinates": [ 139.778082400000017, 36.3386926 ] } },
{ "type": "Feature", "properties": { "内容": "介護老人保健施設　つむぎの郷【通所リハビリテーション】栃木県小山市犬塚６２-２", "url": "https://www.kaigokensaku.mhlw.go.jp/09/index.php?action_kouhyou_detail_004_kani=true&JigyosyoCd=0950880013-00&ServiceCd=160&Type=search", "url2": "http://www.hoshinokai.com/" }, "geometry": { "type": "Point", "coordinates": [ 139.832775199999986, 36.3226082 ] } },
{ "type": "Feature", "properties": { "内容": "関根整形外科医院デイケアセンター【通所リハビリテーション】栃木県小山市駅南町1丁目9番地15号", "url": "https://www.kaigokensaku.mhlw.go.jp/09/index.php?action_kouhyou_detail_004_kani=true&JigyosyoCd=0910810696-00&ServiceCd=160&Type=search", "url2": "http://park11.wakwak.com/~sekinet" }, "geometry": { "type": "Point", "coordinates": [ 139.808927400000016, 36.3056619 ] } },
{ "type": "Feature", "properties": { "内容": "通所リハビリテーションサンタモニカ【通所リハビリテーション】栃木県小山市北飯田74-1", "url": "https://www.kaigokensaku.mhlw.go.jp/09/index.php?action_kouhyou_detail_004_kani=true&JigyosyoCd=0910810704-00&ServiceCd=160&Type=search", "url2": null }, "geometry": { "type": "Point", "coordinates": [ 139.866547800000035, 36.3365214 ] } },
{ "type": "Feature", "properties": { "内容": "デイケアＷａｋｉ愛愛【通所リハビリテーション】栃木県小山市中久喜1116腎ステーション・デイケアＷａｋｉ愛愛", "url": "https://www.kaigokensaku.mhlw.go.jp/09/index.php?action_kouhyou_detail_004_kani=true&JigyosyoCd=0910810720-00&ServiceCd=160&Type=search", "url2": "http://www.suginoki-cl.jp/" }, "geometry": { "type": "Point", "coordinates": [ 139.847118799999947, 36.3175565 ] } },
{ "type": "Feature", "properties": { "内容": "小山整形外科内科クリニック【通所リハビリテーション】栃木県小山市大字雨ヶ谷824-18", "url": "https://www.kaigokensaku.mhlw.go.jp/09/index.php?action_kouhyou_detail_004_kani=true&JigyosyoCd=0910810845-00&ServiceCd=160&Type=search", "url2": null }, "geometry": { "type": "Point", "coordinates": [ 139.816960399999971, 36.2810065 ] } },
{ "type": "Feature", "properties": { "内容": "医療法人　朝日会　思川ケアステージ　通所リハビリテーション【通所リハビリテーション】栃木県小山市喜沢660", "url": "https://www.kaigokensaku.mhlw.go.jp/09/index.php?action_kouhyou_detail_004_kani=true&JigyosyoCd=0950880047-00&ServiceCd=160&Type=search", "url2": "http://www.asahi-hp.or.jp/care_institution/" }, "geometry": { "type": "Point", "coordinates": [ 139.821600600000011, 36.3457718 ] } },
{ "type": "Feature", "properties": { "内容": "介護老人保健施設　晃南【通所リハビリテーション】栃木県小山市乙女７９５", "url": "https://www.kaigokensaku.mhlw.go.jp/09/index.php?action_kouhyou_detail_004_kani=true&JigyosyoCd=0950880054-00&ServiceCd=160&Type=search", "url2": "http://care-net.biz/09/kounan" }, "geometry": { "type": "Point", "coordinates": [ 139.759233900000027, 36.258546 ] } },
{ "type": "Feature", "properties": { "内容": "介護老人保健施設　空の舎【通所リハビリテーション】栃木県小山市若木町一丁目1-2", "url": "https://www.kaigokensaku.mhlw.go.jp/09/index.php?action_kouhyou_detail_004_kani=true&JigyosyoCd=0950880070-00&ServiceCd=160&Type=search", "url2": "https://www.nogihosp.or.jp" }, "geometry": { "type": "Point", "coordinates": [ 139.800679416007995, 36.322874830735266 ] } },
{ "type": "Feature", "properties": { "内容": "通所リハビリテーション苅部太陽の家【通所リハビリテーション】栃木県小山市大字南飯田317番地5", "url": "https://www.kaigokensaku.mhlw.go.jp/09/index.php?action_kouhyou_detail_004_kani=true&JigyosyoCd=09B0800018-00&ServiceCd=160&Type=search", "url2": "https://oyama-shinseikai.or.jp/taiyouhouse" }, "geometry": { "type": "Point", "coordinates": [ 139.7686433, 36.2459191 ] } },
{ "type": "Feature", "properties": { "内容": "介護老人保健施設　祇園荘【通所リハビリテーション】栃木県小山市城山町２丁目７番１８号", "url": "https://www.kaigokensaku.mhlw.go.jp/09/index.php?action_kouhyou_detail_004_kani=true&JigyosyoCd=0950880021-00&ServiceCd=160&Type=search", "url2": "http://www.sugimura-hospital.jp/gionsou/" }, "geometry": { "type": "Point", "coordinates": [ 139.803411200000028, 36.3150133 ] } },
{ "type": "Feature", "properties": { "内容": "ナーシングホーム青葉【通所リハビリテーション】栃木県真岡市高勢町１丁目２０９の－１", "url": "https://www.kaigokensaku.mhlw.go.jp/09/index.php?action_kouhyou_detail_004_kani=true&JigyosyoCd=0950980029-00&ServiceCd=160&Type=search", "url2": "http://www.sakurai-naika.jp/" }, "geometry": { "type": "Point", "coordinates": [ 139.978714299999979, 36.4368541 ] } },
{ "type": "Feature", "properties": { "内容": "真岡西部クリニック【通所リハビリテーション】栃木県真岡市長田5-8-1", "url": "https://www.kaigokensaku.mhlw.go.jp/09/index.php?action_kouhyou_detail_004_kani=true&JigyosyoCd=0910910249-00&ServiceCd=160&Type=search", "url2": "http://www.i-souseikai.com/" }, "geometry": { "type": "Point", "coordinates": [ 139.9614881, 36.4366004 ] } },
{ "type": "Feature", "properties": { "内容": "二宮中央クリニックデイケア【通所リハビリテーション】栃木県真岡市久下田712-2", "url": "https://www.kaigokensaku.mhlw.go.jp/09/index.php?action_kouhyou_detail_004_kani=true&JigyosyoCd=0910910421-00&ServiceCd=160&Type=search", "url2": null }, "geometry": { "type": "Point", "coordinates": [ 139.96842330000004, 36.3743964 ] } },
{ "type": "Feature", "properties": { "内容": "介護老人保健施設　春祺荘　通所リハビリテーション【通所リハビリテーション】栃木県真岡市亀山350-1", "url": "https://www.kaigokensaku.mhlw.go.jp/09/index.php?action_kouhyou_detail_004_kani=true&JigyosyoCd=0950980011-00&ServiceCd=160&Type=search", "url2": "http://care-net.biz/09/shunkiso/" }, "geometry": { "type": "Point", "coordinates": [ 139.988596, 36.4607491 ] } },
{ "type": "Feature", "properties": { "内容": "福田記念病院【通所リハビリテーション】栃木県真岡市並木町３－１０－６", "url": "https://www.kaigokensaku.mhlw.go.jp/09/index.php?action_kouhyou_detail_004_kani=true&JigyosyoCd=0910910108-00&ServiceCd=160&Type=search", "url2": "http://www.fukudakai.sms.gr.jp/" }, "geometry": { "type": "Point", "coordinates": [ 139.995534799999973, 36.4430514 ] } },
{ "type": "Feature", "properties": { "内容": "医療法人　創生会　真岡中央クリニック【通所リハビリテーション】栃木県真岡市上高間木2-24-4", "url": "https://www.kaigokensaku.mhlw.go.jp/09/index.php?action_kouhyou_detail_004_kani=true&JigyosyoCd=0910910264-00&ServiceCd=160&Type=search", "url2": "http://www.i-souseikai.com/" }, "geometry": { "type": "Point", "coordinates": [ 139.985813499999949, 36.441604 ] } },
{ "type": "Feature", "properties": { "内容": "わたのみ荘【通所リハビリテーション】栃木県真岡市荒町３丁目４６番地９", "url": "https://www.kaigokensaku.mhlw.go.jp/09/index.php?action_kouhyou_detail_004_kani=true&JigyosyoCd=0950980037-00&ServiceCd=160&Type=search", "url2": "http://moka-hp.jp" }, "geometry": { "type": "Point", "coordinates": [ 140.01698, 36.4457295 ] } },
{ "type": "Feature", "properties": { "内容": "通所リハビリテーション環ごころ【通所リハビリテーション】栃木県真岡市荒町3-49-6", "url": "https://www.kaigokensaku.mhlw.go.jp/09/index.php?action_kouhyou_detail_004_kani=true&JigyosyoCd=0970900718-00&ServiceCd=160&Type=search", "url2": "http://www.wano-kai.com/wagokoro/" }, "geometry": { "type": "Point", "coordinates": [ 140.015102330223499, 36.445431167635526 ] } },
{ "type": "Feature", "properties": { "内容": "西真岡アクセプトインターナショナルクリニック【通所リハビリテーション】栃木県真岡市高勢町３丁目203-1", "url": "https://www.kaigokensaku.mhlw.go.jp/09/index.php?action_kouhyou_detail_004_kani=true&JigyosyoCd=0910910520-00&ServiceCd=160&Type=search", "url2": "http://nishimoka-accept.clinic/" }, "geometry": { "type": "Point", "coordinates": [ 139.9814608, 36.427683 ] } },
{ "type": "Feature", "properties": { "内容": "だいなちょっくらリハビリ【通所リハビリテーション】栃木県大田原市紫塚3-2633-10", "url": "https://www.kaigokensaku.mhlw.go.jp/09/index.php?action_kouhyou_detail_004_kani=true&JigyosyoCd=0911010338-00&ServiceCd=160&Type=search", "url2": "http://dyna.gotdns.com/" }, "geometry": { "type": "Point", "coordinates": [ 140.021712400000069, 36.8774753 ] } },
{ "type": "Feature", "properties": { "内容": "同仁苑通所リハビリテーション【通所リハビリテーション】栃木県大田原市下石上1452番地", "url": "https://www.kaigokensaku.mhlw.go.jp/09/index.php?action_kouhyou_detail_004_kani=true&JigyosyoCd=0951080001-00&ServiceCd=160&Type=search", "url2": "http://www.nasuchuoh-hospital.jp" }, "geometry": { "type": "Point", "coordinates": [ 139.948071700000014, 36.8564476 ] } },
{ "type": "Feature", "properties": { "内容": "介護老人保健施設　椿寿荘【通所リハビリテーション】栃木県大田原市末広１丁目２番５号", "url": "https://www.kaigokensaku.mhlw.go.jp/09/index.php?action_kouhyou_detail_004_kani=true&JigyosyoCd=0951080019-00&ServiceCd=160&Type=search", "url2": "http://www.tinjyusoh.jp/" }, "geometry": { "type": "Point", "coordinates": [ 140.020618900000045, 36.8605882 ] } },
{ "type": "Feature", "properties": { "内容": "おおたわらマロニエデイケアサービス【通所リハビリテーション】栃木県大田原市北金丸2600番地8", "url": "https://www.kaigokensaku.mhlw.go.jp/09/index.php?action_kouhyou_detail_004_kani=true&JigyosyoCd=0971000310-00&ServiceCd=160&Type=search", "url2": "http://hoyukai.iuhw.ac.jp" }, "geometry": { "type": "Point", "coordinates": [ 140.0715818, 36.8711024 ] } },
{ "type": "Feature", "properties": { "内容": "だいなじっくりリハビリ【通所リハビリテーション】栃木県大田原市紫塚３-２６３３-１２", "url": "https://www.kaigokensaku.mhlw.go.jp/09/index.php?action_kouhyou_detail_004_kani=true&JigyosyoCd=0971000666-00&ServiceCd=160&Type=search", "url2": "http://dyna.gotdns.com" }, "geometry": { "type": "Point", "coordinates": [ 140.021712400000069, 36.8774753 ] } },
{ "type": "Feature", "properties": { "内容": "医療法人社団　上田医院【通所リハビリテーション】栃木県矢板市末広町32-2", "url": "https://www.kaigokensaku.mhlw.go.jp/09/index.php?action_kouhyou_detail_004_kani=true&JigyosyoCd=0911110153-00&ServiceCd=160&Type=search", "url2": "http://www.uedaiin.com/" }, "geometry": { "type": "Point", "coordinates": [ 139.936183699999987, 36.8024093 ] } },
{ "type": "Feature", "properties": { "内容": "介護老人保健施設アゼリアホーム【通所リハビリテーション】栃木県矢板市末広町45－3", "url": "https://www.kaigokensaku.mhlw.go.jp/09/index.php?action_kouhyou_detail_004_kani=true&JigyosyoCd=0951180017-00&ServiceCd=160&Type=search", "url2": "http://www.ogata-cl.or.jp/azeriahome/index.html" }, "geometry": { "type": "Point", "coordinates": [ 139.935592, 36.8049451 ] } },
{ "type": "Feature", "properties": { "内容": "国際医療福祉大学塩谷病院（しおや通所リハビリテーション）【通所リハビリテーション】栃木県矢板市富田７７番地", "url": "https://www.kaigokensaku.mhlw.go.jp/09/index.php?action_kouhyou_detail_004_kani=true&JigyosyoCd=0915210215-00&ServiceCd=160&Type=search", "url2": "http://shioya.iuhw.ac.jp/" }, "geometry": { "type": "Point", "coordinates": [ 139.925348799999938, 36.7981734 ] } },
{ "type": "Feature", "properties": { "内容": "社会医療法人博愛会　菅間記念病院　通所リハビリテーション事業所【通所リハビリテーション】栃木県那須塩原市大黒町2番5号", "url": "https://www.kaigokensaku.mhlw.go.jp/09/index.php?action_kouhyou_detail_004_kani=true&JigyosyoCd=0911210060-00&ServiceCd=160&Type=search", "url2": "http://www.hakuai.or.jp/" }, "geometry": { "type": "Point", "coordinates": [ 140.04891171772158, 36.971040544970471 ] } },
{ "type": "Feature", "properties": { "内容": "介護老人保健施設マロニエ苑通所リハビリテーション【通所リハビリテーション】栃木県那須塩原市井口５３３-１１にしなすの総合在宅ケアセンター", "url": "https://www.kaigokensaku.mhlw.go.jp/09/index.php?action_kouhyou_detail_004_kani=true&JigyosyoCd=0951380005-00&ServiceCd=160&Type=search", "url2": "http://www.iuhw.ac.jp/maronie/" }, "geometry": { "type": "Point", "coordinates": [ 139.973069178712393, 36.911804767538385 ] } },
{ "type": "Feature", "properties": { "内容": "介護老人保健施設　秋桜の家　通所リハビリテーション【通所リハビリテーション】栃木県那須塩原市大原間81", "url": "https://www.kaigokensaku.mhlw.go.jp/09/index.php?action_kouhyou_detail_004_kani=true&JigyosyoCd=0951280015-00&ServiceCd=160&Type=search", "url2": "http://wata01.sakura.ne.jp/cosmos/" }, "geometry": { "type": "Point", "coordinates": [ 140.020711099999971, 36.9250009 ] } },
{ "type": "Feature", "properties": { "内容": "ケア・ステージ氏家【通所リハビリテーション】栃木県さくら市向河原４０８４", "url": "https://www.kaigokensaku.mhlw.go.jp/09/index.php?action_kouhyou_detail_004_kani=true&JigyosyoCd=0952680015-00&ServiceCd=160&Type=search", "url2": "https://www.seishikai-hp.or.jp/carestage/index.php" }, "geometry": { "type": "Point", "coordinates": [ 139.940477368122856, 36.694029289267533 ] } },
{ "type": "Feature", "properties": { "内容": "介護老人保健施設いずみ【通所リハビリテーション】栃木県さくら市氏家2650番地", "url": "https://www.kaigokensaku.mhlw.go.jp/09/index.php?action_kouhyou_detail_004_kani=true&JigyosyoCd=0952680031-00&ServiceCd=160&Type=search", "url2": "http://www.kurosu-hospital.jp/izumi/" }, "geometry": { "type": "Point", "coordinates": [ 139.968174699999963, 36.67968 ] } },
{ "type": "Feature", "properties": { "内容": "仲嶋医院【通所リハビリテーション】栃木県さくら市氏家3245-22", "url": "https://www.kaigokensaku.mhlw.go.jp/09/index.php?action_kouhyou_detail_004_kani=true&JigyosyoCd=0912610508-00&ServiceCd=160&Type=search", "url2": null }, "geometry": { "type": "Point", "coordinates": [ 139.9681071, 36.7015964 ] } },
{ "type": "Feature", "properties": { "内容": "介護老人保健施設　富士山苑【通所リハビリテーション】栃木県那須烏山市滝田1868-28", "url": "https://www.kaigokensaku.mhlw.go.jp/09/index.php?action_kouhyou_detail_004_kani=true&JigyosyoCd=0952580025-00&ServiceCd=160&Type=search", "url2": "https://roken-fujiyamaen.com" }, "geometry": { "type": "Point", "coordinates": [ 140.145636100000047, 36.6803487 ] } },
{ "type": "Feature", "properties": { "内容": "南那須介護老人保健施設【通所リハビリテーション】栃木県那須烏山市鴻野山２１２－２", "url": "https://www.kaigokensaku.mhlw.go.jp/09/index.php?action_kouhyou_detail_004_kani=true&JigyosyoCd=0952580033-00&ServiceCd=160&Type=search", "url2": "minaminasu2012@yahoo.co.jp" }, "geometry": { "type": "Point", "coordinates": [ 140.058705700000019, 36.6654785 ] } },
{ "type": "Feature", "properties": { "内容": "医療法人社団　望星会　グリーンタウンクリニック【通所リハビリテーション】栃木県下野市祇園2-3-2", "url": "https://www.kaigokensaku.mhlw.go.jp/09/index.php?action_kouhyou_detail_004_kani=true&JigyosyoCd=0911610061-00&ServiceCd=160&Type=search", "url2": "http://mtnet.jp/bouseikai/greentown/" }, "geometry": { "type": "Point", "coordinates": [ 139.859001556448675, 36.394279388158715 ] } },
{ "type": "Feature", "properties": { "内容": "医療法人　南河内診療所【通所リハビリテーション】栃木県下野市薬師寺2765番地2", "url": "https://www.kaigokensaku.mhlw.go.jp/09/index.php?action_kouhyou_detail_004_kani=true&JigyosyoCd=0912110285-00&ServiceCd=160&Type=search", "url2": "http://www.otassha-club.jp" }, "geometry": { "type": "Point", "coordinates": [ 139.8754672, 36.3956388 ] } },
{ "type": "Feature", "properties": { "内容": "小金井中央病院【通所リハビリテーション】栃木県下野市小金井2丁目4番地3", "url": "https://www.kaigokensaku.mhlw.go.jp/09/index.php?action_kouhyou_detail_004_kani=true&JigyosyoCd=0912310505-00&ServiceCd=160&Type=search", "url2": "http://www.koganei-chuo-hp.com" }, "geometry": { "type": "Point", "coordinates": [ 139.840831100000059, 36.3856837 ] } },
{ "type": "Feature", "properties": { "内容": "通所リハビリテーション　リハノバ【通所リハビリテーション】栃木県下野市文教1丁目11-7", "url": "https://www.kaigokensaku.mhlw.go.jp/09/index.php?action_kouhyou_detail_004_kani=true&JigyosyoCd=0971600416-00&ServiceCd=160&Type=search", "url2": "https://tomaruseikei.com/kaigo/" }, "geometry": { "type": "Point", "coordinates": [ 139.86035355092622, 36.441342473245854 ] } },
{ "type": "Feature", "properties": { "内容": "通所リハビリテーションデイケアしらさぎ【通所リハビリテーション】栃木県河内郡上三川町しらさぎ1-41-17", "url": "https://www.kaigokensaku.mhlw.go.jp/09/index.php?action_kouhyou_detail_004_kani=true&JigyosyoCd=0972100432-00&ServiceCd=160&Type=search", "url2": "http://hp.kaipoke.biz/675/" }, "geometry": { "type": "Point", "coordinates": [ 139.91383127434392, 36.440215708577263 ] } },
{ "type": "Feature", "properties": { "内容": "介護老人保健施設　看清坊【通所リハビリテーション】栃木県芳賀郡益子町益子４４９３", "url": "https://www.kaigokensaku.mhlw.go.jp/09/index.php?action_kouhyou_detail_004_kani=true&JigyosyoCd=0952780021-00&ServiceCd=160&Type=search", "url2": "http://www.fumon.jp" }, "geometry": { "type": "Point", "coordinates": [ 140.114154500000041, 36.4495918 ] } },
{ "type": "Feature", "properties": { "内容": "介護老人保健施設　もてぎの森うごうだ城【通所リハビリテーション】栃木県芳賀郡茂木町烏生田330", "url": "https://www.kaigokensaku.mhlw.go.jp/09/index.php?action_kouhyou_detail_004_kani=true&JigyosyoCd=0952780005-00&ServiceCd=160&Type=search", "url2": "http://www.moteginomori.com/" }, "geometry": { "type": "Point", "coordinates": [ 140.179537799999906, 36.5797257 ] } },
{ "type": "Feature", "properties": { "内容": "老人保健施設　みなと荘【通所リハビリテーション】栃木県下都賀郡壬生町大字北小林８１５", "url": "https://www.kaigokensaku.mhlw.go.jp/09/index.php?action_kouhyou_detail_004_kani=true&JigyosyoCd=0952380012-00&ServiceCd=160&Type=search", "url2": "http://www.tochinokikai.or.jp" }, "geometry": { "type": "Point", "coordinates": [ 139.820687499999963, 36.4751034 ] } },
{ "type": "Feature", "properties": { "内容": "野木病院通所リハビリテーション事業所【通所リハビリテーション】栃木県下都賀郡野木町友沼5320-2", "url": "https://www.kaigokensaku.mhlw.go.jp/09/index.php?action_kouhyou_detail_004_kani=true&JigyosyoCd=0972300115-00&ServiceCd=160&Type=search", "url2": "http://www.nogihosp.or.jp" }, "geometry": { "type": "Point", "coordinates": [ 139.748252800000046, 36.224847 ] } },
{ "type": "Feature", "properties": { "内容": "介護老人保健施設　ひまわり荘【通所リハビリテーション】栃木県下都賀郡野木町南赤塚1218-1", "url": "https://www.kaigokensaku.mhlw.go.jp/09/index.php?action_kouhyou_detail_004_kani=true&JigyosyoCd=0952380020-00&ServiceCd=160&Type=search", "url2": "https://www.nogihosp.or.jp/facility/himawari" }, "geometry": { "type": "Point", "coordinates": [ 139.747914199999968, 36.2189643 ] } },
{ "type": "Feature", "properties": { "内容": "高根沢シルバーホーム【通所リハビリテーション】栃木県塩谷郡高根沢町石末1005番地8", "url": "https://www.kaigokensaku.mhlw.go.jp/09/index.php?action_kouhyou_detail_004_kani=true&JigyosyoCd=0952680023-00&ServiceCd=160&Type=search", "url2": "http://www.hokutokai.or.jp/silver/facility/t-service/index.html" }, "geometry": { "type": "Point", "coordinates": [ 140.00331529999994, 36.6331872 ] } }
]
}
